<?xml version="1.0" encoding="utf-8"?>
<gpx xmlns="http://www.topografix.com/GPX/1/1" version="1.1" creator="">
  <trk>
    <name>Circuit VTT 22,4 km</name>
    <desc/>
    <trkseg>
      <trkpt lat="46.153671" lon="4.121511"/>
      <trkpt lat="46.153615" lon="4.122154"/>
      <trkpt lat="46.153564" lon="4.122379"/>
      <trkpt lat="46.153618" lon="4.122503"/>
      <trkpt lat="46.153627" lon="4.122792"/>
      <trkpt lat="46.15365" lon="4.122941"/>
      <trkpt lat="46.153754" lon="4.123251"/>
      <trkpt lat="46.154233" lon="4.123029"/>
      <trkpt lat="46.154359" lon="4.123003"/>
      <trkpt lat="46.154446" lon="4.123009"/>
      <trkpt lat="46.154965" lon="4.123102"/>
      <trkpt lat="46.156376" lon="4.123431"/>
      <trkpt lat="46.156626" lon="4.123452"/>
      <trkpt lat="46.156777" lon="4.123365"/>
      <trkpt lat="46.157042" lon="4.123256"/>
      <trkpt lat="46.157089" lon="4.123219"/>
      <trkpt lat="46.157124" lon="4.123163"/>
      <trkpt lat="46.157272" lon="4.123283"/>
      <trkpt lat="46.157414" lon="4.12343"/>
      <trkpt lat="46.158519" lon="4.124859"/>
      <trkpt lat="46.159053" lon="4.125512"/>
      <trkpt lat="46.159495" lon="4.125931"/>
      <trkpt lat="46.159744" lon="4.126101"/>
      <trkpt lat="46.160171" lon="4.126299"/>
      <trkpt lat="46.160747" lon="4.126499"/>
      <trkpt lat="46.161488" lon="4.126846"/>
      <trkpt lat="46.161583" lon="4.126817"/>
      <trkpt lat="46.161642" lon="4.126878"/>
      <trkpt lat="46.161721" lon="4.126922"/>
      <trkpt lat="46.161869" lon="4.126979"/>
      <trkpt lat="46.162193" lon="4.127054"/>
      <trkpt lat="46.162633" lon="4.127042"/>
      <trkpt lat="46.16364" lon="4.126921"/>
      <trkpt lat="46.163807" lon="4.126922"/>
      <trkpt lat="46.163678" lon="4.126619"/>
      <trkpt lat="46.163344" lon="4.126107"/>
      <trkpt lat="46.163137" lon="4.125715"/>
      <trkpt lat="46.163081" lon="4.125534"/>
      <trkpt lat="46.163074" lon="4.125121"/>
      <trkpt lat="46.163045" lon="4.124955"/>
      <trkpt lat="46.162959" lon="4.124779"/>
      <trkpt lat="46.16266" lon="4.124376"/>
      <trkpt lat="46.162505" lon="4.123978"/>
      <trkpt lat="46.162238" lon="4.123455"/>
      <trkpt lat="46.162189" lon="4.123324"/>
      <trkpt lat="46.162159" lon="4.123186"/>
      <trkpt lat="46.16211" lon="4.122365"/>
      <trkpt lat="46.162042" lon="4.121838"/>
      <trkpt lat="46.162032" lon="4.121636"/>
      <trkpt lat="46.162045" lon="4.121145"/>
      <trkpt lat="46.162032" lon="4.120584"/>
      <trkpt lat="46.162091" lon="4.120317"/>
      <trkpt lat="46.162151" lon="4.120153"/>
      <trkpt lat="46.16248" lon="4.119429"/>
      <trkpt lat="46.162347" lon="4.119356"/>
      <trkpt lat="46.162242" lon="4.119326"/>
      <trkpt lat="46.161593" lon="4.119235"/>
      <trkpt lat="46.161161" lon="4.119221"/>
      <trkpt lat="46.161055" lon="4.119202"/>
      <trkpt lat="46.160919" lon="4.119164"/>
      <trkpt lat="46.160749" lon="4.11908"/>
      <trkpt lat="46.160608" lon="4.118991"/>
      <trkpt lat="46.160489" lon="4.118892"/>
      <trkpt lat="46.1604" lon="4.118793"/>
      <trkpt lat="46.159858" lon="4.1181"/>
      <trkpt lat="46.159799" lon="4.117997"/>
      <trkpt lat="46.159762" lon="4.11788"/>
      <trkpt lat="46.159746" lon="4.117769"/>
      <trkpt lat="46.159751" lon="4.117648"/>
      <trkpt lat="46.159785" lon="4.117514"/>
      <trkpt lat="46.160019" lon="4.116945"/>
      <trkpt lat="46.160267" lon="4.116217"/>
      <trkpt lat="46.160873" lon="4.114657"/>
      <trkpt lat="46.160774" lon="4.114615"/>
      <trkpt lat="46.160692" lon="4.114603"/>
      <trkpt lat="46.160451" lon="4.114616"/>
      <trkpt lat="46.160267" lon="4.114566"/>
      <trkpt lat="46.160148" lon="4.114491"/>
      <trkpt lat="46.159855" lon="4.114262"/>
      <trkpt lat="46.159724" lon="4.114177"/>
      <trkpt lat="46.159614" lon="4.114134"/>
      <trkpt lat="46.159498" lon="4.114117"/>
      <trkpt lat="46.159382" lon="4.114124"/>
      <trkpt lat="46.158888" lon="4.11427"/>
      <trkpt lat="46.158492" lon="4.114301"/>
      <trkpt lat="46.158424" lon="4.114226"/>
      <trkpt lat="46.158399" lon="4.114092"/>
      <trkpt lat="46.158403" lon="4.11393"/>
      <trkpt lat="46.158537" lon="4.113628"/>
      <trkpt lat="46.159036" lon="4.112984"/>
      <trkpt lat="46.159251" lon="4.112659"/>
      <trkpt lat="46.15952" lon="4.111967"/>
      <trkpt lat="46.159602" lon="4.111776"/>
      <trkpt lat="46.1597" lon="4.11161"/>
      <trkpt lat="46.159926" lon="4.111293"/>
      <trkpt lat="46.160025" lon="4.111192"/>
      <trkpt lat="46.160111" lon="4.111134"/>
      <trkpt lat="46.160254" lon="4.111076"/>
      <trkpt lat="46.160397" lon="4.111044"/>
      <trkpt lat="46.160497" lon="4.110977"/>
      <trkpt lat="46.160513" lon="4.110951"/>
      <trkpt lat="46.160584" lon="4.111026"/>
      <trkpt lat="46.161187" lon="4.109812"/>
      <trkpt lat="46.160794" lon="4.109526"/>
      <trkpt lat="46.160623" lon="4.109441"/>
      <trkpt lat="46.160502" lon="4.109406"/>
      <trkpt lat="46.16045" lon="4.109408"/>
      <trkpt lat="46.160389" lon="4.109276"/>
      <trkpt lat="46.160375" lon="4.109202"/>
      <trkpt lat="46.160499" lon="4.108677"/>
      <trkpt lat="46.160553" lon="4.10852"/>
      <trkpt lat="46.160805" lon="4.107968"/>
      <trkpt lat="46.161169" lon="4.10729"/>
      <trkpt lat="46.161315" lon="4.107133"/>
      <trkpt lat="46.161588" lon="4.10695"/>
      <trkpt lat="46.161693" lon="4.106847"/>
      <trkpt lat="46.161803" lon="4.1067"/>
      <trkpt lat="46.162192" lon="4.106071"/>
      <trkpt lat="46.16233" lon="4.105778"/>
      <trkpt lat="46.162488" lon="4.105499"/>
      <trkpt lat="46.162719" lon="4.105161"/>
      <trkpt lat="46.162881" lon="4.104964"/>
      <trkpt lat="46.16348" lon="4.104425"/>
      <trkpt lat="46.16367" lon="4.104268"/>
      <trkpt lat="46.163814" lon="4.104173"/>
      <trkpt lat="46.163967" lon="4.104114"/>
      <trkpt lat="46.164189" lon="4.104103"/>
      <trkpt lat="46.164825" lon="4.104244"/>
      <trkpt lat="46.164833" lon="4.104166"/>
      <trkpt lat="46.164674" lon="4.103506"/>
      <trkpt lat="46.16459" lon="4.103033"/>
      <trkpt lat="46.164602" lon="4.102531"/>
      <trkpt lat="46.164571" lon="4.102336"/>
      <trkpt lat="46.164643" lon="4.102008"/>
      <trkpt lat="46.164774" lon="4.101723"/>
      <trkpt lat="46.165809" lon="4.100206"/>
      <trkpt lat="46.165929" lon="4.100068"/>
      <trkpt lat="46.166619" lon="4.099455"/>
      <trkpt lat="46.166835" lon="4.099243"/>
      <trkpt lat="46.167493" lon="4.098698"/>
      <trkpt lat="46.167875" lon="4.098344"/>
      <trkpt lat="46.168025" lon="4.098165"/>
      <trkpt lat="46.16832" lon="4.097935"/>
      <trkpt lat="46.168568" lon="4.097696"/>
      <trkpt lat="46.168953" lon="4.097029"/>
      <trkpt lat="46.169158" lon="4.096782"/>
      <trkpt lat="46.169814" lon="4.097175"/>
      <trkpt lat="46.170158" lon="4.09732"/>
      <trkpt lat="46.170289" lon="4.097346"/>
      <trkpt lat="46.170874" lon="4.097295"/>
      <trkpt lat="46.171021" lon="4.097296"/>
      <trkpt lat="46.171598" lon="4.097349"/>
      <trkpt lat="46.172002" lon="4.09734"/>
      <trkpt lat="46.172093" lon="4.097356"/>
      <trkpt lat="46.172144" lon="4.097394"/>
      <trkpt lat="46.172196" lon="4.097447"/>
      <trkpt lat="46.17229" lon="4.097627"/>
      <trkpt lat="46.172759" lon="4.09913"/>
      <trkpt lat="46.172837" lon="4.099281"/>
      <trkpt lat="46.173361" lon="4.100115"/>
      <trkpt lat="46.17388" lon="4.101006"/>
      <trkpt lat="46.174023" lon="4.10121"/>
      <trkpt lat="46.175748" lon="4.099531"/>
      <trkpt lat="46.175915" lon="4.099391"/>
      <trkpt lat="46.176107" lon="4.099675"/>
      <trkpt lat="46.176588" lon="4.099966"/>
      <trkpt lat="46.176649" lon="4.099987"/>
      <trkpt lat="46.176779" lon="4.099956"/>
      <trkpt lat="46.176854" lon="4.099903"/>
      <trkpt lat="46.177776" lon="4.099113"/>
      <trkpt lat="46.177818" lon="4.09906"/>
      <trkpt lat="46.177837" lon="4.099005"/>
      <trkpt lat="46.177854" lon="4.098747"/>
      <trkpt lat="46.177882" lon="4.098684"/>
      <trkpt lat="46.177966" lon="4.098669"/>
      <trkpt lat="46.178014" lon="4.098683"/>
      <trkpt lat="46.178274" lon="4.098885"/>
      <trkpt lat="46.178362" lon="4.098931"/>
      <trkpt lat="46.178551" lon="4.098858"/>
      <trkpt lat="46.17875" lon="4.098881"/>
      <trkpt lat="46.179042" lon="4.098853"/>
      <trkpt lat="46.1791" lon="4.098471"/>
      <trkpt lat="46.179159" lon="4.098311"/>
      <trkpt lat="46.179372" lon="4.097917"/>
      <trkpt lat="46.179453" lon="4.097239"/>
      <trkpt lat="46.179453" lon="4.097103"/>
      <trkpt lat="46.179494" lon="4.097102"/>
      <trkpt lat="46.179599" lon="4.097003"/>
      <trkpt lat="46.179638" lon="4.096927"/>
      <trkpt lat="46.179682" lon="4.096787"/>
      <trkpt lat="46.1797" lon="4.096644"/>
      <trkpt lat="46.179754" lon="4.096512"/>
      <trkpt lat="46.17987" lon="4.096371"/>
      <trkpt lat="46.179966" lon="4.096336"/>
      <trkpt lat="46.180054" lon="4.096331"/>
      <trkpt lat="46.180417" lon="4.096349"/>
      <trkpt lat="46.180628" lon="4.096331"/>
      <trkpt lat="46.180934" lon="4.096262"/>
      <trkpt lat="46.181036" lon="4.09622"/>
      <trkpt lat="46.181208" lon="4.096097"/>
      <trkpt lat="46.181552" lon="4.095747"/>
      <trkpt lat="46.181687" lon="4.095647"/>
      <trkpt lat="46.182143" lon="4.095444"/>
      <trkpt lat="46.182636" lon="4.095299"/>
      <trkpt lat="46.183" lon="4.095123"/>
      <trkpt lat="46.183131" lon="4.095104"/>
      <trkpt lat="46.18376" lon="4.095146"/>
      <trkpt lat="46.183807" lon="4.095812"/>
      <trkpt lat="46.183845" lon="4.096119"/>
      <trkpt lat="46.183962" lon="4.096385"/>
      <trkpt lat="46.184099" lon="4.096614"/>
      <trkpt lat="46.184566" lon="4.097518"/>
      <trkpt lat="46.184648" lon="4.097204"/>
      <trkpt lat="46.184781" lon="4.096964"/>
      <trkpt lat="46.18507" lon="4.096649"/>
      <trkpt lat="46.18519" lon="4.096561"/>
      <trkpt lat="46.185311" lon="4.096498"/>
      <trkpt lat="46.185329" lon="4.096628"/>
      <trkpt lat="46.185465" lon="4.09686"/>
      <trkpt lat="46.18569" lon="4.097188"/>
      <trkpt lat="46.185783" lon="4.09736"/>
      <trkpt lat="46.185934" lon="4.097744"/>
      <trkpt lat="46.186086" lon="4.098406"/>
      <trkpt lat="46.186338" lon="4.098875"/>
      <trkpt lat="46.18652" lon="4.099586"/>
      <trkpt lat="46.188834" lon="4.102192"/>
      <trkpt lat="46.189927" lon="4.104282"/>
      <trkpt lat="46.189893" lon="4.103353"/>
      <trkpt lat="46.18955" lon="4.102283"/>
      <trkpt lat="46.189491" lon="4.102063"/>
      <trkpt lat="46.189402" lon="4.101607"/>
      <trkpt lat="46.189376" lon="4.101391"/>
      <trkpt lat="46.189302" lon="4.099865"/>
      <trkpt lat="46.189275" lon="4.099633"/>
      <trkpt lat="46.189368" lon="4.09965"/>
      <trkpt lat="46.189573" lon="4.099909"/>
      <trkpt lat="46.189804" lon="4.100237"/>
      <trkpt lat="46.190321" lon="4.101083"/>
      <trkpt lat="46.190625" lon="4.101508"/>
      <trkpt lat="46.190938" lon="4.102125"/>
      <trkpt lat="46.191412" lon="4.10284"/>
      <trkpt lat="46.191519" lon="4.103054"/>
      <trkpt lat="46.19158" lon="4.10325"/>
      <trkpt lat="46.191751" lon="4.10407"/>
      <trkpt lat="46.192179" lon="4.105365"/>
      <trkpt lat="46.192346" lon="4.105698"/>
      <trkpt lat="46.193046" lon="4.106768"/>
      <trkpt lat="46.193462" lon="4.107484"/>
      <trkpt lat="46.19341" lon="4.107776"/>
      <trkpt lat="46.193306" lon="4.109466"/>
      <trkpt lat="46.193263" lon="4.109903"/>
      <trkpt lat="46.193212" lon="4.110277"/>
      <trkpt lat="46.193127" lon="4.110636"/>
      <trkpt lat="46.193048" lon="4.110819"/>
      <trkpt lat="46.192874" lon="4.111024"/>
      <trkpt lat="46.192676" lon="4.11118"/>
      <trkpt lat="46.192614" lon="4.111194"/>
      <trkpt lat="46.19257" lon="4.111181"/>
      <trkpt lat="46.192511" lon="4.111271"/>
      <trkpt lat="46.192168" lon="4.111473"/>
      <trkpt lat="46.192058" lon="4.111578"/>
      <trkpt lat="46.192028" lon="4.111696"/>
      <trkpt lat="46.191908" lon="4.111698"/>
      <trkpt lat="46.191812" lon="4.111759"/>
      <trkpt lat="46.191647" lon="4.111942"/>
      <trkpt lat="46.191575" lon="4.112058"/>
      <trkpt lat="46.191525" lon="4.112417"/>
      <trkpt lat="46.191448" lon="4.113412"/>
      <trkpt lat="46.191231" lon="4.11421"/>
      <trkpt lat="46.191151" lon="4.115104"/>
      <trkpt lat="46.191109" lon="4.115268"/>
      <trkpt lat="46.191073" lon="4.115336"/>
      <trkpt lat="46.190987" lon="4.115409"/>
      <trkpt lat="46.190709" lon="4.115514"/>
      <trkpt lat="46.190571" lon="4.115595"/>
      <trkpt lat="46.190131" lon="4.115988"/>
      <trkpt lat="46.19007" lon="4.116063"/>
      <trkpt lat="46.189897" lon="4.116353"/>
      <trkpt lat="46.189724" lon="4.116721"/>
      <trkpt lat="46.189441" lon="4.117487"/>
      <trkpt lat="46.188883" lon="4.116316"/>
      <trkpt lat="46.188782" lon="4.116046"/>
      <trkpt lat="46.188492" lon="4.114058"/>
      <trkpt lat="46.188441" lon="4.113477"/>
      <trkpt lat="46.188415" lon="4.113362"/>
      <trkpt lat="46.188368" lon="4.11326"/>
      <trkpt lat="46.18822" lon="4.111794"/>
      <trkpt lat="46.188249" lon="4.111185"/>
      <trkpt lat="46.188362" lon="4.110614"/>
      <trkpt lat="46.188551" lon="4.109903"/>
      <trkpt lat="46.18867" lon="4.109528"/>
      <trkpt lat="46.189086" lon="4.108702"/>
      <trkpt lat="46.189121" lon="4.108586"/>
      <trkpt lat="46.189125" lon="4.108458"/>
      <trkpt lat="46.189108" lon="4.108315"/>
      <trkpt lat="46.188622" lon="4.105606"/>
      <trkpt lat="46.18844" lon="4.105148"/>
      <trkpt lat="46.187636" lon="4.103593"/>
      <trkpt lat="46.187639" lon="4.10365"/>
      <trkpt lat="46.187592" lon="4.103726"/>
      <trkpt lat="46.187298" lon="4.103882"/>
      <trkpt lat="46.186596" lon="4.104163"/>
      <trkpt lat="46.186546" lon="4.104217"/>
      <trkpt lat="46.186501" lon="4.104426"/>
      <trkpt lat="46.186534" lon="4.104783"/>
      <trkpt lat="46.18644" lon="4.105223"/>
      <trkpt lat="46.186408" lon="4.105778"/>
      <trkpt lat="46.186222" lon="4.107401"/>
      <trkpt lat="46.186124" lon="4.107894"/>
      <trkpt lat="46.185836" lon="4.10894"/>
      <trkpt lat="46.185606" lon="4.110008"/>
      <trkpt lat="46.185522" lon="4.111727"/>
      <trkpt lat="46.185602" lon="4.112285"/>
      <trkpt lat="46.185747" lon="4.112886"/>
      <trkpt lat="46.186187" lon="4.114277"/>
      <trkpt lat="46.18631" lon="4.114738"/>
      <trkpt lat="46.186344" lon="4.115077"/>
      <trkpt lat="46.18631" lon="4.115608"/>
      <trkpt lat="46.186202" lon="4.116227"/>
      <trkpt lat="46.186204" lon="4.116333"/>
      <trkpt lat="46.186314" lon="4.116806"/>
      <trkpt lat="46.186458" lon="4.117241"/>
      <trkpt lat="46.186681" lon="4.117721"/>
      <trkpt lat="46.186785" lon="4.118088"/>
      <trkpt lat="46.186915" lon="4.118443"/>
      <trkpt lat="46.187069" lon="4.11874"/>
      <trkpt lat="46.187187" lon="4.118906"/>
      <trkpt lat="46.187463" lon="4.11924"/>
      <trkpt lat="46.187626" lon="4.119377"/>
      <trkpt lat="46.187766" lon="4.119527"/>
      <trkpt lat="46.187894" lon="4.119688"/>
      <trkpt lat="46.187931" lon="4.119782"/>
      <trkpt lat="46.187809" lon="4.119823"/>
      <trkpt lat="46.187691" lon="4.119892"/>
      <trkpt lat="46.18743" lon="4.12006"/>
      <trkpt lat="46.187351" lon="4.120122"/>
      <trkpt lat="46.187327" lon="4.120159"/>
      <trkpt lat="46.187168" lon="4.120157"/>
      <trkpt lat="46.186831" lon="4.120238"/>
      <trkpt lat="46.186644" lon="4.120318"/>
      <trkpt lat="46.185777" lon="4.120785"/>
      <trkpt lat="46.185472" lon="4.120871"/>
      <trkpt lat="46.185365" lon="4.120886"/>
      <trkpt lat="46.185043" lon="4.120851"/>
      <trkpt lat="46.184298" lon="4.120655"/>
      <trkpt lat="46.183963" lon="4.12059"/>
      <trkpt lat="46.183923" lon="4.120568"/>
      <trkpt lat="46.183662" lon="4.120549"/>
      <trkpt lat="46.183545" lon="4.120577"/>
      <trkpt lat="46.183419" lon="4.120683"/>
      <trkpt lat="46.183022" lon="4.121179"/>
      <trkpt lat="46.182844" lon="4.12149"/>
      <trkpt lat="46.182523" lon="4.121934"/>
      <trkpt lat="46.182455" lon="4.122051"/>
      <trkpt lat="46.182416" lon="4.122195"/>
      <trkpt lat="46.182422" lon="4.122604"/>
      <trkpt lat="46.182378" lon="4.122893"/>
      <trkpt lat="46.182329" lon="4.123061"/>
      <trkpt lat="46.182232" lon="4.123272"/>
      <trkpt lat="46.182345" lon="4.12335"/>
      <trkpt lat="46.182458" lon="4.123404"/>
      <trkpt lat="46.182813" lon="4.123481"/>
      <trkpt lat="46.183051" lon="4.123618"/>
      <trkpt lat="46.183661" lon="4.124154"/>
      <trkpt lat="46.183928" lon="4.124432"/>
      <trkpt lat="46.184076" lon="4.124662"/>
      <trkpt lat="46.183746" lon="4.124783"/>
      <trkpt lat="46.18347" lon="4.124983"/>
      <trkpt lat="46.183352" lon="4.125133"/>
      <trkpt lat="46.183217" lon="4.125426"/>
      <trkpt lat="46.183057" lon="4.125705"/>
      <trkpt lat="46.182767" lon="4.126682"/>
      <trkpt lat="46.18267" lon="4.126915"/>
      <trkpt lat="46.182544" lon="4.127081"/>
      <trkpt lat="46.182143" lon="4.128843"/>
      <trkpt lat="46.182149" lon="4.128923"/>
      <trkpt lat="46.182116" lon="4.129089"/>
      <trkpt lat="46.181769" lon="4.130245"/>
      <trkpt lat="46.181639" lon="4.130548"/>
      <trkpt lat="46.18151" lon="4.131009"/>
      <trkpt lat="46.181141" lon="4.131748"/>
      <trkpt lat="46.180938" lon="4.132313"/>
      <trkpt lat="46.180586" lon="4.133204"/>
      <trkpt lat="46.18057" lon="4.133317"/>
      <trkpt lat="46.180087" lon="4.134282"/>
      <trkpt lat="46.179987" lon="4.134438"/>
      <trkpt lat="46.179778" lon="4.134687"/>
      <trkpt lat="46.179559" lon="4.135069"/>
      <trkpt lat="46.179326" lon="4.135561"/>
      <trkpt lat="46.179034" lon="4.13609"/>
      <trkpt lat="46.17886" lon="4.136332"/>
      <trkpt lat="46.178116" lon="4.136927"/>
      <trkpt lat="46.177856" lon="4.137246"/>
      <trkpt lat="46.177498" lon="4.137401"/>
      <trkpt lat="46.177451" lon="4.137589"/>
      <trkpt lat="46.177555" lon="4.137903"/>
      <trkpt lat="46.177367" lon="4.138148"/>
      <trkpt lat="46.177241" lon="4.138169"/>
      <trkpt lat="46.177159" lon="4.137944"/>
      <trkpt lat="46.176934" lon="4.13799"/>
      <trkpt lat="46.176849" lon="4.138205"/>
      <trkpt lat="46.176587" lon="4.138143"/>
      <trkpt lat="46.176259" lon="4.138132"/>
      <trkpt lat="46.176114" lon="4.138152"/>
      <trkpt lat="46.175967" lon="4.138235"/>
      <trkpt lat="46.175882" lon="4.138329"/>
      <trkpt lat="46.175751" lon="4.138521"/>
      <trkpt lat="46.175506" lon="4.138765"/>
      <trkpt lat="46.175419" lon="4.138838"/>
      <trkpt lat="46.175139" lon="4.138996"/>
      <trkpt lat="46.175105" lon="4.138997"/>
      <trkpt lat="46.175048" lon="4.138951"/>
      <trkpt lat="46.174775" lon="4.138241"/>
      <trkpt lat="46.173425" lon="4.13957"/>
      <trkpt lat="46.173185" lon="4.139762"/>
      <trkpt lat="46.173039" lon="4.139848"/>
      <trkpt lat="46.172256" lon="4.140219"/>
      <trkpt lat="46.171873" lon="4.140362"/>
      <trkpt lat="46.171408" lon="4.140509"/>
      <trkpt lat="46.171242" lon="4.140584"/>
      <trkpt lat="46.170874" lon="4.140804"/>
      <trkpt lat="46.169981" lon="4.141416"/>
      <trkpt lat="46.169665" lon="4.141583"/>
      <trkpt lat="46.169436" lon="4.141755"/>
      <trkpt lat="46.168953" lon="4.142074"/>
      <trkpt lat="46.168629" lon="4.14239"/>
      <trkpt lat="46.168413" lon="4.143184"/>
      <trkpt lat="46.168228" lon="4.14408"/>
      <trkpt lat="46.16801" lon="4.144771"/>
      <trkpt lat="46.167597" lon="4.146223"/>
      <trkpt lat="46.167413" lon="4.146517"/>
      <trkpt lat="46.167021" lon="4.146692"/>
      <trkpt lat="46.166206" lon="4.147182"/>
      <trkpt lat="46.165971" lon="4.14735"/>
      <trkpt lat="46.165901" lon="4.147543"/>
      <trkpt lat="46.165753" lon="4.147777"/>
      <trkpt lat="46.165318" lon="4.148315"/>
      <trkpt lat="46.164982" lon="4.148763"/>
      <trkpt lat="46.164488" lon="4.149366"/>
      <trkpt lat="46.164273" lon="4.149714"/>
      <trkpt lat="46.164104" lon="4.149945"/>
      <trkpt lat="46.163864" lon="4.150362"/>
      <trkpt lat="46.163655" lon="4.150593"/>
      <trkpt lat="46.163495" lon="4.150917"/>
      <trkpt lat="46.163082" lon="4.151477"/>
      <trkpt lat="46.162906" lon="4.15181"/>
      <trkpt lat="46.162483" lon="4.152767"/>
      <trkpt lat="46.162082" lon="4.153469"/>
      <trkpt lat="46.161461" lon="4.154149"/>
      <trkpt lat="46.161121" lon="4.154572"/>
      <trkpt lat="46.16071" lon="4.155369"/>
      <trkpt lat="46.160592" lon="4.155616"/>
      <trkpt lat="46.160453" lon="4.156137"/>
      <trkpt lat="46.160349" lon="4.15663"/>
      <trkpt lat="46.160186" lon="4.157102"/>
      <trkpt lat="46.159971" lon="4.157667"/>
      <trkpt lat="46.159492" lon="4.158764"/>
      <trkpt lat="46.159303" lon="4.15929"/>
      <trkpt lat="46.159226" lon="4.159559"/>
      <trkpt lat="46.159237" lon="4.159973"/>
      <trkpt lat="46.159286" lon="4.160433"/>
      <trkpt lat="46.159286" lon="4.160765"/>
      <trkpt lat="46.158858" lon="4.162497"/>
      <trkpt lat="46.158515" lon="4.16301"/>
      <trkpt lat="46.158312" lon="4.163269"/>
      <trkpt lat="46.158071" lon="4.163623"/>
      <trkpt lat="46.158023" lon="4.164054"/>
      <trkpt lat="46.157952" lon="4.16406"/>
      <trkpt lat="46.157874" lon="4.164038"/>
      <trkpt lat="46.157878" lon="4.163942"/>
      <trkpt lat="46.157822" lon="4.163802"/>
      <trkpt lat="46.157432" lon="4.16305"/>
      <trkpt lat="46.157157" lon="4.162451"/>
      <trkpt lat="46.156953" lon="4.161843"/>
      <trkpt lat="46.156838" lon="4.161291"/>
      <trkpt lat="46.156711" lon="4.160784"/>
      <trkpt lat="46.156347" lon="4.158877"/>
      <trkpt lat="46.156136" lon="4.157901"/>
      <trkpt lat="46.156011" lon="4.157125"/>
      <trkpt lat="46.155174" lon="4.153098"/>
      <trkpt lat="46.155102" lon="4.152703"/>
      <trkpt lat="46.155075" lon="4.152452"/>
      <trkpt lat="46.155015" lon="4.152304"/>
      <trkpt lat="46.155018" lon="4.152155"/>
      <trkpt lat="46.154934" lon="4.151819"/>
      <trkpt lat="46.154812" lon="4.151675"/>
      <trkpt lat="46.154813" lon="4.151583"/>
      <trkpt lat="46.154865" lon="4.151455"/>
      <trkpt lat="46.154287" lon="4.148555"/>
      <trkpt lat="46.154116" lon="4.147866"/>
      <trkpt lat="46.153957" lon="4.147329"/>
      <trkpt lat="46.153441" lon="4.145758"/>
      <trkpt lat="46.152872" lon="4.143954"/>
      <trkpt lat="46.152436" lon="4.142651"/>
      <trkpt lat="46.152229" lon="4.141983"/>
      <trkpt lat="46.152006" lon="4.14115"/>
      <trkpt lat="46.151266" lon="4.137522"/>
      <trkpt lat="46.15113" lon="4.136758"/>
      <trkpt lat="46.150953" lon="4.135921"/>
      <trkpt lat="46.150461" lon="4.133344"/>
      <trkpt lat="46.1504" lon="4.132462"/>
      <trkpt lat="46.150427" lon="4.131796"/>
      <trkpt lat="46.150488" lon="4.131092"/>
      <trkpt lat="46.151287" lon="4.12534"/>
      <trkpt lat="46.151316" lon="4.125231"/>
      <trkpt lat="46.151427" lon="4.125024"/>
      <trkpt lat="46.151444" lon="4.124958"/>
      <trkpt lat="46.151441" lon="4.124898"/>
      <trkpt lat="46.151385" lon="4.124768"/>
      <trkpt lat="46.151382" lon="4.12468"/>
      <trkpt lat="46.151867" lon="4.121156"/>
      <trkpt lat="46.152049" lon="4.120174"/>
      <trkpt lat="46.152243" lon="4.119351"/>
      <trkpt lat="46.152295" lon="4.119389"/>
      <trkpt lat="46.152544" lon="4.1195"/>
      <trkpt lat="46.152591" lon="4.119475"/>
      <trkpt lat="46.153154" lon="4.119704"/>
      <trkpt lat="46.153246" lon="4.119728"/>
      <trkpt lat="46.153361" lon="4.11978"/>
      <trkpt lat="46.153412" lon="4.119833"/>
      <trkpt lat="46.153444" lon="4.11992"/>
      <trkpt lat="46.153496" lon="4.120551"/>
      <trkpt lat="46.153516" lon="4.120587"/>
      <trkpt lat="46.153538" lon="4.120592"/>
      <trkpt lat="46.153636" lon="4.120582"/>
      <trkpt lat="46.153671" lon="4.121511"/>
    </trkseg>
  </trk>
</gpx>
