<?xml version="1.0" encoding="utf-8"?>
<gpx xmlns="http://www.topografix.com/GPX/1/1" version="1.1" creator="">
  <trk>
    <name>Circuit 10km</name>
    <desc/>
    <trkseg>
      <trkpt lat="46.15363" lon="4.12055"/>
      <trkpt lat="46.15367" lon="4.12132"/>
      <trkpt lat="46.15365" lon="4.12186"/>
      <trkpt lat="46.15363" lon="4.12209"/>
      <trkpt lat="46.15358" lon="4.12233"/>
      <trkpt lat="46.15349" lon="4.12251"/>
      <trkpt lat="46.15339" lon="4.12269"/>
      <trkpt lat="46.15308" lon="4.12308"/>
      <trkpt lat="46.15298" lon="4.12318"/>
      <trkpt lat="46.15271" lon="4.12334"/>
      <trkpt lat="46.15263" lon="4.12342"/>
      <trkpt lat="46.1525" lon="4.12356"/>
      <trkpt lat="46.15193" lon="4.12427"/>
      <trkpt lat="46.15176" lon="4.12446"/>
      <trkpt lat="46.15139" lon="4.12482"/>
      <trkpt lat="46.15144" lon="4.12498"/>
      <trkpt lat="46.15133" lon="4.1252"/>
      <trkpt lat="46.15129" lon="4.12532"/>
      <trkpt lat="46.15103" lon="4.12713"/>
      <trkpt lat="46.15046" lon="4.13134"/>
      <trkpt lat="46.15042" lon="4.13184"/>
      <trkpt lat="46.15041" lon="4.13246"/>
      <trkpt lat="46.15043" lon="4.13292"/>
      <trkpt lat="46.15051" lon="4.13373"/>
      <trkpt lat="46.15196" lon="4.14096"/>
      <trkpt lat="46.15209" lon="4.14148"/>
      <trkpt lat="46.15234" lon="4.14234"/>
      <trkpt lat="46.15304" lon="4.14452"/>
      <trkpt lat="46.15331" lon="4.14544"/>
      <trkpt lat="46.1537" lon="4.14655"/>
      <trkpt lat="46.15403" lon="4.14758"/>
      <trkpt lat="46.1542" lon="4.14819"/>
      <trkpt lat="46.15431" lon="4.14866"/>
      <trkpt lat="46.15487" lon="4.15147"/>
      <trkpt lat="46.15481" lon="4.15159"/>
      <trkpt lat="46.15492" lon="4.15167"/>
      <trkpt lat="46.15503" lon="4.15179"/>
      <trkpt lat="46.15513" lon="4.15195"/>
      <trkpt lat="46.1552" lon="4.15209"/>
      <trkpt lat="46.15522" lon="4.15225"/>
      <trkpt lat="46.1555" lon="4.15221"/>
      <trkpt lat="46.15588" lon="4.15208"/>
      <trkpt lat="46.15647" lon="4.1517"/>
      <trkpt lat="46.15648" lon="4.15164"/>
      <trkpt lat="46.15644" lon="4.15149"/>
      <trkpt lat="46.15642" lon="4.15125"/>
      <trkpt lat="46.15644" lon="4.15096"/>
      <trkpt lat="46.15651" lon="4.15077"/>
      <trkpt lat="46.15668" lon="4.15057"/>
      <trkpt lat="46.15684" lon="4.15045"/>
      <trkpt lat="46.15744" lon="4.15024"/>
      <trkpt lat="46.15818" lon="4.15005"/>
      <trkpt lat="46.15849" lon="4.14992"/>
      <trkpt lat="46.15874" lon="4.14977"/>
      <trkpt lat="46.15918" lon="4.14943"/>
      <trkpt lat="46.15945" lon="4.14928"/>
      <trkpt lat="46.15963" lon="4.14926"/>
      <trkpt lat="46.15966" lon="4.14927"/>
      <trkpt lat="46.15969" lon="4.14931"/>
      <trkpt lat="46.15987" lon="4.14914"/>
      <trkpt lat="46.16024" lon="4.14873"/>
      <trkpt lat="46.16045" lon="4.14841"/>
      <trkpt lat="46.16065" lon="4.14805"/>
      <trkpt lat="46.16099" lon="4.14736"/>
      <trkpt lat="46.16144" lon="4.14653"/>
      <trkpt lat="46.16165" lon="4.14629"/>
      <trkpt lat="46.16196" lon="4.14681"/>
      <trkpt lat="46.16204" lon="4.14662"/>
      <trkpt lat="46.16242" lon="4.14587"/>
      <trkpt lat="46.16284" lon="4.1452"/>
      <trkpt lat="46.16317" lon="4.14448"/>
      <trkpt lat="46.16353" lon="4.14384"/>
      <trkpt lat="46.16361" lon="4.14363"/>
      <trkpt lat="46.16379" lon="4.14281"/>
      <trkpt lat="46.16384" lon="4.14234"/>
      <trkpt lat="46.16391" lon="4.1421"/>
      <trkpt lat="46.16411" lon="4.14156"/>
      <trkpt lat="46.16412" lon="4.14135"/>
      <trkpt lat="46.16413" lon="4.14107"/>
      <trkpt lat="46.16408" lon="4.14074"/>
      <trkpt lat="46.16396" lon="4.14031"/>
      <trkpt lat="46.16388" lon="4.14015"/>
      <trkpt lat="46.16371" lon="4.13991"/>
      <trkpt lat="46.16364" lon="4.13966"/>
      <trkpt lat="46.1637" lon="4.13887"/>
      <trkpt lat="46.16375" lon="4.13852"/>
      <trkpt lat="46.16382" lon="4.1383"/>
      <trkpt lat="46.16402" lon="4.13779"/>
      <trkpt lat="46.16418" lon="4.13726"/>
      <trkpt lat="46.16447" lon="4.13641"/>
      <trkpt lat="46.1645" lon="4.13618"/>
      <trkpt lat="46.16449" lon="4.13589"/>
      <trkpt lat="46.16455" lon="4.13577"/>
      <trkpt lat="46.16483" lon="4.13506"/>
      <trkpt lat="46.165" lon="4.13457"/>
      <trkpt lat="46.16499" lon="4.13443"/>
      <trkpt lat="46.16502" lon="4.13396"/>
      <trkpt lat="46.16501" lon="4.13377"/>
      <trkpt lat="46.16489" lon="4.13281"/>
      <trkpt lat="46.16489" lon="4.13263"/>
      <trkpt lat="46.16496" lon="4.13186"/>
      <trkpt lat="46.16494" lon="4.1317"/>
      <trkpt lat="46.16486" lon="4.13167"/>
      <trkpt lat="46.16469" lon="4.13142"/>
      <trkpt lat="46.16447" lon="4.13099"/>
      <trkpt lat="46.1643" lon="4.13037"/>
      <trkpt lat="46.16411" lon="4.12864"/>
      <trkpt lat="46.164" lon="4.12783"/>
      <trkpt lat="46.16385" lon="4.12706"/>
      <trkpt lat="46.16381" lon="4.12691"/>
      <trkpt lat="46.16369" lon="4.12663"/>
      <trkpt lat="46.16375" lon="4.12636"/>
      <trkpt lat="46.16394" lon="4.12577"/>
      <trkpt lat="46.16408" lon="4.12545"/>
      <trkpt lat="46.16418" lon="4.12517"/>
      <trkpt lat="46.16423" lon="4.12499"/>
      <trkpt lat="46.16427" lon="4.12475"/>
      <trkpt lat="46.16428" lon="4.12457"/>
      <trkpt lat="46.1642" lon="4.12376"/>
      <trkpt lat="46.16418" lon="4.12277"/>
      <trkpt lat="46.1642" lon="4.12252"/>
      <trkpt lat="46.1643" lon="4.12186"/>
      <trkpt lat="46.16431" lon="4.12139"/>
      <trkpt lat="46.16434" lon="4.12125"/>
      <trkpt lat="46.16443" lon="4.12109"/>
      <trkpt lat="46.16479" lon="4.12163"/>
      <trkpt lat="46.16518" lon="4.12213"/>
      <trkpt lat="46.16557" lon="4.12271"/>
      <trkpt lat="46.16568" lon="4.1229"/>
      <trkpt lat="46.16583" lon="4.12331"/>
      <trkpt lat="46.16593" lon="4.1237"/>
      <trkpt lat="46.16591" lon="4.12362"/>
      <trkpt lat="46.16598" lon="4.12357"/>
      <trkpt lat="46.16604" lon="4.1235"/>
      <trkpt lat="46.16646" lon="4.12284"/>
      <trkpt lat="46.16675" lon="4.12242"/>
      <trkpt lat="46.16686" lon="4.12223"/>
      <trkpt lat="46.167" lon="4.12174"/>
      <trkpt lat="46.16676" lon="4.12154"/>
      <trkpt lat="46.16667" lon="4.12145"/>
      <trkpt lat="46.1666" lon="4.12134"/>
      <trkpt lat="46.16613" lon="4.12043"/>
      <trkpt lat="46.166" lon="4.12015"/>
      <trkpt lat="46.16592" lon="4.11993"/>
      <trkpt lat="46.16571" lon="4.11953"/>
      <trkpt lat="46.16558" lon="4.11936"/>
      <trkpt lat="46.16526" lon="4.11911"/>
      <trkpt lat="46.16511" lon="4.11894"/>
      <trkpt lat="46.16497" lon="4.11873"/>
      <trkpt lat="46.1648" lon="4.11843"/>
      <trkpt lat="46.16469" lon="4.11819"/>
      <trkpt lat="46.16458" lon="4.11802"/>
      <trkpt lat="46.16443" lon="4.11784"/>
      <trkpt lat="46.16423" lon="4.11769"/>
      <trkpt lat="46.16402" lon="4.11757"/>
      <trkpt lat="46.16381" lon="4.11752"/>
      <trkpt lat="46.16346" lon="4.11747"/>
      <trkpt lat="46.16326" lon="4.11749"/>
      <trkpt lat="46.16315" lon="4.11754"/>
      <trkpt lat="46.16322" lon="4.11773"/>
      <trkpt lat="46.16327" lon="4.11794"/>
      <trkpt lat="46.16329" lon="4.11815"/>
      <trkpt lat="46.16315" lon="4.11827"/>
      <trkpt lat="46.16302" lon="4.11841"/>
      <trkpt lat="46.16289" lon="4.1186"/>
      <trkpt lat="46.16249" lon="4.11938"/>
      <trkpt lat="46.16228" lon="4.11933"/>
      <trkpt lat="46.16186" lon="4.11927"/>
      <trkpt lat="46.16092" lon="4.11918"/>
      <trkpt lat="46.16085" lon="4.11916"/>
      <trkpt lat="46.16065" lon="4.11903"/>
      <trkpt lat="46.16017" lon="4.11855"/>
      <trkpt lat="46.15977" lon="4.11801"/>
      <trkpt lat="46.15974" lon="4.11793"/>
      <trkpt lat="46.15972" lon="4.11775"/>
      <trkpt lat="46.15986" lon="4.11733"/>
      <trkpt lat="46.16011" lon="4.1167"/>
      <trkpt lat="46.16018" lon="4.11645"/>
      <trkpt lat="46.16086" lon="4.11465"/>
      <trkpt lat="46.16071" lon="4.11461"/>
      <trkpt lat="46.16047" lon="4.11462"/>
      <trkpt lat="46.16028" lon="4.11458"/>
      <trkpt lat="46.15973" lon="4.11419"/>
      <trkpt lat="46.15956" lon="4.11412"/>
      <trkpt lat="46.15945" lon="4.11411"/>
      <trkpt lat="46.15932" lon="4.11412"/>
      <trkpt lat="46.15884" lon="4.11428"/>
      <trkpt lat="46.15846" lon="4.11429"/>
      <trkpt lat="46.15849" lon="4.11444"/>
      <trkpt lat="46.15849" lon="4.11452"/>
      <trkpt lat="46.15845" lon="4.11475"/>
      <trkpt lat="46.1582" lon="4.11545"/>
      <trkpt lat="46.15805" lon="4.11606"/>
      <trkpt lat="46.15802" lon="4.11633"/>
      <trkpt lat="46.15803" lon="4.11661"/>
      <trkpt lat="46.15809" lon="4.11697"/>
      <trkpt lat="46.15817" lon="4.11769"/>
      <trkpt lat="46.15816" lon="4.11812"/>
      <trkpt lat="46.15803" lon="4.11908"/>
      <trkpt lat="46.1584" lon="4.11957"/>
      <trkpt lat="46.15858" lon="4.11972"/>
      <trkpt lat="46.15872" lon="4.11977"/>
      <trkpt lat="46.15921" lon="4.11978"/>
      <trkpt lat="46.15927" lon="4.11979"/>
      <trkpt lat="46.15937" lon="4.11985"/>
      <trkpt lat="46.15946" lon="4.12006"/>
      <trkpt lat="46.15959" lon="4.12049"/>
      <trkpt lat="46.15971" lon="4.1207"/>
      <trkpt lat="46.15987" lon="4.12092"/>
      <trkpt lat="46.15997" lon="4.1211"/>
      <trkpt lat="46.16002" lon="4.12122"/>
      <trkpt lat="46.16009" lon="4.12169"/>
      <trkpt lat="46.16009" lon="4.12202"/>
      <trkpt lat="46.15998" lon="4.12275"/>
      <trkpt lat="46.16" lon="4.12327"/>
      <trkpt lat="46.16006" lon="4.12365"/>
      <trkpt lat="46.16015" lon="4.12384"/>
      <trkpt lat="46.1603" lon="4.12406"/>
      <trkpt lat="46.1605" lon="4.1244"/>
      <trkpt lat="46.161" lon="4.12533"/>
      <trkpt lat="46.16123" lon="4.12604"/>
      <trkpt lat="46.16143" lon="4.12653"/>
      <trkpt lat="46.16153" lon="4.12672"/>
      <trkpt lat="46.16167" lon="4.12686"/>
      <trkpt lat="46.16156" lon="4.12686"/>
      <trkpt lat="46.16143" lon="4.12683"/>
      <trkpt lat="46.16055" lon="4.12643"/>
      <trkpt lat="46.1599" lon="4.12617"/>
      <trkpt lat="46.15967" lon="4.12605"/>
      <trkpt lat="46.1594" lon="4.12585"/>
      <trkpt lat="46.15909" lon="4.12555"/>
      <trkpt lat="46.1573" lon="4.12329"/>
      <trkpt lat="46.15712" lon="4.12315"/>
      <trkpt lat="46.15706" lon="4.12324"/>
      <trkpt lat="46.15665" lon="4.12342"/>
      <trkpt lat="46.15656" lon="4.12343"/>
      <trkpt lat="46.15529" lon="4.12318"/>
      <trkpt lat="46.15487" lon="4.12308"/>
      <trkpt lat="46.15448" lon="4.12302"/>
      <trkpt lat="46.15432" lon="4.12301"/>
      <trkpt lat="46.15423" lon="4.12302"/>
      <trkpt lat="46.15375" lon="4.12326"/>
      <trkpt lat="46.15363" lon="4.1228"/>
      <trkpt lat="46.15361" lon="4.12247"/>
      <trkpt lat="46.15358" lon="4.12233"/>
      <trkpt lat="46.15363" lon="4.12209"/>
      <trkpt lat="46.15363" lon="4.12203"/>
      <trkpt lat="46.15365" lon="4.12186"/>
      <trkpt lat="46.15367" lon="4.12158"/>
      <trkpt lat="46.15367" lon="4.1215"/>
    </trkseg>
  </trk>
</gpx>
