<?xml version="1.0" encoding="utf-8"?>
<gpx xmlns="http://www.topografix.com/GPX/1/1" version="1.1" creator="">
  <trk>
    <name>Circuit VTT 22,2 km</name>
    <desc/>
    <trkseg>
      <trkpt lat="46.15481" lon="4.15158"/>
      <trkpt lat="46.15486" lon="4.15149"/>
      <trkpt lat="46.15485" lon="4.15139"/>
      <trkpt lat="46.15456" lon="4.14995"/>
      <trkpt lat="46.15448" lon="4.14947"/>
      <trkpt lat="46.15429" lon="4.14856"/>
      <trkpt lat="46.15412" lon="4.14787"/>
      <trkpt lat="46.15396" lon="4.14733"/>
      <trkpt lat="46.15355" lon="4.14606"/>
      <trkpt lat="46.15344" lon="4.14576"/>
      <trkpt lat="46.15268" lon="4.14335"/>
      <trkpt lat="46.15244" lon="4.14265"/>
      <trkpt lat="46.15206" lon="4.14138"/>
      <trkpt lat="46.15153" lon="4.13883"/>
      <trkpt lat="46.15144" lon="4.13831"/>
      <trkpt lat="46.15095" lon="4.13592"/>
      <trkpt lat="46.15051" lon="4.13366"/>
      <trkpt lat="46.15046" lon="4.13334"/>
      <trkpt lat="46.1504" lon="4.13246"/>
      <trkpt lat="46.15043" lon="4.1318"/>
      <trkpt lat="46.15049" lon="4.13109"/>
      <trkpt lat="46.15129" lon="4.12534"/>
      <trkpt lat="46.15133" lon="4.1252"/>
      <trkpt lat="46.15144" lon="4.125"/>
      <trkpt lat="46.15145" lon="4.12492"/>
      <trkpt lat="46.15138" lon="4.12477"/>
      <trkpt lat="46.15138" lon="4.12468"/>
      <trkpt lat="46.15191" lon="4.12086"/>
      <trkpt lat="46.15205" lon="4.12017"/>
      <trkpt lat="46.15224" lon="4.11935"/>
      <trkpt lat="46.15254" lon="4.1195"/>
      <trkpt lat="46.15259" lon="4.11947"/>
      <trkpt lat="46.15309" lon="4.11968"/>
      <trkpt lat="46.15325" lon="4.11973"/>
      <trkpt lat="46.15336" lon="4.11978"/>
      <trkpt lat="46.15341" lon="4.11983"/>
      <trkpt lat="46.15344" lon="4.11992"/>
      <trkpt lat="46.1535" lon="4.12057"/>
      <trkpt lat="46.15352" lon="4.12059"/>
      <trkpt lat="46.15364" lon="4.12058"/>
      <trkpt lat="46.15367" lon="4.12124"/>
      <trkpt lat="46.15366" lon="4.12176"/>
      <trkpt lat="46.15362" lon="4.12215"/>
      <trkpt lat="46.15356" lon="4.12238"/>
      <trkpt lat="46.15359" lon="4.12241"/>
      <trkpt lat="46.15362" lon="4.1225"/>
      <trkpt lat="46.15365" lon="4.12294"/>
      <trkpt lat="46.15375" lon="4.12325"/>
      <trkpt lat="46.15423" lon="4.12303"/>
      <trkpt lat="46.15436" lon="4.123"/>
      <trkpt lat="46.15496" lon="4.1231"/>
      <trkpt lat="46.15638" lon="4.12343"/>
      <trkpt lat="46.15663" lon="4.12345"/>
      <trkpt lat="46.15704" lon="4.12326"/>
      <trkpt lat="46.15709" lon="4.12322"/>
      <trkpt lat="46.15712" lon="4.12316"/>
      <trkpt lat="46.15727" lon="4.12328"/>
      <trkpt lat="46.15756" lon="4.12361"/>
      <trkpt lat="46.15852" lon="4.12486"/>
      <trkpt lat="46.15905" lon="4.12551"/>
      <trkpt lat="46.15949" lon="4.12593"/>
      <trkpt lat="46.15974" lon="4.1261"/>
      <trkpt lat="46.16017" lon="4.1263"/>
      <trkpt lat="46.16075" lon="4.1265"/>
      <trkpt lat="46.16149" lon="4.12685"/>
      <trkpt lat="46.16158" lon="4.12682"/>
      <trkpt lat="46.16164" lon="4.12688"/>
      <trkpt lat="46.16187" lon="4.12698"/>
      <trkpt lat="46.16219" lon="4.12705"/>
      <trkpt lat="46.16263" lon="4.12704"/>
      <trkpt lat="46.16364" lon="4.12692"/>
      <trkpt lat="46.16381" lon="4.12692"/>
      <trkpt lat="46.16368" lon="4.12662"/>
      <trkpt lat="46.16334" lon="4.12611"/>
      <trkpt lat="46.16314" lon="4.12572"/>
      <trkpt lat="46.16308" lon="4.12553"/>
      <trkpt lat="46.16308" lon="4.12531"/>
      <trkpt lat="46.16305" lon="4.12496"/>
      <trkpt lat="46.16296" lon="4.12478"/>
      <trkpt lat="46.16266" lon="4.12438"/>
      <trkpt lat="46.16251" lon="4.12398"/>
      <trkpt lat="46.16224" lon="4.12346"/>
      <trkpt lat="46.16216" lon="4.12319"/>
      <trkpt lat="46.16214" lon="4.12307"/>
      <trkpt lat="46.16211" lon="4.12236"/>
      <trkpt lat="46.16204" lon="4.12184"/>
      <trkpt lat="46.16203" lon="4.12164"/>
      <trkpt lat="46.16205" lon="4.12115"/>
      <trkpt lat="46.16203" lon="4.12058"/>
      <trkpt lat="46.16209" lon="4.12032"/>
      <trkpt lat="46.16215" lon="4.12015"/>
      <trkpt lat="46.16248" lon="4.11943"/>
      <trkpt lat="46.16235" lon="4.11936"/>
      <trkpt lat="46.16224" lon="4.11933"/>
      <trkpt lat="46.16159" lon="4.11923"/>
      <trkpt lat="46.16116" lon="4.11922"/>
      <trkpt lat="46.16105" lon="4.1192"/>
      <trkpt lat="46.16092" lon="4.11916"/>
      <trkpt lat="46.16075" lon="4.11908"/>
      <trkpt lat="46.16061" lon="4.11899"/>
      <trkpt lat="46.16049" lon="4.11889"/>
      <trkpt lat="46.1604" lon="4.11879"/>
      <trkpt lat="46.15986" lon="4.1181"/>
      <trkpt lat="46.1598" lon="4.118"/>
      <trkpt lat="46.15976" lon="4.11788"/>
      <trkpt lat="46.15975" lon="4.11765"/>
      <trkpt lat="46.15978" lon="4.11751"/>
      <trkpt lat="46.16002" lon="4.11694"/>
      <trkpt lat="46.16027" lon="4.11622"/>
      <trkpt lat="46.16087" lon="4.11466"/>
      <trkpt lat="46.16069" lon="4.1146"/>
      <trkpt lat="46.16045" lon="4.11462"/>
      <trkpt lat="46.16027" lon="4.11457"/>
      <trkpt lat="46.15985" lon="4.11426"/>
      <trkpt lat="46.15961" lon="4.11413"/>
      <trkpt lat="46.15938" lon="4.11412"/>
      <trkpt lat="46.15889" lon="4.11427"/>
      <trkpt lat="46.15849" lon="4.1143"/>
      <trkpt lat="46.15842" lon="4.11423"/>
      <trkpt lat="46.1584" lon="4.11409"/>
      <trkpt lat="46.1584" lon="4.11393"/>
      <trkpt lat="46.15846" lon="4.11378"/>
      <trkpt lat="46.15863" lon="4.1135"/>
      <trkpt lat="46.15904" lon="4.11298"/>
      <trkpt lat="46.15925" lon="4.11266"/>
      <trkpt lat="46.15933" lon="4.11249"/>
      <trkpt lat="46.1596" lon="4.11178"/>
      <trkpt lat="46.15981" lon="4.11144"/>
      <trkpt lat="46.15993" lon="4.11129"/>
      <trkpt lat="46.16011" lon="4.11113"/>
      <trkpt lat="46.1604" lon="4.11104"/>
      <trkpt lat="46.1605" lon="4.11098"/>
      <trkpt lat="46.16051" lon="4.11095"/>
      <trkpt lat="46.16058" lon="4.11103"/>
      <trkpt lat="46.16119" lon="4.10981"/>
      <trkpt lat="46.16093" lon="4.10961"/>
      <trkpt lat="46.16079" lon="4.10953"/>
      <trkpt lat="46.16062" lon="4.10944"/>
      <trkpt lat="46.16045" lon="4.10941"/>
      <trkpt lat="46.16037" lon="4.1092"/>
      <trkpt lat="46.16055" lon="4.10852"/>
      <trkpt lat="46.1608" lon="4.10797"/>
      <trkpt lat="46.16117" lon="4.10729"/>
      <trkpt lat="46.16124" lon="4.1072"/>
      <trkpt lat="46.16132" lon="4.10713"/>
      <trkpt lat="46.16159" lon="4.10695"/>
      <trkpt lat="46.16169" lon="4.10685"/>
      <trkpt lat="46.1618" lon="4.1067"/>
      <trkpt lat="46.16219" lon="4.10607"/>
      <trkpt lat="46.16233" lon="4.10578"/>
      <trkpt lat="46.16249" lon="4.1055"/>
      <trkpt lat="46.16272" lon="4.10516"/>
      <trkpt lat="46.16288" lon="4.10496"/>
      <trkpt lat="46.16348" lon="4.10442"/>
      <trkpt lat="46.16381" lon="4.10417"/>
      <trkpt lat="46.16397" lon="4.10411"/>
      <trkpt lat="46.16419" lon="4.1041"/>
      <trkpt lat="46.16483" lon="4.10424"/>
      <trkpt lat="46.16483" lon="4.10417"/>
      <trkpt lat="46.16467" lon="4.10351"/>
      <trkpt lat="46.16459" lon="4.10303"/>
      <trkpt lat="46.1646" lon="4.10253"/>
      <trkpt lat="46.16459" lon="4.10238"/>
      <trkpt lat="46.16457" lon="4.10234"/>
      <trkpt lat="46.16464" lon="4.10201"/>
      <trkpt lat="46.16477" lon="4.10172"/>
      <trkpt lat="46.16581" lon="4.10021"/>
      <trkpt lat="46.16593" lon="4.10007"/>
      <trkpt lat="46.16645" lon="4.09961"/>
      <trkpt lat="46.16684" lon="4.09924"/>
      <trkpt lat="46.16749" lon="4.0987"/>
      <trkpt lat="46.16787" lon="4.09834"/>
      <trkpt lat="46.16803" lon="4.09816"/>
      <trkpt lat="46.16832" lon="4.09794"/>
      <trkpt lat="46.16857" lon="4.0977"/>
      <trkpt lat="46.16895" lon="4.09703"/>
      <trkpt lat="46.16916" lon="4.09678"/>
      <trkpt lat="46.16996" lon="4.09725"/>
      <trkpt lat="46.17029" lon="4.09735"/>
      <trkpt lat="46.17087" lon="4.09729"/>
      <trkpt lat="46.1716" lon="4.09735"/>
      <trkpt lat="46.172" lon="4.09734"/>
      <trkpt lat="46.17209" lon="4.09736"/>
      <trkpt lat="46.17214" lon="4.09739"/>
      <trkpt lat="46.1722" lon="4.09745"/>
      <trkpt lat="46.17229" lon="4.09763"/>
      <trkpt lat="46.17276" lon="4.09913"/>
      <trkpt lat="46.17284" lon="4.09928"/>
      <trkpt lat="46.17336" lon="4.10011"/>
      <trkpt lat="46.17388" lon="4.10101"/>
      <trkpt lat="46.17402" lon="4.10121"/>
      <trkpt lat="46.17575" lon="4.09953"/>
      <trkpt lat="46.17592" lon="4.09939"/>
      <trkpt lat="46.17607" lon="4.09963"/>
      <trkpt lat="46.17616" lon="4.09971"/>
      <trkpt lat="46.17659" lon="4.09997"/>
      <trkpt lat="46.17665" lon="4.09999"/>
      <trkpt lat="46.17671" lon="4.09998"/>
      <trkpt lat="46.17678" lon="4.09996"/>
      <trkpt lat="46.17693" lon="4.09984"/>
      <trkpt lat="46.17778" lon="4.09911"/>
      <trkpt lat="46.17782" lon="4.09906"/>
      <trkpt lat="46.17784" lon="4.099"/>
      <trkpt lat="46.17785" lon="4.09875"/>
      <trkpt lat="46.17788" lon="4.09868"/>
      <trkpt lat="46.17801" lon="4.09868"/>
      <trkpt lat="46.17832" lon="4.09892"/>
      <trkpt lat="46.17836" lon="4.09893"/>
      <trkpt lat="46.17855" lon="4.09886"/>
      <trkpt lat="46.17875" lon="4.09888"/>
      <trkpt lat="46.17904" lon="4.09885"/>
      <trkpt lat="46.1791" lon="4.09847"/>
      <trkpt lat="46.17916" lon="4.09831"/>
      <trkpt lat="46.17937" lon="4.09792"/>
      <trkpt lat="46.17945" lon="4.09724"/>
      <trkpt lat="46.17945" lon="4.0971"/>
      <trkpt lat="46.17949" lon="4.0971"/>
      <trkpt lat="46.1796" lon="4.097"/>
      <trkpt lat="46.17964" lon="4.09693"/>
      <trkpt lat="46.17968" lon="4.09679"/>
      <trkpt lat="46.1797" lon="4.09664"/>
      <trkpt lat="46.17975" lon="4.09651"/>
      <trkpt lat="46.17987" lon="4.09637"/>
      <trkpt lat="46.17991" lon="4.09635"/>
      <trkpt lat="46.18005" lon="4.09633"/>
      <trkpt lat="46.18025" lon="4.09635"/>
      <trkpt lat="46.18063" lon="4.09633"/>
      <trkpt lat="46.18093" lon="4.09626"/>
      <trkpt lat="46.18104" lon="4.09622"/>
      <trkpt lat="46.18121" lon="4.0961"/>
      <trkpt lat="46.18155" lon="4.09575"/>
      <trkpt lat="46.18169" lon="4.09565"/>
      <trkpt lat="46.18214" lon="4.09544"/>
      <trkpt lat="46.18272" lon="4.09527"/>
      <trkpt lat="46.183" lon="4.09512"/>
      <trkpt lat="46.18313" lon="4.0951"/>
      <trkpt lat="46.18376" lon="4.09515"/>
      <trkpt lat="46.18382" lon="4.096"/>
      <trkpt lat="46.18388" lon="4.09621"/>
      <trkpt lat="46.18457" lon="4.09752"/>
      <trkpt lat="46.18465" lon="4.0972"/>
      <trkpt lat="46.18478" lon="4.09696"/>
      <trkpt lat="46.18507" lon="4.09665"/>
      <trkpt lat="46.18519" lon="4.09656"/>
      <trkpt lat="46.18531" lon="4.0965"/>
      <trkpt lat="46.18533" lon="4.09663"/>
      <trkpt lat="46.18569" lon="4.09719"/>
      <trkpt lat="46.18578" lon="4.09736"/>
      <trkpt lat="46.18593" lon="4.09774"/>
      <trkpt lat="46.18609" lon="4.09841"/>
      <trkpt lat="46.18634" lon="4.09888"/>
      <trkpt lat="46.18652" lon="4.09959"/>
      <trkpt lat="46.18883" lon="4.10219"/>
      <trkpt lat="46.18993" lon="4.10428"/>
      <trkpt lat="46.18989" lon="4.10335"/>
      <trkpt lat="46.18955" lon="4.10228"/>
      <trkpt lat="46.18944" lon="4.10184"/>
      <trkpt lat="46.1894" lon="4.10161"/>
      <trkpt lat="46.18928" lon="4.09963"/>
      <trkpt lat="46.18937" lon="4.09965"/>
      <trkpt lat="46.1897" lon="4.10008"/>
      <trkpt lat="46.19032" lon="4.10108"/>
      <trkpt lat="46.19063" lon="4.10151"/>
      <trkpt lat="46.1907" lon="4.10163"/>
      <trkpt lat="46.19086" lon="4.10199"/>
      <trkpt lat="46.19141" lon="4.10284"/>
      <trkpt lat="46.19152" lon="4.10305"/>
      <trkpt lat="46.19158" lon="4.10325"/>
      <trkpt lat="46.1917" lon="4.10389"/>
      <trkpt lat="46.19175" lon="4.10407"/>
      <trkpt lat="46.19218" lon="4.10537"/>
      <trkpt lat="46.19235" lon="4.1057"/>
      <trkpt lat="46.19305" lon="4.10677"/>
      <trkpt lat="46.19346" lon="4.10748"/>
      <trkpt lat="46.19341" lon="4.10778"/>
      <trkpt lat="46.19331" lon="4.10947"/>
      <trkpt lat="46.19321" lon="4.11028"/>
      <trkpt lat="46.19313" lon="4.11064"/>
      <trkpt lat="46.19309" lon="4.11075"/>
      <trkpt lat="46.19299" lon="4.1109"/>
      <trkpt lat="46.19272" lon="4.11116"/>
      <trkpt lat="46.19264" lon="4.11119"/>
      <trkpt lat="46.19257" lon="4.11118"/>
      <trkpt lat="46.19255" lon="4.11123"/>
      <trkpt lat="46.19251" lon="4.11127"/>
      <trkpt lat="46.19217" lon="4.11147"/>
      <trkpt lat="46.19206" lon="4.11158"/>
      <trkpt lat="46.19203" lon="4.1117"/>
      <trkpt lat="46.19194" lon="4.11169"/>
      <trkpt lat="46.19188" lon="4.11171"/>
      <trkpt lat="46.19181" lon="4.11176"/>
      <trkpt lat="46.1916" lon="4.11201"/>
      <trkpt lat="46.19157" lon="4.11211"/>
      <trkpt lat="46.19153" lon="4.11242"/>
      <trkpt lat="46.19145" lon="4.11341"/>
      <trkpt lat="46.19123" lon="4.11421"/>
      <trkpt lat="46.19114" lon="4.11519"/>
      <trkpt lat="46.19111" lon="4.11527"/>
      <trkpt lat="46.19107" lon="4.11534"/>
      <trkpt lat="46.19099" lon="4.11541"/>
      <trkpt lat="46.19071" lon="4.11551"/>
      <trkpt lat="46.19057" lon="4.11559"/>
      <trkpt lat="46.19007" lon="4.11606"/>
      <trkpt lat="46.18982" lon="4.1165"/>
      <trkpt lat="46.18972" lon="4.11672"/>
      <trkpt lat="46.18944" lon="4.11749"/>
      <trkpt lat="46.18888" lon="4.11632"/>
      <trkpt lat="46.18878" lon="4.11605"/>
      <trkpt lat="46.18849" lon="4.11406"/>
      <trkpt lat="46.18844" lon="4.11348"/>
      <trkpt lat="46.18842" lon="4.11336"/>
      <trkpt lat="46.18837" lon="4.11326"/>
      <trkpt lat="46.18827" lon="4.11223"/>
      <trkpt lat="46.18822" lon="4.11187"/>
      <trkpt lat="46.18825" lon="4.11119"/>
      <trkpt lat="46.18836" lon="4.11061"/>
      <trkpt lat="46.18855" lon="4.1099"/>
      <trkpt lat="46.18867" lon="4.10953"/>
      <trkpt lat="46.18909" lon="4.1087"/>
      <trkpt lat="46.18912" lon="4.10859"/>
      <trkpt lat="46.18911" lon="4.10832"/>
      <trkpt lat="46.18862" lon="4.10561"/>
      <trkpt lat="46.18855" lon="4.1054"/>
      <trkpt lat="46.18844" lon="4.10515"/>
      <trkpt lat="46.18764" lon="4.10359"/>
      <trkpt lat="46.18764" lon="4.10365"/>
      <trkpt lat="46.18759" lon="4.10373"/>
      <trkpt lat="46.1873" lon="4.10388"/>
      <trkpt lat="46.1866" lon="4.10416"/>
      <trkpt lat="46.18655" lon="4.10422"/>
      <trkpt lat="46.18652" lon="4.10429"/>
      <trkpt lat="46.1865" lon="4.10443"/>
      <trkpt lat="46.18653" lon="4.10478"/>
      <trkpt lat="46.18644" lon="4.10522"/>
      <trkpt lat="46.18641" lon="4.10578"/>
      <trkpt lat="46.18622" lon="4.1074"/>
      <trkpt lat="46.18612" lon="4.10789"/>
      <trkpt lat="46.18584" lon="4.10894"/>
      <trkpt lat="46.18561" lon="4.11001"/>
      <trkpt lat="46.18559" lon="4.11018"/>
      <trkpt lat="46.18552" lon="4.11173"/>
      <trkpt lat="46.1856" lon="4.11229"/>
      <trkpt lat="46.18575" lon="4.11289"/>
      <trkpt lat="46.18619" lon="4.11428"/>
      <trkpt lat="46.18631" lon="4.11474"/>
      <trkpt lat="46.18634" lon="4.11494"/>
      <trkpt lat="46.18634" lon="4.1152"/>
      <trkpt lat="46.18631" lon="4.11561"/>
      <trkpt lat="46.1862" lon="4.11623"/>
      <trkpt lat="46.1862" lon="4.11633"/>
      <trkpt lat="46.18631" lon="4.11681"/>
      <trkpt lat="46.18646" lon="4.11724"/>
      <trkpt lat="46.18668" lon="4.11772"/>
      <trkpt lat="46.18679" lon="4.11809"/>
      <trkpt lat="46.18692" lon="4.11844"/>
      <trkpt lat="46.18707" lon="4.11874"/>
      <trkpt lat="46.18746" lon="4.11924"/>
      <trkpt lat="46.18763" lon="4.11938"/>
      <trkpt lat="46.18777" lon="4.11953"/>
      <trkpt lat="46.18789" lon="4.11969"/>
      <trkpt lat="46.18793" lon="4.11978"/>
      <trkpt lat="46.18781" lon="4.11982"/>
      <trkpt lat="46.18769" lon="4.11989"/>
      <trkpt lat="46.18743" lon="4.12006"/>
      <trkpt lat="46.18735" lon="4.12012"/>
      <trkpt lat="46.18733" lon="4.12016"/>
      <trkpt lat="46.18717" lon="4.12016"/>
      <trkpt lat="46.18703" lon="4.12018"/>
      <trkpt lat="46.18683" lon="4.12024"/>
      <trkpt lat="46.18664" lon="4.12032"/>
      <trkpt lat="46.18578" lon="4.12079"/>
      <trkpt lat="46.18537" lon="4.12089"/>
      <trkpt lat="46.18504" lon="4.12085"/>
      <trkpt lat="46.1845" lon="4.12072"/>
      <trkpt lat="46.1843" lon="4.12065"/>
      <trkpt lat="46.18396" lon="4.12059"/>
      <trkpt lat="46.18392" lon="4.12057"/>
      <trkpt lat="46.18373" lon="4.12055"/>
      <trkpt lat="46.1836" lon="4.12056"/>
      <trkpt lat="46.18349" lon="4.12061"/>
      <trkpt lat="46.18342" lon="4.12068"/>
      <trkpt lat="46.18302" lon="4.12118"/>
      <trkpt lat="46.18292" lon="4.12137"/>
      <trkpt lat="46.18275" lon="4.12163"/>
      <trkpt lat="46.18252" lon="4.12193"/>
      <trkpt lat="46.18242" lon="4.12214"/>
      <trkpt lat="46.18243" lon="4.12249"/>
      <trkpt lat="46.18238" lon="4.12289"/>
      <trkpt lat="46.18233" lon="4.12306"/>
      <trkpt lat="46.18223" lon="4.12327"/>
      <trkpt lat="46.18234" lon="4.12335"/>
      <trkpt lat="46.18253" lon="4.12343"/>
      <trkpt lat="46.18281" lon="4.12348"/>
      <trkpt lat="46.18305" lon="4.12362"/>
      <trkpt lat="46.18366" lon="4.12415"/>
      <trkpt lat="46.18393" lon="4.12443"/>
      <trkpt lat="46.18408" lon="4.12466"/>
      <trkpt lat="46.18375" lon="4.12478"/>
      <trkpt lat="46.18347" lon="4.12498"/>
      <trkpt lat="46.18335" lon="4.12513"/>
      <trkpt lat="46.18322" lon="4.12543"/>
      <trkpt lat="46.18306" lon="4.1257"/>
      <trkpt lat="46.18277" lon="4.12668"/>
      <trkpt lat="46.18267" lon="4.12692"/>
      <trkpt lat="46.18254" lon="4.12708"/>
      <trkpt lat="46.18214" lon="4.12884"/>
      <trkpt lat="46.18215" lon="4.12892"/>
      <trkpt lat="46.18212" lon="4.12909"/>
      <trkpt lat="46.18177" lon="4.13024"/>
      <trkpt lat="46.18164" lon="4.13055"/>
      <trkpt lat="46.18151" lon="4.13101"/>
      <trkpt lat="46.18114" lon="4.13175"/>
      <trkpt lat="46.18094" lon="4.13231"/>
      <trkpt lat="46.18059" lon="4.1332"/>
      <trkpt lat="46.18057" lon="4.13332"/>
      <trkpt lat="46.18009" lon="4.13428"/>
      <trkpt lat="46.17999" lon="4.13444"/>
      <trkpt lat="46.17978" lon="4.13469"/>
      <trkpt lat="46.17969" lon="4.13483"/>
      <trkpt lat="46.17956" lon="4.13507"/>
      <trkpt lat="46.17933" lon="4.13556"/>
      <trkpt lat="46.17903" lon="4.13609"/>
      <trkpt lat="46.17886" lon="4.13633"/>
      <trkpt lat="46.17812" lon="4.13693"/>
      <trkpt lat="46.17786" lon="4.13725"/>
      <trkpt lat="46.1775" lon="4.1374"/>
      <trkpt lat="46.17745" lon="4.13759"/>
      <trkpt lat="46.17756" lon="4.1379"/>
      <trkpt lat="46.17737" lon="4.13815"/>
      <trkpt lat="46.17724" lon="4.13817"/>
      <trkpt lat="46.17716" lon="4.13794"/>
      <trkpt lat="46.17693" lon="4.13799"/>
      <trkpt lat="46.17685" lon="4.1382"/>
      <trkpt lat="46.17659" lon="4.13814"/>
      <trkpt lat="46.17626" lon="4.13813"/>
      <trkpt lat="46.17611" lon="4.13815"/>
      <trkpt lat="46.17601" lon="4.1382"/>
      <trkpt lat="46.17592" lon="4.13828"/>
      <trkpt lat="46.17567" lon="4.13862"/>
      <trkpt lat="46.17551" lon="4.13877"/>
      <trkpt lat="46.17542" lon="4.13884"/>
      <trkpt lat="46.17514" lon="4.139"/>
      <trkpt lat="46.17507" lon="4.13898"/>
      <trkpt lat="46.17503" lon="4.13891"/>
      <trkpt lat="46.17478" lon="4.13824"/>
      <trkpt lat="46.17342" lon="4.13957"/>
      <trkpt lat="46.17319" lon="4.13976"/>
      <trkpt lat="46.17304" lon="4.13985"/>
      <trkpt lat="46.17226" lon="4.14022"/>
      <trkpt lat="46.17124" lon="4.14058"/>
      <trkpt lat="46.17087" lon="4.1408"/>
      <trkpt lat="46.16998" lon="4.14142"/>
      <trkpt lat="46.1698" lon="4.14135"/>
      <trkpt lat="46.16939" lon="4.14115"/>
      <trkpt lat="46.16891" lon="4.14096"/>
      <trkpt lat="46.16818" lon="4.14017"/>
      <trkpt lat="46.16809" lon="4.14003"/>
      <trkpt lat="46.16779" lon="4.13946"/>
      <trkpt lat="46.1676" lon="4.13895"/>
      <trkpt lat="46.16757" lon="4.13846"/>
      <trkpt lat="46.16743" lon="4.13794"/>
      <trkpt lat="46.16718" lon="4.13734"/>
      <trkpt lat="46.16705" lon="4.13716"/>
      <trkpt lat="46.16696" lon="4.13701"/>
      <trkpt lat="46.16694" lon="4.13695"/>
      <trkpt lat="46.16694" lon="4.13688"/>
      <trkpt lat="46.1671" lon="4.13649"/>
      <trkpt lat="46.16714" lon="4.13629"/>
      <trkpt lat="46.16713" lon="4.13603"/>
      <trkpt lat="46.16707" lon="4.13586"/>
      <trkpt lat="46.16688" lon="4.13613"/>
      <trkpt lat="46.16673" lon="4.13628"/>
      <trkpt lat="46.16653" lon="4.1364"/>
      <trkpt lat="46.16594" lon="4.13657"/>
      <trkpt lat="46.16539" lon="4.13666"/>
      <trkpt lat="46.1651" lon="4.13665"/>
      <trkpt lat="46.16492" lon="4.13661"/>
      <trkpt lat="46.16478" lon="4.13652"/>
      <trkpt lat="46.16447" lon="4.13625"/>
      <trkpt lat="46.16434" lon="4.13677"/>
      <trkpt lat="46.16416" lon="4.13738"/>
      <trkpt lat="46.16378" lon="4.13844"/>
      <trkpt lat="46.1637" lon="4.13884"/>
      <trkpt lat="46.16361" lon="4.13943"/>
      <trkpt lat="46.1636" lon="4.13967"/>
      <trkpt lat="46.16362" lon="4.13975"/>
      <trkpt lat="46.1637" lon="4.13992"/>
      <trkpt lat="46.16388" lon="4.14017"/>
      <trkpt lat="46.16396" lon="4.14032"/>
      <trkpt lat="46.16408" lon="4.14075"/>
      <trkpt lat="46.16412" lon="4.1411"/>
      <trkpt lat="46.16411" lon="4.14152"/>
      <trkpt lat="46.16387" lon="4.14223"/>
      <trkpt lat="46.1638" lon="4.14284"/>
      <trkpt lat="46.16373" lon="4.14315"/>
      <trkpt lat="46.16358" lon="4.14371"/>
      <trkpt lat="46.16348" lon="4.14396"/>
      <trkpt lat="46.16318" lon="4.14445"/>
      <trkpt lat="46.16283" lon="4.14524"/>
      <trkpt lat="46.16269" lon="4.14545"/>
      <trkpt lat="46.1623" lon="4.14611"/>
      <trkpt lat="46.16216" lon="4.14638"/>
      <trkpt lat="46.16197" lon="4.14683"/>
      <trkpt lat="46.16167" lon="4.14632"/>
      <trkpt lat="46.16148" lon="4.14651"/>
      <trkpt lat="46.1614" lon="4.14662"/>
      <trkpt lat="46.1608" lon="4.14768"/>
      <trkpt lat="46.16064" lon="4.14804"/>
      <trkpt lat="46.16052" lon="4.1475"/>
      <trkpt lat="46.16036" lon="4.14694"/>
      <trkpt lat="46.16028" lon="4.14622"/>
      <trkpt lat="46.16024" lon="4.1462"/>
      <trkpt lat="46.16017" lon="4.14622"/>
      <trkpt lat="46.16012" lon="4.14625"/>
      <trkpt lat="46.16008" lon="4.14632"/>
      <trkpt lat="46.16002" lon="4.14637"/>
      <trkpt lat="46.15989" lon="4.14644"/>
      <trkpt lat="46.15945" lon="4.1465"/>
      <trkpt lat="46.15914" lon="4.14664"/>
      <trkpt lat="46.15852" lon="4.1471"/>
      <trkpt lat="46.15825" lon="4.14745"/>
      <trkpt lat="46.15818" lon="4.14756"/>
      <trkpt lat="46.15765" lon="4.14866"/>
      <trkpt lat="46.15736" lon="4.14905"/>
      <trkpt lat="46.157" lon="4.14948"/>
      <trkpt lat="46.15683" lon="4.14974"/>
      <trkpt lat="46.15645" lon="4.15072"/>
      <trkpt lat="46.15648" lon="4.15078"/>
      <trkpt lat="46.15642" lon="4.15089"/>
      <trkpt lat="46.1564" lon="4.15097"/>
      <trkpt lat="46.15639" lon="4.15109"/>
      <trkpt lat="46.15643" lon="4.15122"/>
      <trkpt lat="46.15642" lon="4.15128"/>
      <trkpt lat="46.15648" lon="4.15163"/>
      <trkpt lat="46.15648" lon="4.15167"/>
      <trkpt lat="46.15645" lon="4.15173"/>
      <trkpt lat="46.1558" lon="4.15212"/>
      <trkpt lat="46.15522" lon="4.15228"/>
      <trkpt lat="46.15517" lon="4.15207"/>
      <trkpt lat="46.15507" lon="4.15185"/>
      <trkpt lat="46.15498" lon="4.15173"/>
      <trkpt lat="46.15481" lon="4.15158"/>
    </trkseg>
  </trk>
</gpx>
