<?xml version="1.0" encoding="utf-8"?>
<gpx xmlns="http://www.topografix.com/GPX/1/1" version="1.1" creator="">
  <trk>
    <name> Circuit 5km Poussette </name>
    <desc/>
    <trkseg>
      <trkpt lat="46.15365" lon="4.12091"/>
      <trkpt lat="46.15367" lon="4.12158"/>
      <trkpt lat="46.15363" lon="4.12203"/>
      <trkpt lat="46.15363" lon="4.12209"/>
      <trkpt lat="46.15358" lon="4.12233"/>
      <trkpt lat="46.15361" lon="4.12247"/>
      <trkpt lat="46.15363" lon="4.1228"/>
      <trkpt lat="46.15375" lon="4.12326"/>
      <trkpt lat="46.15423" lon="4.12302"/>
      <trkpt lat="46.15432" lon="4.12301"/>
      <trkpt lat="46.15448" lon="4.12302"/>
      <trkpt lat="46.15487" lon="4.12308"/>
      <trkpt lat="46.15529" lon="4.12318"/>
      <trkpt lat="46.15652" lon="4.12342"/>
      <trkpt lat="46.15656" lon="4.12343"/>
      <trkpt lat="46.15665" lon="4.12342"/>
      <trkpt lat="46.15706" lon="4.12324"/>
      <trkpt lat="46.15714" lon="4.12312"/>
      <trkpt lat="46.15724" lon="4.12292"/>
      <trkpt lat="46.15778" lon="4.12205"/>
      <trkpt lat="46.15798" lon="4.12172"/>
      <trkpt lat="46.15802" lon="4.12158"/>
      <trkpt lat="46.15802" lon="4.12148"/>
      <trkpt lat="46.15797" lon="4.12118"/>
      <trkpt lat="46.15797" lon="4.12111"/>
      <trkpt lat="46.15797" lon="4.12103"/>
      <trkpt lat="46.15803" lon="4.12081"/>
      <trkpt lat="46.1581" lon="4.12061"/>
      <trkpt lat="46.15812" lon="4.12039"/>
      <trkpt lat="46.15805" lon="4.11956"/>
      <trkpt lat="46.15804" lon="4.11938"/>
      <trkpt lat="46.15803" lon="4.11908"/>
      <trkpt lat="46.15774" lon="4.11862"/>
      <trkpt lat="46.15743" lon="4.11794"/>
      <trkpt lat="46.15727" lon="4.11756"/>
      <trkpt lat="46.1572" lon="4.11734"/>
      <trkpt lat="46.15704" lon="4.11717"/>
      <trkpt lat="46.15691" lon="4.11708"/>
      <trkpt lat="46.15676" lon="4.11701"/>
      <trkpt lat="46.15662" lon="4.11701"/>
      <trkpt lat="46.15627" lon="4.11709"/>
      <trkpt lat="46.15604" lon="4.11708"/>
      <trkpt lat="46.15596" lon="4.117"/>
      <trkpt lat="46.15594" lon="4.11693"/>
      <trkpt lat="46.15593" lon="4.11669"/>
      <trkpt lat="46.15601" lon="4.11597"/>
      <trkpt lat="46.15624" lon="4.11565"/>
      <trkpt lat="46.15657" lon="4.11504"/>
      <trkpt lat="46.15668" lon="4.11493"/>
      <trkpt lat="46.15683" lon="4.11482"/>
      <trkpt lat="46.1571" lon="4.11466"/>
      <trkpt lat="46.15727" lon="4.11461"/>
      <trkpt lat="46.15734" lon="4.11451"/>
      <trkpt lat="46.1575" lon="4.11411"/>
      <trkpt lat="46.15762" lon="4.11372"/>
      <trkpt lat="46.15766" lon="4.11331"/>
      <trkpt lat="46.15773" lon="4.11302"/>
      <trkpt lat="46.15781" lon="4.11285"/>
      <trkpt lat="46.15797" lon="4.11259"/>
      <trkpt lat="46.15821" lon="4.11186"/>
      <trkpt lat="46.15826" lon="4.11163"/>
      <trkpt lat="46.1583" lon="4.11154"/>
      <trkpt lat="46.15864" lon="4.11107"/>
      <trkpt lat="46.15889" lon="4.11064"/>
      <trkpt lat="46.15916" lon="4.11116"/>
      <trkpt lat="46.15933" lon="4.11144"/>
      <trkpt lat="46.1596" lon="4.11178"/>
      <trkpt lat="46.1593" lon="4.11254"/>
      <trkpt lat="46.15908" lon="4.1129"/>
      <trkpt lat="46.15871" lon="4.1134"/>
      <trkpt lat="46.15859" lon="4.11353"/>
      <trkpt lat="46.15844" lon="4.11381"/>
      <trkpt lat="46.15841" lon="4.1139"/>
      <trkpt lat="46.1584" lon="4.11406"/>
      <trkpt lat="46.15849" lon="4.11444"/>
      <trkpt lat="46.15848" lon="4.11459"/>
      <trkpt lat="46.15845" lon="4.11475"/>
      <trkpt lat="46.1582" lon="4.11545"/>
      <trkpt lat="46.15805" lon="4.11606"/>
      <trkpt lat="46.15802" lon="4.11633"/>
      <trkpt lat="46.15803" lon="4.11661"/>
      <trkpt lat="46.15809" lon="4.11697"/>
      <trkpt lat="46.15816" lon="4.11759"/>
      <trkpt lat="46.15817" lon="4.11797"/>
      <trkpt lat="46.15803" lon="4.11908"/>
      <trkpt lat="46.15804" lon="4.11938"/>
      <trkpt lat="46.15812" lon="4.12039"/>
      <trkpt lat="46.1581" lon="4.12061"/>
      <trkpt lat="46.15797" lon="4.12103"/>
      <trkpt lat="46.15797" lon="4.12111"/>
      <trkpt lat="46.15797" lon="4.12118"/>
      <trkpt lat="46.15802" lon="4.12148"/>
      <trkpt lat="46.15802" lon="4.12158"/>
      <trkpt lat="46.15798" lon="4.12172"/>
      <trkpt lat="46.15724" lon="4.12292"/>
      <trkpt lat="46.15706" lon="4.12324"/>
      <trkpt lat="46.15665" lon="4.12342"/>
      <trkpt lat="46.15656" lon="4.12343"/>
      <trkpt lat="46.15529" lon="4.12318"/>
      <trkpt lat="46.15487" lon="4.12308"/>
      <trkpt lat="46.15448" lon="4.12302"/>
      <trkpt lat="46.15432" lon="4.12301"/>
      <trkpt lat="46.15423" lon="4.12302"/>
      <trkpt lat="46.15375" lon="4.12326"/>
      <trkpt lat="46.1537" lon="4.1231"/>
      <trkpt lat="46.15369" lon="4.12308"/>
      <trkpt lat="46.15369" lon="4.12305"/>
      <trkpt lat="46.15363" lon="4.1228"/>
      <trkpt lat="46.15361" lon="4.12247"/>
      <trkpt lat="46.15358" lon="4.12233"/>
      <trkpt lat="46.15363" lon="4.12209"/>
      <trkpt lat="46.15363" lon="4.12203"/>
      <trkpt lat="46.15367" lon="4.12158"/>
      <trkpt lat="46.15367" lon="4.12132"/>
      <trkpt lat="46.15366" lon="4.12095"/>
      <trkpt lat="46.15357" lon="4.11954"/>
      <trkpt lat="46.15353" lon="4.11936"/>
      <trkpt lat="46.15346" lon="4.11917"/>
      <trkpt lat="46.15313" lon="4.11837"/>
      <trkpt lat="46.15295" lon="4.11801"/>
      <trkpt lat="46.15279" lon="4.11777"/>
      <trkpt lat="46.15254" lon="4.11745"/>
      <trkpt lat="46.15251" lon="4.1177"/>
      <trkpt lat="46.15253" lon="4.11804"/>
      <trkpt lat="46.15217" lon="4.11931"/>
      <trkpt lat="46.15224" lon="4.11935"/>
      <trkpt lat="46.15199" lon="4.1204"/>
      <trkpt lat="46.15183" lon="4.12144"/>
      <trkpt lat="46.15139" lon="4.12459"/>
      <trkpt lat="46.15139" lon="4.12482"/>
      <trkpt lat="46.15176" lon="4.12446"/>
      <trkpt lat="46.15228" lon="4.12385"/>
      <trkpt lat="46.15292" lon="4.12457"/>
      <trkpt lat="46.15313" lon="4.12395"/>
      <trkpt lat="46.15322" lon="4.12378"/>
      <trkpt lat="46.1533" lon="4.1237"/>
      <trkpt lat="46.1534" lon="4.12355"/>
      <trkpt lat="46.15339" lon="4.12347"/>
      <trkpt lat="46.15361" lon="4.12318"/>
      <trkpt lat="46.1537" lon="4.1231"/>
      <trkpt lat="46.15369" lon="4.12305"/>
      <trkpt lat="46.15366" lon="4.12295"/>
      <trkpt lat="46.15363" lon="4.1228"/>
      <trkpt lat="46.15361" lon="4.12247"/>
      <trkpt lat="46.15358" lon="4.12233"/>
      <trkpt lat="46.15363" lon="4.12209"/>
      <trkpt lat="46.15367" lon="4.12158"/>
      <trkpt lat="46.15366" lon="4.12095"/>
      <trkpt lat="46.15364" lon="4.12064"/>
    </trkseg>
  </trk>
</gpx>
