<?xml version="1.0" encoding="UTF-8"?>
<gpx version="1.1" creator="Marche APEL Saint-Nizier-sous-Charlieu" xmlns="http://www.topografix.com/GPX/1/1" xmlns:xsi="http://www.w3.org/2001/XMLSchema-instance" xsi:schemaLocation="http://www.topografix.com/GPX/1/1 http://www.topografix.com/GPX/1/1/gpx.xsd">
  <metadata><name>Marche APEL 5 km</name></metadata>
  <trk>
    <name>Marche APEL 5 km</name>
    <type>hiking</type>
    <trkseg>
      <trkpt lat="46.15365" lon="4.12091"><ele>267.2</ele></trkpt>
      <trkpt lat="46.153657" lon="4.121133"><ele>267.4</ele></trkpt>
      <trkpt lat="46.153663" lon="4.121357"><ele>267.5</ele></trkpt>
      <trkpt lat="46.15367" lon="4.12158"><ele>267.7</ele></trkpt>
      <trkpt lat="46.15365" lon="4.121805"><ele>267.9</ele></trkpt>
      <trkpt lat="46.15363" lon="4.12203"><ele>268.2</ele></trkpt>
      <trkpt lat="46.15363" lon="4.12209"><ele>268.2</ele></trkpt>
      <trkpt lat="46.15358" lon="4.12233"><ele>268.5</ele></trkpt>
      <trkpt lat="46.15361" lon="4.12247"><ele>268.9</ele></trkpt>
      <trkpt lat="46.15362" lon="4.122635"><ele>269.3</ele></trkpt>
      <trkpt lat="46.15363" lon="4.1228"><ele>269.8</ele></trkpt>
      <trkpt lat="46.15369" lon="4.12303"><ele>270.9</ele></trkpt>
      <trkpt lat="46.15375" lon="4.12326"><ele>272.3</ele></trkpt>
      <trkpt lat="46.15391" lon="4.12318"><ele>273.6</ele></trkpt>
      <trkpt lat="46.15407" lon="4.1231"><ele>274.5</ele></trkpt>
      <trkpt lat="46.15423" lon="4.12302"><ele>275.6</ele></trkpt>
      <trkpt lat="46.15432" lon="4.12301"><ele>276.1</ele></trkpt>
      <trkpt lat="46.15448" lon="4.12302"><ele>277.2</ele></trkpt>
      <trkpt lat="46.154675" lon="4.12305"><ele>278.1</ele></trkpt>
      <trkpt lat="46.15487" lon="4.12308"><ele>279.9</ele></trkpt>
      <trkpt lat="46.15508" lon="4.12313"><ele>281.4</ele></trkpt>
      <trkpt lat="46.15529" lon="4.12318"><ele>283.4</ele></trkpt>
      <trkpt lat="46.155495" lon="4.12322"><ele>285.9</ele></trkpt>
      <trkpt lat="46.1557" lon="4.12326"><ele>289.1</ele></trkpt>
      <trkpt lat="46.155905" lon="4.1233"><ele>292.6</ele></trkpt>
      <trkpt lat="46.15611" lon="4.12334"><ele>296.3</ele></trkpt>
      <trkpt lat="46.156315" lon="4.12338"><ele>300.1</ele></trkpt>
      <trkpt lat="46.15652" lon="4.12342"><ele>302.7</ele></trkpt>
      <trkpt lat="46.15656" lon="4.12343"><ele>303.7</ele></trkpt>
      <trkpt lat="46.15665" lon="4.12342"><ele>305.2</ele></trkpt>
      <trkpt lat="46.156855" lon="4.12333"><ele>308.7</ele></trkpt>
      <trkpt lat="46.15706" lon="4.12324"><ele>311.6</ele></trkpt>
      <trkpt lat="46.15714" lon="4.12312"><ele>313.0</ele></trkpt>
      <trkpt lat="46.15724" lon="4.12292"><ele>313.0</ele></trkpt>
      <trkpt lat="46.157375" lon="4.122703"><ele>312.4</ele></trkpt>
      <trkpt lat="46.15751" lon="4.122485"><ele>311.3</ele></trkpt>
      <trkpt lat="46.157645" lon="4.122267"><ele>310.9</ele></trkpt>
      <trkpt lat="46.15778" lon="4.12205"><ele>311.0</ele></trkpt>
      <trkpt lat="46.15788" lon="4.121885"><ele>311.3</ele></trkpt>
      <trkpt lat="46.15798" lon="4.12172"><ele>312.5</ele></trkpt>
      <trkpt lat="46.15802" lon="4.12158"><ele>313.4</ele></trkpt>
      <trkpt lat="46.15802" lon="4.12148"><ele>313.6</ele></trkpt>
      <trkpt lat="46.15797" lon="4.12118"><ele>313.3</ele></trkpt>
      <trkpt lat="46.15797" lon="4.12111"><ele>313.3</ele></trkpt>
      <trkpt lat="46.15797" lon="4.12103"><ele>313.3</ele></trkpt>
      <trkpt lat="46.15803" lon="4.12081"><ele>313.8</ele></trkpt>
      <trkpt lat="46.1581" lon="4.12061"><ele>314.0</ele></trkpt>
      <trkpt lat="46.15812" lon="4.12039"><ele>313.3</ele></trkpt>
      <trkpt lat="46.158097" lon="4.120113"><ele>311.5</ele></trkpt>
      <trkpt lat="46.158073" lon="4.119837"><ele>310.6</ele></trkpt>
      <trkpt lat="46.15805" lon="4.11956"><ele>310.4</ele></trkpt>
      <trkpt lat="46.15804" lon="4.11938"><ele>311.0</ele></trkpt>
      <trkpt lat="46.15803" lon="4.11908"><ele>311.4</ele></trkpt>
      <trkpt lat="46.157885" lon="4.11885"><ele>309.3</ele></trkpt>
      <trkpt lat="46.15774" lon="4.11862"><ele>307.4</ele></trkpt>
      <trkpt lat="46.157637" lon="4.118393"><ele>305.4</ele></trkpt>
      <trkpt lat="46.157533" lon="4.118167"><ele>303.7</ele></trkpt>
      <trkpt lat="46.15743" lon="4.11794"><ele>302.3</ele></trkpt>
      <trkpt lat="46.15735" lon="4.11775"><ele>301.3</ele></trkpt>
      <trkpt lat="46.15727" lon="4.11756"><ele>300.1</ele></trkpt>
      <trkpt lat="46.1572" lon="4.11734"><ele>298.3</ele></trkpt>
      <trkpt lat="46.15704" lon="4.11717"><ele>296.1</ele></trkpt>
      <trkpt lat="46.15691" lon="4.11708"><ele>294.6</ele></trkpt>
      <trkpt lat="46.15676" lon="4.11701"><ele>293.5</ele></trkpt>
      <trkpt lat="46.15662" lon="4.11701"><ele>292.3</ele></trkpt>
      <trkpt lat="46.156445" lon="4.11705"><ele>290.1</ele></trkpt>
      <trkpt lat="46.15627" lon="4.11709"><ele>288.2</ele></trkpt>
      <trkpt lat="46.156155" lon="4.117085"><ele>287.0</ele></trkpt>
      <trkpt lat="46.15604" lon="4.11708"><ele>286.1</ele></trkpt>
      <trkpt lat="46.15596" lon="4.117"><ele>285.5</ele></trkpt>
      <trkpt lat="46.15594" lon="4.11693"><ele>285.3</ele></trkpt>
      <trkpt lat="46.15593" lon="4.11669"><ele>284.1</ele></trkpt>
      <trkpt lat="46.155957" lon="4.11645"><ele>283.1</ele></trkpt>
      <trkpt lat="46.155983" lon="4.11621"><ele>281.1</ele></trkpt>
      <trkpt lat="46.15601" lon="4.11597"><ele>280.2</ele></trkpt>
      <trkpt lat="46.156125" lon="4.11581"><ele>280.4</ele></trkpt>
      <trkpt lat="46.15624" lon="4.11565"><ele>280.5</ele></trkpt>
      <trkpt lat="46.15635" lon="4.115447"><ele>281.1</ele></trkpt>
      <trkpt lat="46.15646" lon="4.115243"><ele>281.7</ele></trkpt>
      <trkpt lat="46.15657" lon="4.11504"><ele>281.0</ele></trkpt>
      <trkpt lat="46.15668" lon="4.11493"><ele>281.1</ele></trkpt>
      <trkpt lat="46.15683" lon="4.11482"><ele>282.4</ele></trkpt>
      <trkpt lat="46.156965" lon="4.11474"><ele>283.2</ele></trkpt>
      <trkpt lat="46.1571" lon="4.11466"><ele>285.0</ele></trkpt>
      <trkpt lat="46.15727" lon="4.11461"><ele>286.6</ele></trkpt>
      <trkpt lat="46.15734" lon="4.11451"><ele>286.8</ele></trkpt>
      <trkpt lat="46.15742" lon="4.11431"><ele>287.9</ele></trkpt>
      <trkpt lat="46.1575" lon="4.11411"><ele>288.2</ele></trkpt>
      <trkpt lat="46.15756" lon="4.113915"><ele>288.2</ele></trkpt>
      <trkpt lat="46.15762" lon="4.11372"><ele>287.7</ele></trkpt>
      <trkpt lat="46.15764" lon="4.113515"><ele>286.5</ele></trkpt>
      <trkpt lat="46.15766" lon="4.11331"><ele>286.2</ele></trkpt>
      <trkpt lat="46.15773" lon="4.11302"><ele>285.9</ele></trkpt>
      <trkpt lat="46.15781" lon="4.11285"><ele>285.5</ele></trkpt>
      <trkpt lat="46.15789" lon="4.11272"><ele>285.6</ele></trkpt>
      <trkpt lat="46.15797" lon="4.11259"><ele>286.1</ele></trkpt>
      <trkpt lat="46.15805" lon="4.112347"><ele>286.4</ele></trkpt>
      <trkpt lat="46.15813" lon="4.112103"><ele>287.0</ele></trkpt>
      <trkpt lat="46.15821" lon="4.11186"><ele>287.3</ele></trkpt>
      <trkpt lat="46.15826" lon="4.11163"><ele>286.5</ele></trkpt>
      <trkpt lat="46.1583" lon="4.11154"><ele>286.4</ele></trkpt>
      <trkpt lat="46.158413" lon="4.111383"><ele>286.3</ele></trkpt>
      <trkpt lat="46.158527" lon="4.111227"><ele>286.4</ele></trkpt>
      <trkpt lat="46.15864" lon="4.11107"><ele>286.5</ele></trkpt>
      <trkpt lat="46.158765" lon="4.110855"><ele>286.7</ele></trkpt>
      <trkpt lat="46.15889" lon="4.11064"><ele>287.1</ele></trkpt>
      <trkpt lat="46.15898" lon="4.110813"><ele>288.2</ele></trkpt>
      <trkpt lat="46.15907" lon="4.110987"><ele>289.0</ele></trkpt>
      <trkpt lat="46.15916" lon="4.11116"><ele>289.6</ele></trkpt>
      <trkpt lat="46.159245" lon="4.1113"><ele>290.3</ele></trkpt>
      <trkpt lat="46.15933" lon="4.11144"><ele>291.4</ele></trkpt>
      <trkpt lat="46.159465" lon="4.11161"><ele>292.9</ele></trkpt>
      <trkpt lat="46.1596" lon="4.11178"><ele>294.9</ele></trkpt>
      <trkpt lat="46.1595" lon="4.112033"><ele>296.1</ele></trkpt>
      <trkpt lat="46.1594" lon="4.112287"><ele>296.8</ele></trkpt>
      <trkpt lat="46.1593" lon="4.11254"><ele>297.7</ele></trkpt>
      <trkpt lat="46.15919" lon="4.11272"><ele>298.5</ele></trkpt>
      <trkpt lat="46.15908" lon="4.1129"><ele>298.3</ele></trkpt>
      <trkpt lat="46.158957" lon="4.113067"><ele>298.1</ele></trkpt>
      <trkpt lat="46.158833" lon="4.113233"><ele>297.6</ele></trkpt>
      <trkpt lat="46.15871" lon="4.1134"><ele>297.4</ele></trkpt>
      <trkpt lat="46.15859" lon="4.11353"><ele>297.4</ele></trkpt>
      <trkpt lat="46.158515" lon="4.11367"><ele>297.3</ele></trkpt>
      <trkpt lat="46.15844" lon="4.11381"><ele>297.1</ele></trkpt>
      <trkpt lat="46.15841" lon="4.1139"><ele>297.0</ele></trkpt>
      <trkpt lat="46.1584" lon="4.11406"><ele>297.9</ele></trkpt>
      <trkpt lat="46.158445" lon="4.11425"><ele>298.7</ele></trkpt>
      <trkpt lat="46.15849" lon="4.11444"><ele>300.4</ele></trkpt>
      <trkpt lat="46.15848" lon="4.11459"><ele>301.1</ele></trkpt>
      <trkpt lat="46.15845" lon="4.11475"><ele>301.6</ele></trkpt>
      <trkpt lat="46.158367" lon="4.114983"><ele>302.1</ele></trkpt>
      <trkpt lat="46.158283" lon="4.115217"><ele>302.3</ele></trkpt>
      <trkpt lat="46.1582" lon="4.11545"><ele>302.7</ele></trkpt>
      <trkpt lat="46.158125" lon="4.115755"><ele>303.0</ele></trkpt>
      <trkpt lat="46.15805" lon="4.11606"><ele>303.7</ele></trkpt>
      <trkpt lat="46.15802" lon="4.11633"><ele>304.1</ele></trkpt>
      <trkpt lat="46.15803" lon="4.11661"><ele>305.3</ele></trkpt>
      <trkpt lat="46.15806" lon="4.11679"><ele>306.0</ele></trkpt>
      <trkpt lat="46.15809" lon="4.11697"><ele>307.1</ele></trkpt>
      <trkpt lat="46.158125" lon="4.11728"><ele>308.8</ele></trkpt>
      <trkpt lat="46.15816" lon="4.11759"><ele>310.6</ele></trkpt>
      <trkpt lat="46.158165" lon="4.11778"><ele>311.4</ele></trkpt>
      <trkpt lat="46.15817" lon="4.11797"><ele>311.9</ele></trkpt>
      <trkpt lat="46.158135" lon="4.118248"><ele>311.5</ele></trkpt>
      <trkpt lat="46.1581" lon="4.118525"><ele>311.3</ele></trkpt>
      <trkpt lat="46.158065" lon="4.118803"><ele>311.2</ele></trkpt>
      <trkpt lat="46.15803" lon="4.11908"><ele>311.4</ele></trkpt>
      <trkpt lat="46.15804" lon="4.11938"><ele>311.0</ele></trkpt>
      <trkpt lat="46.15806" lon="4.119633"><ele>310.2</ele></trkpt>
      <trkpt lat="46.15808" lon="4.119885"><ele>310.6</ele></trkpt>
      <trkpt lat="46.1581" lon="4.120138"><ele>311.7</ele></trkpt>
      <trkpt lat="46.15812" lon="4.12039"><ele>313.3</ele></trkpt>
      <trkpt lat="46.1581" lon="4.12061"><ele>314.0</ele></trkpt>
      <trkpt lat="46.158035" lon="4.12082"><ele>313.9</ele></trkpt>
      <trkpt lat="46.15797" lon="4.12103"><ele>313.3</ele></trkpt>
      <trkpt lat="46.15797" lon="4.12111"><ele>313.3</ele></trkpt>
      <trkpt lat="46.15797" lon="4.12118"><ele>313.3</ele></trkpt>
      <trkpt lat="46.15802" lon="4.12148"><ele>313.6</ele></trkpt>
      <trkpt lat="46.15802" lon="4.12158"><ele>313.4</ele></trkpt>
      <trkpt lat="46.15798" lon="4.12172"><ele>312.5</ele></trkpt>
      <trkpt lat="46.157832" lon="4.12196"><ele>311.1</ele></trkpt>
      <trkpt lat="46.157684" lon="4.1222"><ele>310.7</ele></trkpt>
      <trkpt lat="46.157536" lon="4.12244"><ele>311.2</ele></trkpt>
      <trkpt lat="46.157388" lon="4.12268"><ele>312.4</ele></trkpt>
      <trkpt lat="46.15724" lon="4.12292"><ele>313.0</ele></trkpt>
      <trkpt lat="46.15715" lon="4.12308"><ele>313.0</ele></trkpt>
      <trkpt lat="46.15706" lon="4.12324"><ele>311.6</ele></trkpt>
      <trkpt lat="46.156855" lon="4.12333"><ele>308.7</ele></trkpt>
      <trkpt lat="46.15665" lon="4.12342"><ele>305.2</ele></trkpt>
      <trkpt lat="46.15656" lon="4.12343"><ele>303.7</ele></trkpt>
      <trkpt lat="46.156348" lon="4.123388"><ele>300.1</ele></trkpt>
      <trkpt lat="46.156137" lon="4.123347"><ele>296.3</ele></trkpt>
      <trkpt lat="46.155925" lon="4.123305"><ele>293.6</ele></trkpt>
      <trkpt lat="46.155713" lon="4.123263"><ele>289.9</ele></trkpt>
      <trkpt lat="46.155502" lon="4.123222"><ele>286.2</ele></trkpt>
      <trkpt lat="46.15529" lon="4.12318"><ele>283.4</ele></trkpt>
      <trkpt lat="46.15508" lon="4.12313"><ele>281.4</ele></trkpt>
      <trkpt lat="46.15487" lon="4.12308"><ele>279.9</ele></trkpt>
      <trkpt lat="46.154675" lon="4.12305"><ele>278.1</ele></trkpt>
      <trkpt lat="46.15448" lon="4.12302"><ele>277.2</ele></trkpt>
      <trkpt lat="46.15432" lon="4.12301"><ele>276.1</ele></trkpt>
      <trkpt lat="46.15423" lon="4.12302"><ele>275.6</ele></trkpt>
      <trkpt lat="46.15407" lon="4.1231"><ele>274.5</ele></trkpt>
      <trkpt lat="46.15391" lon="4.12318"><ele>273.6</ele></trkpt>
      <trkpt lat="46.15375" lon="4.12326"><ele>272.3</ele></trkpt>
      <trkpt lat="46.1537" lon="4.1231"><ele>271.6</ele></trkpt>
      <trkpt lat="46.15369" lon="4.12308"><ele>271.1</ele></trkpt>
      <trkpt lat="46.15369" lon="4.12305"><ele>271.1</ele></trkpt>
      <trkpt lat="46.15363" lon="4.1228"><ele>269.8</ele></trkpt>
      <trkpt lat="46.15362" lon="4.122635"><ele>269.3</ele></trkpt>
      <trkpt lat="46.15361" lon="4.12247"><ele>268.9</ele></trkpt>
      <trkpt lat="46.15358" lon="4.12233"><ele>268.5</ele></trkpt>
      <trkpt lat="46.15363" lon="4.12209"><ele>268.2</ele></trkpt>
      <trkpt lat="46.15363" lon="4.12203"><ele>268.2</ele></trkpt>
      <trkpt lat="46.15365" lon="4.121805"><ele>267.9</ele></trkpt>
      <trkpt lat="46.15367" lon="4.12158"><ele>267.7</ele></trkpt>
      <trkpt lat="46.15367" lon="4.12132"><ele>267.5</ele></trkpt>
      <trkpt lat="46.153665" lon="4.121135"><ele>267.4</ele></trkpt>
      <trkpt lat="46.15366" lon="4.12095"><ele>267.3</ele></trkpt>
      <trkpt lat="46.153642" lon="4.120668"><ele>267.0</ele></trkpt>
      <trkpt lat="46.153624" lon="4.120386"><ele>266.7</ele></trkpt>
      <trkpt lat="46.153606" lon="4.120104"><ele>266.5</ele></trkpt>
      <trkpt lat="46.153588" lon="4.119822"><ele>266.4</ele></trkpt>
      <trkpt lat="46.15357" lon="4.11954"><ele>266.4</ele></trkpt>
      <trkpt lat="46.15353" lon="4.11936"><ele>265.9</ele></trkpt>
      <trkpt lat="46.15346" lon="4.11917"><ele>265.2</ele></trkpt>
      <trkpt lat="46.15335" lon="4.118903"><ele>264.8</ele></trkpt>
      <trkpt lat="46.15324" lon="4.118637"><ele>264.2</ele></trkpt>
      <trkpt lat="46.15313" lon="4.11837"><ele>263.6</ele></trkpt>
      <trkpt lat="46.15304" lon="4.11819"><ele>263.2</ele></trkpt>
      <trkpt lat="46.15295" lon="4.11801"><ele>263.1</ele></trkpt>
      <trkpt lat="46.15287" lon="4.11789"><ele>263.0</ele></trkpt>
      <trkpt lat="46.15279" lon="4.11777"><ele>262.8</ele></trkpt>
      <trkpt lat="46.152665" lon="4.11761"><ele>262.7</ele></trkpt>
      <trkpt lat="46.15254" lon="4.11745"><ele>262.1</ele></trkpt>
      <trkpt lat="46.15251" lon="4.1177"><ele>262.1</ele></trkpt>
      <trkpt lat="46.15252" lon="4.11787"><ele>261.9</ele></trkpt>
      <trkpt lat="46.15253" lon="4.11804"><ele>262.0</ele></trkpt>
      <trkpt lat="46.152458" lon="4.118294"><ele>262.4</ele></trkpt>
      <trkpt lat="46.152386" lon="4.118548"><ele>262.7</ele></trkpt>
      <trkpt lat="46.152314" lon="4.118802"><ele>262.8</ele></trkpt>
      <trkpt lat="46.152242" lon="4.119056"><ele>263.0</ele></trkpt>
      <trkpt lat="46.15217" lon="4.11931"><ele>263.2</ele></trkpt>
      <trkpt lat="46.15224" lon="4.11935"><ele>263.3</ele></trkpt>
      <trkpt lat="46.152178" lon="4.119612"><ele>263.4</ele></trkpt>
      <trkpt lat="46.152115" lon="4.119875"><ele>263.3</ele></trkpt>
      <trkpt lat="46.152053" lon="4.120138"><ele>263.5</ele></trkpt>
      <trkpt lat="46.15199" lon="4.1204"><ele>263.6</ele></trkpt>
      <trkpt lat="46.15195" lon="4.12066"><ele>263.7</ele></trkpt>
      <trkpt lat="46.15191" lon="4.12092"><ele>263.8</ele></trkpt>
      <trkpt lat="46.15187" lon="4.12118"><ele>263.9</ele></trkpt>
      <trkpt lat="46.15183" lon="4.12144"><ele>263.9</ele></trkpt>
      <trkpt lat="46.151786" lon="4.121755"><ele>264.0</ele></trkpt>
      <trkpt lat="46.151742" lon="4.12207"><ele>264.1</ele></trkpt>
      <trkpt lat="46.151698" lon="4.122385"><ele>264.1</ele></trkpt>
      <trkpt lat="46.151654" lon="4.1227"><ele>264.2</ele></trkpt>
      <trkpt lat="46.15161" lon="4.123015"><ele>264.2</ele></trkpt>
      <trkpt lat="46.151566" lon="4.12333"><ele>264.2</ele></trkpt>
      <trkpt lat="46.151522" lon="4.123645"><ele>264.3</ele></trkpt>
      <trkpt lat="46.151478" lon="4.12396"><ele>264.3</ele></trkpt>
      <trkpt lat="46.151434" lon="4.124275"><ele>264.4</ele></trkpt>
      <trkpt lat="46.15139" lon="4.12459"><ele>264.6</ele></trkpt>
      <trkpt lat="46.15139" lon="4.12482"><ele>265.0</ele></trkpt>
      <trkpt lat="46.151575" lon="4.12464"><ele>265.4</ele></trkpt>
      <trkpt lat="46.15176" lon="4.12446"><ele>265.9</ele></trkpt>
      <trkpt lat="46.151933" lon="4.124257"><ele>266.4</ele></trkpt>
      <trkpt lat="46.152107" lon="4.124053"><ele>267.0</ele></trkpt>
      <trkpt lat="46.15228" lon="4.12385"><ele>267.5</ele></trkpt>
      <trkpt lat="46.15244" lon="4.12403"><ele>266.7</ele></trkpt>
      <trkpt lat="46.1526" lon="4.12421"><ele>266.6</ele></trkpt>
      <trkpt lat="46.15276" lon="4.12439"><ele>266.9</ele></trkpt>
      <trkpt lat="46.15292" lon="4.12457"><ele>269.3</ele></trkpt>
      <trkpt lat="46.15299" lon="4.124363"><ele>269.5</ele></trkpt>
      <trkpt lat="46.15306" lon="4.124157"><ele>269.8</ele></trkpt>
      <trkpt lat="46.15313" lon="4.12395"><ele>269.9</ele></trkpt>
      <trkpt lat="46.15322" lon="4.12378"><ele>270.3</ele></trkpt>
      <trkpt lat="46.1533" lon="4.1237"><ele>270.6</ele></trkpt>
      <trkpt lat="46.1534" lon="4.12355"><ele>270.8</ele></trkpt>
      <trkpt lat="46.15339" lon="4.12347"><ele>270.3</ele></trkpt>
      <trkpt lat="46.1535" lon="4.123325"><ele>270.9</ele></trkpt>
      <trkpt lat="46.15361" lon="4.12318"><ele>271.5</ele></trkpt>
      <trkpt lat="46.1537" lon="4.1231"><ele>271.6</ele></trkpt>
      <trkpt lat="46.15369" lon="4.12305"><ele>271.1</ele></trkpt>
      <trkpt lat="46.15366" lon="4.12295"><ele>270.5</ele></trkpt>
      <trkpt lat="46.15363" lon="4.1228"><ele>269.8</ele></trkpt>
      <trkpt lat="46.15362" lon="4.122635"><ele>269.3</ele></trkpt>
      <trkpt lat="46.15361" lon="4.12247"><ele>268.9</ele></trkpt>
      <trkpt lat="46.15358" lon="4.12233"><ele>268.5</ele></trkpt>
      <trkpt lat="46.15363" lon="4.12209"><ele>268.2</ele></trkpt>
      <trkpt lat="46.15365" lon="4.121835"><ele>267.9</ele></trkpt>
      <trkpt lat="46.15367" lon="4.12158"><ele>267.7</ele></trkpt>
      <trkpt lat="46.153665" lon="4.121265"><ele>267.5</ele></trkpt>
      <trkpt lat="46.15366" lon="4.12095"><ele>267.3</ele></trkpt>
      <trkpt lat="46.15364" lon="4.12064"><ele>266.9</ele></trkpt>
    </trkseg>
  </trk>
</gpx>
