<?xml version="1.0" encoding="UTF-8"?>
<gpx version="1.1" creator="Marche APEL Saint-Nizier-sous-Charlieu" xmlns="http://www.topografix.com/GPX/1/1" xmlns:xsi="http://www.w3.org/2001/XMLSchema-instance" xsi:schemaLocation="http://www.topografix.com/GPX/1/1 http://www.topografix.com/GPX/1/1/gpx.xsd">
  <metadata><name>Marche APEL 14 km</name></metadata>
  <trk>
    <name>Marche APEL 14 km</name>
    <type>hiking</type>
    <trkseg>
      <trkpt lat="46.15364" lon="4.12076"><ele>267.0</ele></trkpt>
      <trkpt lat="46.15363" lon="4.12061"><ele>266.9</ele></trkpt>
      <trkpt lat="46.15356" lon="4.12061"><ele>266.4</ele></trkpt>
      <trkpt lat="46.15352" lon="4.12059"><ele>266.1</ele></trkpt>
      <trkpt lat="46.1535" lon="4.12054"><ele>266.0</ele></trkpt>
      <trkpt lat="46.153475" lon="4.12028"><ele>265.4</ele></trkpt>
      <trkpt lat="46.15345" lon="4.12002"><ele>265.0</ele></trkpt>
      <trkpt lat="46.15343" lon="4.11988"><ele>264.8</ele></trkpt>
      <trkpt lat="46.1534" lon="4.11983"><ele>264.8</ele></trkpt>
      <trkpt lat="46.15328" lon="4.11974"><ele>264.4</ele></trkpt>
      <trkpt lat="46.15323" lon="4.11974"><ele>264.3</ele></trkpt>
      <trkpt lat="46.153067" lon="4.11968"><ele>264.1</ele></trkpt>
      <trkpt lat="46.152903" lon="4.11962"><ele>263.9</ele></trkpt>
      <trkpt lat="46.15274" lon="4.11956"><ele>263.9</ele></trkpt>
      <trkpt lat="46.15269" lon="4.11953"><ele>263.9</ele></trkpt>
      <trkpt lat="46.15266" lon="4.11948"><ele>263.9</ele></trkpt>
      <trkpt lat="46.15253" lon="4.11949"><ele>263.7</ele></trkpt>
      <trkpt lat="46.152385" lon="4.11942"><ele>263.5</ele></trkpt>
      <trkpt lat="46.15224" lon="4.11935"><ele>263.3</ele></trkpt>
      <trkpt lat="46.152178" lon="4.119612"><ele>263.4</ele></trkpt>
      <trkpt lat="46.152115" lon="4.119875"><ele>263.3</ele></trkpt>
      <trkpt lat="46.152053" lon="4.120138"><ele>263.5</ele></trkpt>
      <trkpt lat="46.15199" lon="4.1204"><ele>263.6</ele></trkpt>
      <trkpt lat="46.15195" lon="4.12066"><ele>263.7</ele></trkpt>
      <trkpt lat="46.15191" lon="4.12092"><ele>263.8</ele></trkpt>
      <trkpt lat="46.15187" lon="4.12118"><ele>263.9</ele></trkpt>
      <trkpt lat="46.15183" lon="4.12144"><ele>263.9</ele></trkpt>
      <trkpt lat="46.151789" lon="4.121734"><ele>264.0</ele></trkpt>
      <trkpt lat="46.151748" lon="4.122027"><ele>264.1</ele></trkpt>
      <trkpt lat="46.151707" lon="4.122321"><ele>264.1</ele></trkpt>
      <trkpt lat="46.151666" lon="4.122615"><ele>264.2</ele></trkpt>
      <trkpt lat="46.151625" lon="4.122908"><ele>264.2</ele></trkpt>
      <trkpt lat="46.151585" lon="4.123202"><ele>264.2</ele></trkpt>
      <trkpt lat="46.151544" lon="4.123495"><ele>264.2</ele></trkpt>
      <trkpt lat="46.151503" lon="4.123789"><ele>264.2</ele></trkpt>
      <trkpt lat="46.151462" lon="4.124083"><ele>264.2</ele></trkpt>
      <trkpt lat="46.151421" lon="4.124376"><ele>264.4</ele></trkpt>
      <trkpt lat="46.15138" lon="4.12467"><ele>264.6</ele></trkpt>
      <trkpt lat="46.15139" lon="4.12482"><ele>265.0</ele></trkpt>
      <trkpt lat="46.15144" lon="4.12498"><ele>265.1</ele></trkpt>
      <trkpt lat="46.15133" lon="4.1252"><ele>264.8</ele></trkpt>
      <trkpt lat="46.15129" lon="4.12532"><ele>264.7</ele></trkpt>
      <trkpt lat="46.151246" lon="4.125634"><ele>264.7</ele></trkpt>
      <trkpt lat="46.151203" lon="4.125948"><ele>264.8</ele></trkpt>
      <trkpt lat="46.151159" lon="4.126261"><ele>264.8</ele></trkpt>
      <trkpt lat="46.151115" lon="4.126575"><ele>264.9</ele></trkpt>
      <trkpt lat="46.151071" lon="4.126889"><ele>265.1</ele></trkpt>
      <trkpt lat="46.151028" lon="4.127203"><ele>265.1</ele></trkpt>
      <trkpt lat="46.150984" lon="4.127516"><ele>265.2</ele></trkpt>
      <trkpt lat="46.15094" lon="4.12783"><ele>265.2</ele></trkpt>
      <trkpt lat="46.150896" lon="4.128144"><ele>265.2</ele></trkpt>
      <trkpt lat="46.150853" lon="4.128458"><ele>265.4</ele></trkpt>
      <trkpt lat="46.150809" lon="4.128771"><ele>265.5</ele></trkpt>
      <trkpt lat="46.150765" lon="4.129085"><ele>265.6</ele></trkpt>
      <trkpt lat="46.150721" lon="4.129399"><ele>265.7</ele></trkpt>
      <trkpt lat="46.150678" lon="4.129713"><ele>265.9</ele></trkpt>
      <trkpt lat="46.150634" lon="4.130026"><ele>266.0</ele></trkpt>
      <trkpt lat="46.15059" lon="4.13034"><ele>264.2</ele></trkpt>
      <trkpt lat="46.150558" lon="4.13059"><ele>266.1</ele></trkpt>
      <trkpt lat="46.150525" lon="4.13084"><ele>266.6</ele></trkpt>
      <trkpt lat="46.150493" lon="4.13109"><ele>266.9</ele></trkpt>
      <trkpt lat="46.15046" lon="4.13134"><ele>267.1</ele></trkpt>
      <trkpt lat="46.15044" lon="4.13159"><ele>267.3</ele></trkpt>
      <trkpt lat="46.15042" lon="4.13184"><ele>267.5</ele></trkpt>
      <trkpt lat="46.150415" lon="4.13215"><ele>267.9</ele></trkpt>
      <trkpt lat="46.15041" lon="4.13246"><ele>268.0</ele></trkpt>
      <trkpt lat="46.15042" lon="4.13269"><ele>268.2</ele></trkpt>
      <trkpt lat="46.15043" lon="4.13292"><ele>268.4</ele></trkpt>
      <trkpt lat="46.150457" lon="4.13319"><ele>268.5</ele></trkpt>
      <trkpt lat="46.150483" lon="4.13346"><ele>268.7</ele></trkpt>
      <trkpt lat="46.15051" lon="4.13373"><ele>268.7</ele></trkpt>
      <trkpt lat="46.15057" lon="4.134031"><ele>269.3</ele></trkpt>
      <trkpt lat="46.150631" lon="4.134333"><ele>269.2</ele></trkpt>
      <trkpt lat="46.150691" lon="4.134634"><ele>269.7</ele></trkpt>
      <trkpt lat="46.150752" lon="4.134935"><ele>269.8</ele></trkpt>
      <trkpt lat="46.150812" lon="4.135236"><ele>269.8</ele></trkpt>
      <trkpt lat="46.150873" lon="4.135538"><ele>270.1</ele></trkpt>
      <trkpt lat="46.150933" lon="4.135839"><ele>270.1</ele></trkpt>
      <trkpt lat="46.150993" lon="4.13614"><ele>270.7</ele></trkpt>
      <trkpt lat="46.151054" lon="4.136441"><ele>270.7</ele></trkpt>
      <trkpt lat="46.151114" lon="4.136742"><ele>270.6</ele></trkpt>
      <trkpt lat="46.151175" lon="4.137044"><ele>271.3</ele></trkpt>
      <trkpt lat="46.151235" lon="4.137345"><ele>271.3</ele></trkpt>
      <trkpt lat="46.151295" lon="4.137646"><ele>272.3</ele></trkpt>
      <trkpt lat="46.151356" lon="4.137948"><ele>272.0</ele></trkpt>
      <trkpt lat="46.151416" lon="4.138249"><ele>271.8</ele></trkpt>
      <trkpt lat="46.151477" lon="4.13855"><ele>272.4</ele></trkpt>
      <trkpt lat="46.151537" lon="4.138851"><ele>272.6</ele></trkpt>
      <trkpt lat="46.151598" lon="4.139153"><ele>273.2</ele></trkpt>
      <trkpt lat="46.151658" lon="4.139454"><ele>273.4</ele></trkpt>
      <trkpt lat="46.151718" lon="4.139755"><ele>273.3</ele></trkpt>
      <trkpt lat="46.151779" lon="4.140056"><ele>274.1</ele></trkpt>
      <trkpt lat="46.151839" lon="4.140357"><ele>274.0</ele></trkpt>
      <trkpt lat="46.1519" lon="4.140659"><ele>272.0</ele></trkpt>
      <trkpt lat="46.15196" lon="4.14096"><ele>274.5</ele></trkpt>
      <trkpt lat="46.152025" lon="4.14122"><ele>274.8</ele></trkpt>
      <trkpt lat="46.15209" lon="4.14148"><ele>274.8</ele></trkpt>
      <trkpt lat="46.152173" lon="4.141767"><ele>274.8</ele></trkpt>
      <trkpt lat="46.152257" lon="4.142053"><ele>274.8</ele></trkpt>
      <trkpt lat="46.15234" lon="4.14234"><ele>274.8</ele></trkpt>
      <trkpt lat="46.152428" lon="4.142613"><ele>274.7</ele></trkpt>
      <trkpt lat="46.152515" lon="4.142885"><ele>274.7</ele></trkpt>
      <trkpt lat="46.152603" lon="4.143158"><ele>274.5</ele></trkpt>
      <trkpt lat="46.15269" lon="4.14343"><ele>274.4</ele></trkpt>
      <trkpt lat="46.152778" lon="4.143703"><ele>274.3</ele></trkpt>
      <trkpt lat="46.152865" lon="4.143975"><ele>274.3</ele></trkpt>
      <trkpt lat="46.152953" lon="4.144247"><ele>274.3</ele></trkpt>
      <trkpt lat="46.15304" lon="4.14452"><ele>274.2</ele></trkpt>
      <trkpt lat="46.153108" lon="4.14475"><ele>274.4</ele></trkpt>
      <trkpt lat="46.153175" lon="4.14498"><ele>273.7</ele></trkpt>
      <trkpt lat="46.153243" lon="4.14521"><ele>274.2</ele></trkpt>
      <trkpt lat="46.15331" lon="4.14544"><ele>274.5</ele></trkpt>
      <trkpt lat="46.153408" lon="4.145718"><ele>274.5</ele></trkpt>
      <trkpt lat="46.153505" lon="4.145995"><ele>274.3</ele></trkpt>
      <trkpt lat="46.153603" lon="4.146273"><ele>274.2</ele></trkpt>
      <trkpt lat="46.1537" lon="4.14655"><ele>274.6</ele></trkpt>
      <trkpt lat="46.153783" lon="4.146808"><ele>274.5</ele></trkpt>
      <trkpt lat="46.153865" lon="4.147065"><ele>274.5</ele></trkpt>
      <trkpt lat="46.153948" lon="4.147322"><ele>274.5</ele></trkpt>
      <trkpt lat="46.15403" lon="4.14758"><ele>274.5</ele></trkpt>
      <trkpt lat="46.154087" lon="4.147783"><ele>274.6</ele></trkpt>
      <trkpt lat="46.154143" lon="4.147987"><ele>274.4</ele></trkpt>
      <trkpt lat="46.1542" lon="4.14819"><ele>274.4</ele></trkpt>
      <trkpt lat="46.154255" lon="4.148425"><ele>274.6</ele></trkpt>
      <trkpt lat="46.15431" lon="4.14866"><ele>274.5</ele></trkpt>
      <trkpt lat="46.154366" lon="4.148941"><ele>274.4</ele></trkpt>
      <trkpt lat="46.154422" lon="4.149222"><ele>274.6</ele></trkpt>
      <trkpt lat="46.154478" lon="4.149503"><ele>274.3</ele></trkpt>
      <trkpt lat="46.154534" lon="4.149784"><ele>274.4</ele></trkpt>
      <trkpt lat="46.15459" lon="4.150065"><ele>274.4</ele></trkpt>
      <trkpt lat="46.154646" lon="4.150346"><ele>274.2</ele></trkpt>
      <trkpt lat="46.154702" lon="4.150627"><ele>274.2</ele></trkpt>
      <trkpt lat="46.154758" lon="4.150908"><ele>274.1</ele></trkpt>
      <trkpt lat="46.154814" lon="4.151189"><ele>274.0</ele></trkpt>
      <trkpt lat="46.15487" lon="4.15147"><ele>273.8</ele></trkpt>
      <trkpt lat="46.15481" lon="4.15159"><ele>273.9</ele></trkpt>
      <trkpt lat="46.15492" lon="4.15167"><ele>273.7</ele></trkpt>
      <trkpt lat="46.15503" lon="4.15179"><ele>274.2</ele></trkpt>
      <trkpt lat="46.15513" lon="4.15195"><ele>274.1</ele></trkpt>
      <trkpt lat="46.1552" lon="4.15209"><ele>274.1</ele></trkpt>
      <trkpt lat="46.15522" lon="4.15225"><ele>274.0</ele></trkpt>
      <trkpt lat="46.15536" lon="4.15223"><ele>276.4</ele></trkpt>
      <trkpt lat="46.1555" lon="4.15221"><ele>279.2</ele></trkpt>
      <trkpt lat="46.15569" lon="4.152145"><ele>283.1</ele></trkpt>
      <trkpt lat="46.15588" lon="4.15208"><ele>286.8</ele></trkpt>
      <trkpt lat="46.156077" lon="4.151953"><ele>292.4</ele></trkpt>
      <trkpt lat="46.156273" lon="4.151827"><ele>297.5</ele></trkpt>
      <trkpt lat="46.15647" lon="4.1517"><ele>301.2</ele></trkpt>
      <trkpt lat="46.15648" lon="4.15164"><ele>301.7</ele></trkpt>
      <trkpt lat="46.15644" lon="4.15149"><ele>304.0</ele></trkpt>
      <trkpt lat="46.15642" lon="4.15125"><ele>306.0</ele></trkpt>
      <trkpt lat="46.15644" lon="4.15096"><ele>309.8</ele></trkpt>
      <trkpt lat="46.1565" lon="4.15081"><ele>310.7</ele></trkpt>
      <trkpt lat="46.15648" lon="4.15076"><ele>310.1</ele></trkpt>
      <trkpt lat="46.15648" lon="4.15063"><ele>308.6</ele></trkpt>
      <trkpt lat="46.15658" lon="4.150373"><ele>309.6</ele></trkpt>
      <trkpt lat="46.15668" lon="4.150117"><ele>309.2</ele></trkpt>
      <trkpt lat="46.15678" lon="4.14986"><ele>309.0</ele></trkpt>
      <trkpt lat="46.15689" lon="4.14966"><ele>309.8</ele></trkpt>
      <trkpt lat="46.156975" lon="4.149535"><ele>310.1</ele></trkpt>
      <trkpt lat="46.15706" lon="4.14941"><ele>309.7</ele></trkpt>
      <trkpt lat="46.15717" lon="4.14927"><ele>309.0</ele></trkpt>
      <trkpt lat="46.15728" lon="4.14913"><ele>308.3</ele></trkpt>
      <trkpt lat="46.157375" lon="4.14903"><ele>308.1</ele></trkpt>
      <trkpt lat="46.15747" lon="4.14893"><ele>308.5</ele></trkpt>
      <trkpt lat="46.15757" lon="4.14878"><ele>308.1</ele></trkpt>
      <trkpt lat="46.15767" lon="4.14863"><ele>308.5</ele></trkpt>
      <trkpt lat="46.157765" lon="4.148422"><ele>308.8</ele></trkpt>
      <trkpt lat="46.15786" lon="4.148215"><ele>308.0</ele></trkpt>
      <trkpt lat="46.157955" lon="4.148008"><ele>307.6</ele></trkpt>
      <trkpt lat="46.15805" lon="4.1478"><ele>308.1</ele></trkpt>
      <trkpt lat="46.15818" lon="4.14755"><ele>309.9</ele></trkpt>
      <trkpt lat="46.15826" lon="4.14743"><ele>311.4</ele></trkpt>
      <trkpt lat="46.158375" lon="4.14729"><ele>312.0</ele></trkpt>
      <trkpt lat="46.15849" lon="4.14715"><ele>311.9</ele></trkpt>
      <trkpt lat="46.158677" lon="4.14701"><ele>313.3</ele></trkpt>
      <trkpt lat="46.158865" lon="4.14687"><ele>312.7</ele></trkpt>
      <trkpt lat="46.159053" lon="4.14673"><ele>311.4</ele></trkpt>
      <trkpt lat="46.15924" lon="4.14659"><ele>312.2</ele></trkpt>
      <trkpt lat="46.15935" lon="4.14653"><ele>312.4</ele></trkpt>
      <trkpt lat="46.15957" lon="4.14649"><ele>314.1</ele></trkpt>
      <trkpt lat="46.159685" lon="4.14645"><ele>314.9</ele></trkpt>
      <trkpt lat="46.1598" lon="4.14641"><ele>317.0</ele></trkpt>
      <trkpt lat="46.15997" lon="4.14639"><ele>320.4</ele></trkpt>
      <trkpt lat="46.16006" lon="4.14632"><ele>322.1</ele></trkpt>
      <trkpt lat="46.16016" lon="4.14621"><ele>324.0</ele></trkpt>
      <trkpt lat="46.16022" lon="4.14617"><ele>325.6</ele></trkpt>
      <trkpt lat="46.16026" lon="4.14617"><ele>326.4</ele></trkpt>
      <trkpt lat="46.16031" lon="4.14629"><ele>327.8</ele></trkpt>
      <trkpt lat="46.16032" lon="4.14647"><ele>329.6</ele></trkpt>
      <trkpt lat="46.160365" lon="4.14674"><ele>334.3</ele></trkpt>
      <trkpt lat="46.16041" lon="4.14701"><ele>337.0</ele></trkpt>
      <trkpt lat="46.16048" lon="4.14725"><ele>339.2</ele></trkpt>
      <trkpt lat="46.160537" lon="4.147517"><ele>340.9</ele></trkpt>
      <trkpt lat="46.160593" lon="4.147783"><ele>342.6</ele></trkpt>
      <trkpt lat="46.16065" lon="4.14805"><ele>345.3</ele></trkpt>
      <trkpt lat="46.160763" lon="4.14782"><ele>344.6</ele></trkpt>
      <trkpt lat="46.160877" lon="4.14759"><ele>345.2</ele></trkpt>
      <trkpt lat="46.16099" lon="4.14736"><ele>346.3</ele></trkpt>
      <trkpt lat="46.161103" lon="4.147153"><ele>347.2</ele></trkpt>
      <trkpt lat="46.161215" lon="4.146945"><ele>348.2</ele></trkpt>
      <trkpt lat="46.161328" lon="4.146738"><ele>348.9</ele></trkpt>
      <trkpt lat="46.16144" lon="4.14653"><ele>349.5</ele></trkpt>
      <trkpt lat="46.161545" lon="4.14641"><ele>349.9</ele></trkpt>
      <trkpt lat="46.16165" lon="4.14629"><ele>350.5</ele></trkpt>
      <trkpt lat="46.161753" lon="4.146463"><ele>351.5</ele></trkpt>
      <trkpt lat="46.161857" lon="4.146637"><ele>352.3</ele></trkpt>
      <trkpt lat="46.16196" lon="4.14681"><ele>352.8</ele></trkpt>
      <trkpt lat="46.16204" lon="4.14662"><ele>352.9</ele></trkpt>
      <trkpt lat="46.162167" lon="4.14637"><ele>353.3</ele></trkpt>
      <trkpt lat="46.162293" lon="4.14612"><ele>353.6</ele></trkpt>
      <trkpt lat="46.16242" lon="4.14587"><ele>353.8</ele></trkpt>
      <trkpt lat="46.16256" lon="4.145647"><ele>354.2</ele></trkpt>
      <trkpt lat="46.1627" lon="4.145423"><ele>354.7</ele></trkpt>
      <trkpt lat="46.16284" lon="4.1452"><ele>355.1</ele></trkpt>
      <trkpt lat="46.16295" lon="4.14496"><ele>354.4</ele></trkpt>
      <trkpt lat="46.16306" lon="4.14472"><ele>353.3</ele></trkpt>
      <trkpt lat="46.16317" lon="4.14448"><ele>351.8</ele></trkpt>
      <trkpt lat="46.16329" lon="4.144267"><ele>349.7</ele></trkpt>
      <trkpt lat="46.16341" lon="4.144053"><ele>347.7</ele></trkpt>
      <trkpt lat="46.16353" lon="4.14384"><ele>346.5</ele></trkpt>
      <trkpt lat="46.16361" lon="4.14363"><ele>345.5</ele></trkpt>
      <trkpt lat="46.16367" lon="4.143357"><ele>344.0</ele></trkpt>
      <trkpt lat="46.16373" lon="4.143083"><ele>342.3</ele></trkpt>
      <trkpt lat="46.16379" lon="4.14281"><ele>341.5</ele></trkpt>
      <trkpt lat="46.163815" lon="4.142575"><ele>338.5</ele></trkpt>
      <trkpt lat="46.16384" lon="4.14234"><ele>336.7</ele></trkpt>
      <trkpt lat="46.16391" lon="4.1421"><ele>334.7</ele></trkpt>
      <trkpt lat="46.16401" lon="4.14183"><ele>332.8</ele></trkpt>
      <trkpt lat="46.16411" lon="4.14156"><ele>330.7</ele></trkpt>
      <trkpt lat="46.16412" lon="4.141315"><ele>327.7</ele></trkpt>
      <trkpt lat="46.16413" lon="4.14107"><ele>325.4</ele></trkpt>
      <trkpt lat="46.164105" lon="4.140905"><ele>323.3</ele></trkpt>
      <trkpt lat="46.16408" lon="4.14074"><ele>321.5</ele></trkpt>
      <trkpt lat="46.16402" lon="4.140525"><ele>318.8</ele></trkpt>
      <trkpt lat="46.16396" lon="4.14031"><ele>316.5</ele></trkpt>
      <trkpt lat="46.16388" lon="4.14015"><ele>315.6</ele></trkpt>
      <trkpt lat="46.163795" lon="4.14003"><ele>315.3</ele></trkpt>
      <trkpt lat="46.16371" lon="4.13991"><ele>315.7</ele></trkpt>
      <trkpt lat="46.16364" lon="4.13966"><ele>318.3</ele></trkpt>
      <trkpt lat="46.16364" lon="4.13955"><ele>319.8</ele></trkpt>
      <trkpt lat="46.16366" lon="4.139323"><ele>321.9</ele></trkpt>
      <trkpt lat="46.16368" lon="4.139097"><ele>324.8</ele></trkpt>
      <trkpt lat="46.1637" lon="4.13887"><ele>326.6</ele></trkpt>
      <trkpt lat="46.163725" lon="4.138695"><ele>328.4</ele></trkpt>
      <trkpt lat="46.16375" lon="4.13852"><ele>329.6</ele></trkpt>
      <trkpt lat="46.16382" lon="4.1383"><ele>331.6</ele></trkpt>
      <trkpt lat="46.16392" lon="4.138045"><ele>333.8</ele></trkpt>
      <trkpt lat="46.16402" lon="4.13779"><ele>336.6</ele></trkpt>
      <trkpt lat="46.1641" lon="4.137525"><ele>339.3</ele></trkpt>
      <trkpt lat="46.16418" lon="4.13726"><ele>341.5</ele></trkpt>
      <trkpt lat="46.164277" lon="4.136977"><ele>344.4</ele></trkpt>
      <trkpt lat="46.164373" lon="4.136693"><ele>347.3</ele></trkpt>
      <trkpt lat="46.16447" lon="4.13641"><ele>349.1</ele></trkpt>
      <trkpt lat="46.16449" lon="4.13627"><ele>350.2</ele></trkpt>
      <trkpt lat="46.164623" lon="4.136373"><ele>348.9</ele></trkpt>
      <trkpt lat="46.164757" lon="4.136477"><ele>347.3</ele></trkpt>
      <trkpt lat="46.16489" lon="4.13658"><ele>345.6</ele></trkpt>
      <trkpt lat="46.16505" lon="4.13663"><ele>344.7</ele></trkpt>
      <trkpt lat="46.16523" lon="4.13664"><ele>343.8</ele></trkpt>
      <trkpt lat="46.165395" lon="4.136625"><ele>342.4</ele></trkpt>
      <trkpt lat="46.16556" lon="4.13661"><ele>341.2</ele></trkpt>
      <trkpt lat="46.165753" lon="4.136575"><ele>339.2</ele></trkpt>
      <trkpt lat="46.165945" lon="4.13654"><ele>337.4</ele></trkpt>
      <trkpt lat="46.166138" lon="4.136505"><ele>336.4</ele></trkpt>
      <trkpt lat="46.16633" lon="4.13647"><ele>334.9</ele></trkpt>
      <trkpt lat="46.16644" lon="4.13642"><ele>334.2</ele></trkpt>
      <trkpt lat="46.16654" lon="4.13634"><ele>334.6</ele></trkpt>
      <trkpt lat="46.16671" lon="4.13613"><ele>335.0</ele></trkpt>
      <trkpt lat="46.16688" lon="4.13592"><ele>334.0</ele></trkpt>
      <trkpt lat="46.16695" lon="4.13588"><ele>333.5</ele></trkpt>
      <trkpt lat="46.167" lon="4.13587"><ele>331.7</ele></trkpt>
      <trkpt lat="46.16708" lon="4.13592"><ele>330.7</ele></trkpt>
      <trkpt lat="46.16713" lon="4.13598"><ele>329.1</ele></trkpt>
      <trkpt lat="46.16716" lon="4.13609"><ele>328.7</ele></trkpt>
      <trkpt lat="46.16715" lon="4.13626"><ele>327.8</ele></trkpt>
      <trkpt lat="46.16713" lon="4.13638"><ele>327.2</ele></trkpt>
      <trkpt lat="46.16707" lon="4.13652"><ele>327.2</ele></trkpt>
      <trkpt lat="46.16702" lon="4.136685"><ele>326.7</ele></trkpt>
      <trkpt lat="46.16697" lon="4.13685"><ele>326.3</ele></trkpt>
      <trkpt lat="46.16697" lon="4.13706"><ele>325.8</ele></trkpt>
      <trkpt lat="46.16698" lon="4.1371"><ele>325.8</ele></trkpt>
      <trkpt lat="46.16705" lon="4.1372"><ele>326.1</ele></trkpt>
      <trkpt lat="46.16717" lon="4.13731"><ele>326.5</ele></trkpt>
      <trkpt lat="46.16725" lon="4.13747"><ele>327.8</ele></trkpt>
      <trkpt lat="46.16733" lon="4.13763"><ele>329.1</ele></trkpt>
      <trkpt lat="46.16743" lon="4.13789"><ele>332.0</ele></trkpt>
      <trkpt lat="46.167505" lon="4.138145"><ele>334.4</ele></trkpt>
      <trkpt lat="46.16758" lon="4.1384"><ele>337.3</ele></trkpt>
      <trkpt lat="46.1676" lon="4.138675"><ele>339.9</ele></trkpt>
      <trkpt lat="46.16762" lon="4.13895"><ele>342.6</ele></trkpt>
      <trkpt lat="46.1677" lon="4.13924"><ele>346.4</ele></trkpt>
      <trkpt lat="46.167797" lon="4.139443"><ele>349.3</ele></trkpt>
      <trkpt lat="46.167893" lon="4.139647"><ele>351.7</ele></trkpt>
      <trkpt lat="46.16799" lon="4.13985"><ele>354.2</ele></trkpt>
      <trkpt lat="46.16807" lon="4.13999"><ele>355.9</ele></trkpt>
      <trkpt lat="46.16815" lon="4.14013"><ele>358.1</ele></trkpt>
      <trkpt lat="46.168295" lon="4.14027"><ele>359.8</ele></trkpt>
      <trkpt lat="46.16844" lon="4.14041"><ele>361.8</ele></trkpt>
      <trkpt lat="46.168535" lon="4.14053"><ele>363.2</ele></trkpt>
      <trkpt lat="46.16863" lon="4.14065"><ele>364.7</ele></trkpt>
      <trkpt lat="46.168755" lon="4.140775"><ele>365.7</ele></trkpt>
      <trkpt lat="46.16888" lon="4.1409"><ele>366.8</ele></trkpt>
      <trkpt lat="46.168985" lon="4.14096"><ele>367.7</ele></trkpt>
      <trkpt lat="46.16909" lon="4.14102"><ele>368.4</ele></trkpt>
      <trkpt lat="46.169263" lon="4.141098"><ele>369.5</ele></trkpt>
      <trkpt lat="46.169435" lon="4.141175"><ele>370.8</ele></trkpt>
      <trkpt lat="46.169608" lon="4.141253"><ele>372.6</ele></trkpt>
      <trkpt lat="46.16978" lon="4.14133"><ele>373.9</ele></trkpt>
      <trkpt lat="46.16999" lon="4.1414"><ele>375.5</ele></trkpt>
      <trkpt lat="46.17001" lon="4.14138"><ele>375.7</ele></trkpt>
      <trkpt lat="46.17007" lon="4.14146"><ele>375.7</ele></trkpt>
      <trkpt lat="46.170263" lon="4.141533"><ele>376.3</ele></trkpt>
      <trkpt lat="46.170457" lon="4.141607"><ele>376.5</ele></trkpt>
      <trkpt lat="46.17065" lon="4.14168"><ele>377.4</ele></trkpt>
      <trkpt lat="46.17068" lon="4.14174"><ele>377.3</ele></trkpt>
      <trkpt lat="46.17069" lon="4.14191"><ele>376.5</ele></trkpt>
      <trkpt lat="46.170663" lon="4.142153"><ele>375.2</ele></trkpt>
      <trkpt lat="46.170637" lon="4.142397"><ele>374.2</ele></trkpt>
      <trkpt lat="46.17061" lon="4.14264"><ele>373.4</ele></trkpt>
      <trkpt lat="46.170597" lon="4.14289"><ele>372.8</ele></trkpt>
      <trkpt lat="46.170583" lon="4.14314"><ele>371.7</ele></trkpt>
      <trkpt lat="46.17057" lon="4.14339"><ele>370.7</ele></trkpt>
      <trkpt lat="46.17062" lon="4.14364"><ele>369.7</ele></trkpt>
      <trkpt lat="46.17068" lon="4.143857"><ele>369.3</ele></trkpt>
      <trkpt lat="46.17074" lon="4.144073"><ele>368.6</ele></trkpt>
      <trkpt lat="46.1708" lon="4.14429"><ele>367.9</ele></trkpt>
      <trkpt lat="46.170867" lon="4.144507"><ele>367.3</ele></trkpt>
      <trkpt lat="46.170933" lon="4.144723"><ele>366.8</ele></trkpt>
      <trkpt lat="46.171" lon="4.14494"><ele>366.4</ele></trkpt>
      <trkpt lat="46.17106" lon="4.14517"><ele>365.7</ele></trkpt>
      <trkpt lat="46.17112" lon="4.1454"><ele>365.2</ele></trkpt>
      <trkpt lat="46.17117" lon="4.14564"><ele>364.4</ele></trkpt>
      <trkpt lat="46.17122" lon="4.14588"><ele>363.7</ele></trkpt>
      <trkpt lat="46.1713" lon="4.14598"><ele>363.6</ele></trkpt>
      <trkpt lat="46.17136" lon="4.14614"><ele>363.5</ele></trkpt>
      <trkpt lat="46.17144" lon="4.14638"><ele>363.6</ele></trkpt>
      <trkpt lat="46.17151" lon="4.14668"><ele>363.6</ele></trkpt>
      <trkpt lat="46.17158" lon="4.14698"><ele>363.9</ele></trkpt>
      <trkpt lat="46.17164" lon="4.1471"><ele>364.0</ele></trkpt>
      <trkpt lat="46.17179" lon="4.147067"><ele>364.4</ele></trkpt>
      <trkpt lat="46.17194" lon="4.147033"><ele>364.9</ele></trkpt>
      <trkpt lat="46.17209" lon="4.147"><ele>365.3</ele></trkpt>
      <trkpt lat="46.17223" lon="4.14689"><ele>365.7</ele></trkpt>
      <trkpt lat="46.172365" lon="4.14673"><ele>366.0</ele></trkpt>
      <trkpt lat="46.1725" lon="4.14657"><ele>366.0</ele></trkpt>
      <trkpt lat="46.17264" lon="4.14632"><ele>366.3</ele></trkpt>
      <trkpt lat="46.17278" lon="4.14611"><ele>366.6</ele></trkpt>
      <trkpt lat="46.17297" lon="4.145953"><ele>366.8</ele></trkpt>
      <trkpt lat="46.17316" lon="4.145795"><ele>366.6</ele></trkpt>
      <trkpt lat="46.17335" lon="4.145638"><ele>367.0</ele></trkpt>
      <trkpt lat="46.17354" lon="4.14548"><ele>367.1</ele></trkpt>
      <trkpt lat="46.173665" lon="4.14528"><ele>367.2</ele></trkpt>
      <trkpt lat="46.17379" lon="4.14508"><ele>367.7</ele></trkpt>
      <trkpt lat="46.17384" lon="4.14501"><ele>368.0</ele></trkpt>
      <trkpt lat="46.17389" lon="4.14497"><ele>368.0</ele></trkpt>
      <trkpt lat="46.17411" lon="4.14491"><ele>367.8</ele></trkpt>
      <trkpt lat="46.17422" lon="4.1449"><ele>368.0</ele></trkpt>
      <trkpt lat="46.174407" lon="4.144813"><ele>368.8</ele></trkpt>
      <trkpt lat="46.174593" lon="4.144727"><ele>369.6</ele></trkpt>
      <trkpt lat="46.17478" lon="4.14464"><ele>370.7</ele></trkpt>
      <trkpt lat="46.17493" lon="4.14459"><ele>371.5</ele></trkpt>
      <trkpt lat="46.17508" lon="4.14457"><ele>371.9</ele></trkpt>
      <trkpt lat="46.17529" lon="4.14459"><ele>373.2</ele></trkpt>
      <trkpt lat="46.17543" lon="4.14464"><ele>372.8</ele></trkpt>
      <trkpt lat="46.175625" lon="4.14476"><ele>372.8</ele></trkpt>
      <trkpt lat="46.17582" lon="4.14488"><ele>373.1</ele></trkpt>
      <trkpt lat="46.1759" lon="4.14467"><ele>374.4</ele></trkpt>
      <trkpt lat="46.17593" lon="4.14454"><ele>375.6</ele></trkpt>
      <trkpt lat="46.175963" lon="4.144241"><ele>377.8</ele></trkpt>
      <trkpt lat="46.175995" lon="4.143942"><ele>378.6</ele></trkpt>
      <trkpt lat="46.176028" lon="4.143644"><ele>379.5</ele></trkpt>
      <trkpt lat="46.17606" lon="4.143345"><ele>380.7</ele></trkpt>
      <trkpt lat="46.176092" lon="4.143046"><ele>381.5</ele></trkpt>
      <trkpt lat="46.176125" lon="4.142748"><ele>382.1</ele></trkpt>
      <trkpt lat="46.176158" lon="4.142449"><ele>382.6</ele></trkpt>
      <trkpt lat="46.17619" lon="4.14215"><ele>383.2</ele></trkpt>
      <trkpt lat="46.176226" lon="4.141857"><ele>383.8</ele></trkpt>
      <trkpt lat="46.176261" lon="4.141564"><ele>384.2</ele></trkpt>
      <trkpt lat="46.176297" lon="4.141271"><ele>385.1</ele></trkpt>
      <trkpt lat="46.176333" lon="4.140979"><ele>386.4</ele></trkpt>
      <trkpt lat="46.176369" lon="4.140686"><ele>388.1</ele></trkpt>
      <trkpt lat="46.176404" lon="4.140393"><ele>389.0</ele></trkpt>
      <trkpt lat="46.17644" lon="4.1401"><ele>389.5</ele></trkpt>
      <trkpt lat="46.176488" lon="4.139828"><ele>390.1</ele></trkpt>
      <trkpt lat="46.176535" lon="4.139555"><ele>390.6</ele></trkpt>
      <trkpt lat="46.176583" lon="4.139283"><ele>390.9</ele></trkpt>
      <trkpt lat="46.17663" lon="4.13901"><ele>391.3</ele></trkpt>
      <trkpt lat="46.17669" lon="4.138745"><ele>391.9</ele></trkpt>
      <trkpt lat="46.17675" lon="4.13848"><ele>392.6</ele></trkpt>
      <trkpt lat="46.1768" lon="4.138325"><ele>393.1</ele></trkpt>
      <trkpt lat="46.17685" lon="4.13817"><ele>393.4</ele></trkpt>
      <trkpt lat="46.17697" lon="4.1382"><ele>393.7</ele></trkpt>
      <trkpt lat="46.17709" lon="4.13823"><ele>394.0</ele></trkpt>
      <trkpt lat="46.1773" lon="4.13826"><ele>394.4</ele></trkpt>
      <trkpt lat="46.17739" lon="4.13822"><ele>394.6</ele></trkpt>
      <trkpt lat="46.17755" lon="4.13807"><ele>395.1</ele></trkpt>
      <trkpt lat="46.177513" lon="4.137847"><ele>396.1</ele></trkpt>
      <trkpt lat="46.177477" lon="4.137623"><ele>396.5</ele></trkpt>
      <trkpt lat="46.17744" lon="4.1374"><ele>396.5</ele></trkpt>
      <trkpt lat="46.177595" lon="4.137303"><ele>397.1</ele></trkpt>
      <trkpt lat="46.17775" lon="4.137205"><ele>397.6</ele></trkpt>
      <trkpt lat="46.177905" lon="4.137108"><ele>398.0</ele></trkpt>
      <trkpt lat="46.17806" lon="4.13701"><ele>398.4</ele></trkpt>
      <trkpt lat="46.17821" lon="4.13688"><ele>399.1</ele></trkpt>
      <trkpt lat="46.17836" lon="4.13675"><ele>400.1</ele></trkpt>
      <trkpt lat="46.17851" lon="4.13662"><ele>401.2</ele></trkpt>
      <trkpt lat="46.17867" lon="4.13647"><ele>402.0</ele></trkpt>
      <trkpt lat="46.1788" lon="4.13632"><ele>402.8</ele></trkpt>
      <trkpt lat="46.17893" lon="4.13613"><ele>403.9</ele></trkpt>
      <trkpt lat="46.17906" lon="4.13594"><ele>405.3</ele></trkpt>
      <trkpt lat="46.17919" lon="4.13575"><ele>406.5</ele></trkpt>
      <trkpt lat="46.17932" lon="4.13556"><ele>407.0</ele></trkpt>
      <trkpt lat="46.1794" lon="4.13541"><ele>407.2</ele></trkpt>
      <trkpt lat="46.1795" lon="4.13516"><ele>407.4</ele></trkpt>
      <trkpt lat="46.179635" lon="4.13492"><ele>407.5</ele></trkpt>
      <trkpt lat="46.17977" lon="4.13468"><ele>407.6</ele></trkpt>
      <trkpt lat="46.179905" lon="4.134525"><ele>407.9</ele></trkpt>
      <trkpt lat="46.18004" lon="4.13437"><ele>408.2</ele></trkpt>
      <trkpt lat="46.180148" lon="4.134154"><ele>408.5</ele></trkpt>
      <trkpt lat="46.180256" lon="4.133938"><ele>408.8</ele></trkpt>
      <trkpt lat="46.180364" lon="4.133722"><ele>409.2</ele></trkpt>
      <trkpt lat="46.180472" lon="4.133506"><ele>409.4</ele></trkpt>
      <trkpt lat="46.18058" lon="4.13329"><ele>409.9</ele></trkpt>
      <trkpt lat="46.18059" lon="4.1332"><ele>409.9</ele></trkpt>
      <trkpt lat="46.18069" lon="4.132947"><ele>410.3</ele></trkpt>
      <trkpt lat="46.18079" lon="4.132693"><ele>411.0</ele></trkpt>
      <trkpt lat="46.18089" lon="4.13244"><ele>412.4</ele></trkpt>
      <trkpt lat="46.180983" lon="4.13218"><ele>413.1</ele></trkpt>
      <trkpt lat="46.181077" lon="4.13192"><ele>413.7</ele></trkpt>
      <trkpt lat="46.18117" lon="4.13166"><ele>414.3</ele></trkpt>
      <trkpt lat="46.181277" lon="4.131433"><ele>415.9</ele></trkpt>
      <trkpt lat="46.181383" lon="4.131207"><ele>417.8</ele></trkpt>
      <trkpt lat="46.18149" lon="4.13098"><ele>419.3</ele></trkpt>
      <trkpt lat="46.181595" lon="4.130705"><ele>422.0</ele></trkpt>
      <trkpt lat="46.1817" lon="4.13043"><ele>424.1</ele></trkpt>
      <trkpt lat="46.181777" lon="4.130177"><ele>425.2</ele></trkpt>
      <trkpt lat="46.181853" lon="4.129923"><ele>425.8</ele></trkpt>
      <trkpt lat="46.18193" lon="4.12967"><ele>426.2</ele></trkpt>
      <trkpt lat="46.182007" lon="4.129417"><ele>426.7</ele></trkpt>
      <trkpt lat="46.182083" lon="4.129163"><ele>426.8</ele></trkpt>
      <trkpt lat="46.18216" lon="4.12891"><ele>426.8</ele></trkpt>
      <trkpt lat="46.182212" lon="4.128647"><ele>426.7</ele></trkpt>
      <trkpt lat="46.182263" lon="4.128383"><ele>426.6</ele></trkpt>
      <trkpt lat="46.182315" lon="4.12812"><ele>426.5</ele></trkpt>
      <trkpt lat="46.182367" lon="4.127857"><ele>426.4</ele></trkpt>
      <trkpt lat="46.182418" lon="4.127593"><ele>425.7</ele></trkpt>
      <trkpt lat="46.18247" lon="4.12733"><ele>425.1</ele></trkpt>
      <trkpt lat="46.18251" lon="4.12719"><ele>424.8</ele></trkpt>
      <trkpt lat="46.182645" lon="4.126955"><ele>424.4</ele></trkpt>
      <trkpt lat="46.18278" lon="4.12672"><ele>423.5</ele></trkpt>
      <trkpt lat="46.18286" lon="4.12653"><ele>423.0</ele></trkpt>
      <trkpt lat="46.18291" lon="4.126265"><ele>421.8</ele></trkpt>
      <trkpt lat="46.18296" lon="4.126"><ele>420.6</ele></trkpt>
      <trkpt lat="46.18302" lon="4.12579"><ele>419.5</ele></trkpt>
      <trkpt lat="46.183117" lon="4.125607"><ele>418.5</ele></trkpt>
      <trkpt lat="46.183213" lon="4.125423"><ele>417.7</ele></trkpt>
      <trkpt lat="46.18331" lon="4.12524"><ele>416.9</ele></trkpt>
      <trkpt lat="46.1834" lon="4.125105"><ele>416.1</ele></trkpt>
      <trkpt lat="46.18349" lon="4.12497"><ele>415.6</ele></trkpt>
      <trkpt lat="46.18362" lon="4.12486"><ele>415.3</ele></trkpt>
      <trkpt lat="46.18372" lon="4.1248"><ele>415.0</ele></trkpt>
      <trkpt lat="46.18393" lon="4.12472"><ele>414.9</ele></trkpt>
      <trkpt lat="46.18409" lon="4.12463"><ele>414.8</ele></trkpt>
      <trkpt lat="46.183953" lon="4.12447"><ele>413.9</ele></trkpt>
      <trkpt lat="46.183817" lon="4.12431"><ele>412.7</ele></trkpt>
      <trkpt lat="46.18368" lon="4.12415"><ele>411.6</ele></trkpt>
      <trkpt lat="46.18351" lon="4.124"><ele>410.9</ele></trkpt>
      <trkpt lat="46.18334" lon="4.12385"><ele>410.1</ele></trkpt>
      <trkpt lat="46.18328" lon="4.12378"><ele>409.9</ele></trkpt>
      <trkpt lat="46.183145" lon="4.123675"><ele>409.3</ele></trkpt>
      <trkpt lat="46.18301" lon="4.12357"><ele>408.8</ele></trkpt>
      <trkpt lat="46.18282" lon="4.12348"><ele>408.1</ele></trkpt>
      <trkpt lat="46.182635" lon="4.12344"><ele>407.8</ele></trkpt>
      <trkpt lat="46.18245" lon="4.1234"><ele>407.6</ele></trkpt>
      <trkpt lat="46.18234" lon="4.123325"><ele>407.1</ele></trkpt>
      <trkpt lat="46.18223" lon="4.12325"><ele>406.4</ele></trkpt>
      <trkpt lat="46.182095" lon="4.12319"><ele>406.0</ele></trkpt>
      <trkpt lat="46.18196" lon="4.12313"><ele>405.3</ele></trkpt>
      <trkpt lat="46.181835" lon="4.123055"><ele>405.0</ele></trkpt>
      <trkpt lat="46.18171" lon="4.12298"><ele>404.3</ele></trkpt>
      <trkpt lat="46.18154" lon="4.12284"><ele>403.6</ele></trkpt>
      <trkpt lat="46.18137" lon="4.1227"><ele>402.6</ele></trkpt>
      <trkpt lat="46.1812" lon="4.12256"><ele>401.7</ele></trkpt>
      <trkpt lat="46.18108" lon="4.122505"><ele>401.3</ele></trkpt>
      <trkpt lat="46.18096" lon="4.12245"><ele>400.9</ele></trkpt>
      <trkpt lat="46.180783" lon="4.122393"><ele>400.3</ele></trkpt>
      <trkpt lat="46.180607" lon="4.122337"><ele>399.7</ele></trkpt>
      <trkpt lat="46.18043" lon="4.12228"><ele>399.0</ele></trkpt>
      <trkpt lat="46.18022" lon="4.12224"><ele>398.1</ele></trkpt>
      <trkpt lat="46.18001" lon="4.1222"><ele>397.3</ele></trkpt>
      <trkpt lat="46.1798" lon="4.12216"><ele>396.7</ele></trkpt>
      <trkpt lat="46.17968" lon="4.12212"><ele>396.3</ele></trkpt>
      <trkpt lat="46.17957" lon="4.12198"><ele>395.4</ele></trkpt>
      <trkpt lat="46.17954" lon="4.12184"><ele>394.5</ele></trkpt>
      <trkpt lat="46.17952" lon="4.12162"><ele>393.3</ele></trkpt>
      <trkpt lat="46.17947" lon="4.121445"><ele>392.2</ele></trkpt>
      <trkpt lat="46.17942" lon="4.12127"><ele>391.1</ele></trkpt>
      <trkpt lat="46.17932" lon="4.12105"><ele>389.8</ele></trkpt>
      <trkpt lat="46.17922" lon="4.12092"><ele>388.9</ele></trkpt>
      <trkpt lat="46.17913" lon="4.12084"><ele>388.4</ele></trkpt>
      <trkpt lat="46.17893" lon="4.12073"><ele>387.5</ele></trkpt>
      <trkpt lat="46.178733" lon="4.12066"><ele>387.2</ele></trkpt>
      <trkpt lat="46.178537" lon="4.12059"><ele>386.6</ele></trkpt>
      <trkpt lat="46.17834" lon="4.12052"><ele>386.2</ele></trkpt>
      <trkpt lat="46.178153" lon="4.12044"><ele>385.7</ele></trkpt>
      <trkpt lat="46.177967" lon="4.12036"><ele>385.4</ele></trkpt>
      <trkpt lat="46.17778" lon="4.12028"><ele>384.6</ele></trkpt>
      <trkpt lat="46.17766" lon="4.12024"><ele>383.8</ele></trkpt>
      <trkpt lat="46.17754" lon="4.1202"><ele>383.0</ele></trkpt>
      <trkpt lat="46.17737" lon="4.12018"><ele>382.1</ele></trkpt>
      <trkpt lat="46.17717" lon="4.12012"><ele>381.0</ele></trkpt>
      <trkpt lat="46.17712" lon="4.119935"><ele>379.8</ele></trkpt>
      <trkpt lat="46.17707" lon="4.11975"><ele>379.0</ele></trkpt>
      <trkpt lat="46.17704" lon="4.11952"><ele>378.5</ele></trkpt>
      <trkpt lat="46.17704" lon="4.119297"><ele>377.7</ele></trkpt>
      <trkpt lat="46.17704" lon="4.119073"><ele>377.0</ele></trkpt>
      <trkpt lat="46.17704" lon="4.11885"><ele>377.4</ele></trkpt>
      <trkpt lat="46.17702" lon="4.11869"><ele>376.7</ele></trkpt>
      <trkpt lat="46.177" lon="4.11853"><ele>376.6</ele></trkpt>
      <trkpt lat="46.176907" lon="4.118247"><ele>375.5</ele></trkpt>
      <trkpt lat="46.176813" lon="4.117963"><ele>374.5</ele></trkpt>
      <trkpt lat="46.17672" lon="4.11768"><ele>373.4</ele></trkpt>
      <trkpt lat="46.17666" lon="4.11745"><ele>372.7</ele></trkpt>
      <trkpt lat="46.17664" lon="4.117285"><ele>372.0</ele></trkpt>
      <trkpt lat="46.17662" lon="4.11712"><ele>371.3</ele></trkpt>
      <trkpt lat="46.176612" lon="4.116812"><ele>370.3</ele></trkpt>
      <trkpt lat="46.176604" lon="4.116504"><ele>369.0</ele></trkpt>
      <trkpt lat="46.176597" lon="4.116197"><ele>368.2</ele></trkpt>
      <trkpt lat="46.176589" lon="4.115889"><ele>367.4</ele></trkpt>
      <trkpt lat="46.176581" lon="4.115581"><ele>366.6</ele></trkpt>
      <trkpt lat="46.176573" lon="4.115273"><ele>366.2</ele></trkpt>
      <trkpt lat="46.176566" lon="4.114966"><ele>365.0</ele></trkpt>
      <trkpt lat="46.176558" lon="4.114658"><ele>364.5</ele></trkpt>
      <trkpt lat="46.17655" lon="4.11435"><ele>363.9</ele></trkpt>
      <trkpt lat="46.17636" lon="4.11434"><ele>363.2</ele></trkpt>
      <trkpt lat="46.17617" lon="4.11433"><ele>361.5</ele></trkpt>
      <trkpt lat="46.17598" lon="4.11432"><ele>360.1</ele></trkpt>
      <trkpt lat="46.17579" lon="4.11431"><ele>358.4</ele></trkpt>
      <trkpt lat="46.1756" lon="4.1143"><ele>357.0</ele></trkpt>
      <trkpt lat="46.17541" lon="4.11429"><ele>354.9</ele></trkpt>
      <trkpt lat="46.175225" lon="4.11433"><ele>352.4</ele></trkpt>
      <trkpt lat="46.17504" lon="4.11437"><ele>350.2</ele></trkpt>
      <trkpt lat="46.17484" lon="4.114445"><ele>347.2</ele></trkpt>
      <trkpt lat="46.17464" lon="4.11452"><ele>345.1</ele></trkpt>
      <trkpt lat="46.17453" lon="4.11454"><ele>344.4</ele></trkpt>
      <trkpt lat="46.174377" lon="4.1145"><ele>345.8</ele></trkpt>
      <trkpt lat="46.174223" lon="4.11446"><ele>346.2</ele></trkpt>
      <trkpt lat="46.17407" lon="4.11442"><ele>346.4</ele></trkpt>
      <trkpt lat="46.173897" lon="4.114437"><ele>346.9</ele></trkpt>
      <trkpt lat="46.173723" lon="4.114453"><ele>346.6</ele></trkpt>
      <trkpt lat="46.17355" lon="4.11447"><ele>347.0</ele></trkpt>
      <trkpt lat="46.17339" lon="4.114505"><ele>347.1</ele></trkpt>
      <trkpt lat="46.17323" lon="4.11454"><ele>347.4</ele></trkpt>
      <trkpt lat="46.17306" lon="4.11456"><ele>347.8</ele></trkpt>
      <trkpt lat="46.172845" lon="4.114565"><ele>348.0</ele></trkpt>
      <trkpt lat="46.17263" lon="4.11457"><ele>348.0</ele></trkpt>
      <trkpt lat="46.17242" lon="4.114622"><ele>348.5</ele></trkpt>
      <trkpt lat="46.17221" lon="4.114673"><ele>349.4</ele></trkpt>
      <trkpt lat="46.172" lon="4.114725"><ele>350.0</ele></trkpt>
      <trkpt lat="46.17179" lon="4.114777"><ele>349.9</ele></trkpt>
      <trkpt lat="46.17158" lon="4.114828"><ele>350.3</ele></trkpt>
      <trkpt lat="46.17137" lon="4.11488"><ele>350.6</ele></trkpt>
      <trkpt lat="46.171175" lon="4.11492"><ele>350.8</ele></trkpt>
      <trkpt lat="46.17098" lon="4.11496"><ele>350.7</ele></trkpt>
      <trkpt lat="46.17082" lon="4.11504"><ele>350.3</ele></trkpt>
      <trkpt lat="46.17066" lon="4.11512"><ele>349.1</ele></trkpt>
      <trkpt lat="46.17056" lon="4.11534"><ele>348.8</ele></trkpt>
      <trkpt lat="46.17051" lon="4.11536"><ele>347.8</ele></trkpt>
      <trkpt lat="46.17045" lon="4.11535"><ele>347.6</ele></trkpt>
      <trkpt lat="46.17041" lon="4.1153"><ele>348.0</ele></trkpt>
      <trkpt lat="46.17035" lon="4.1151"><ele>348.6</ele></trkpt>
      <trkpt lat="46.170188" lon="4.114897"><ele>349.6</ele></trkpt>
      <trkpt lat="46.170025" lon="4.114695"><ele>351.2</ele></trkpt>
      <trkpt lat="46.169863" lon="4.114493"><ele>352.2</ele></trkpt>
      <trkpt lat="46.1697" lon="4.11429"><ele>353.0</ele></trkpt>
      <trkpt lat="46.169575" lon="4.11412"><ele>352.8</ele></trkpt>
      <trkpt lat="46.16945" lon="4.11395"><ele>352.9</ele></trkpt>
      <trkpt lat="46.169327" lon="4.113763"><ele>353.2</ele></trkpt>
      <trkpt lat="46.169203" lon="4.113577"><ele>353.5</ele></trkpt>
      <trkpt lat="46.16908" lon="4.11339"><ele>353.5</ele></trkpt>
      <trkpt lat="46.16893" lon="4.11324"><ele>354.1</ele></trkpt>
      <trkpt lat="46.168743" lon="4.11308"><ele>354.2</ele></trkpt>
      <trkpt lat="46.168557" lon="4.11292"><ele>353.5</ele></trkpt>
      <trkpt lat="46.16837" lon="4.11276"><ele>352.6</ele></trkpt>
      <trkpt lat="46.1684" lon="4.11286"><ele>353.1</ele></trkpt>
      <trkpt lat="46.16844" lon="4.113163"><ele>354.2</ele></trkpt>
      <trkpt lat="46.16848" lon="4.113467"><ele>355.4</ele></trkpt>
      <trkpt lat="46.16852" lon="4.11377"><ele>356.6</ele></trkpt>
      <trkpt lat="46.1685" lon="4.113975"><ele>357.7</ele></trkpt>
      <trkpt lat="46.16848" lon="4.11418"><ele>358.5</ele></trkpt>
      <trkpt lat="46.16847" lon="4.1144"><ele>359.1</ele></trkpt>
      <trkpt lat="46.16848" lon="4.1146"><ele>359.7</ele></trkpt>
      <trkpt lat="46.168523" lon="4.114857"><ele>360.3</ele></trkpt>
      <trkpt lat="46.168567" lon="4.115113"><ele>360.9</ele></trkpt>
      <trkpt lat="46.16861" lon="4.11537"><ele>361.5</ele></trkpt>
      <trkpt lat="46.168678" lon="4.115595"><ele>362.1</ele></trkpt>
      <trkpt lat="46.168745" lon="4.11582"><ele>362.6</ele></trkpt>
      <trkpt lat="46.168813" lon="4.116045"><ele>362.9</ele></trkpt>
      <trkpt lat="46.16888" lon="4.11627"><ele>363.4</ele></trkpt>
      <trkpt lat="46.16893" lon="4.11649"><ele>363.7</ele></trkpt>
      <trkpt lat="46.16895" lon="4.11667"><ele>364.0</ele></trkpt>
      <trkpt lat="46.16894" lon="4.11681"><ele>364.2</ele></trkpt>
      <trkpt lat="46.1689" lon="4.117"><ele>364.6</ele></trkpt>
      <trkpt lat="46.16882" lon="4.11719"><ele>364.7</ele></trkpt>
      <trkpt lat="46.16893" lon="4.11739"><ele>365.1</ele></trkpt>
      <trkpt lat="46.16904" lon="4.11759"><ele>365.3</ele></trkpt>
      <trkpt lat="46.16915" lon="4.11779"><ele>365.7</ele></trkpt>
      <trkpt lat="46.169273" lon="4.11804"><ele>366.2</ele></trkpt>
      <trkpt lat="46.169395" lon="4.11829"><ele>366.7</ele></trkpt>
      <trkpt lat="46.169518" lon="4.11854"><ele>367.1</ele></trkpt>
      <trkpt lat="46.16964" lon="4.11879"><ele>367.8</ele></trkpt>
      <trkpt lat="46.169536" lon="4.119066"><ele>368.4</ele></trkpt>
      <trkpt lat="46.169432" lon="4.119342"><ele>368.5</ele></trkpt>
      <trkpt lat="46.169328" lon="4.119618"><ele>368.2</ele></trkpt>
      <trkpt lat="46.169224" lon="4.119894"><ele>367.4</ele></trkpt>
      <trkpt lat="46.16912" lon="4.12017"><ele>366.7</ele></trkpt>
      <trkpt lat="46.169036" lon="4.120418"><ele>365.8</ele></trkpt>
      <trkpt lat="46.168952" lon="4.120666"><ele>365.5</ele></trkpt>
      <trkpt lat="46.168868" lon="4.120914"><ele>365.0</ele></trkpt>
      <trkpt lat="46.168784" lon="4.121162"><ele>364.2</ele></trkpt>
      <trkpt lat="46.1687" lon="4.12141"><ele>362.9</ele></trkpt>
      <trkpt lat="46.16868" lon="4.12158"><ele>362.6</ele></trkpt>
      <trkpt lat="46.168708" lon="4.12183"><ele>362.7</ele></trkpt>
      <trkpt lat="46.168735" lon="4.12208"><ele>363.0</ele></trkpt>
      <trkpt lat="46.168763" lon="4.12233"><ele>363.7</ele></trkpt>
      <trkpt lat="46.16879" lon="4.12258"><ele>363.0</ele></trkpt>
      <trkpt lat="46.1688" lon="4.122827"><ele>363.9</ele></trkpt>
      <trkpt lat="46.16881" lon="4.123075"><ele>364.2</ele></trkpt>
      <trkpt lat="46.16882" lon="4.123323"><ele>364.3</ele></trkpt>
      <trkpt lat="46.16883" lon="4.12357"><ele>364.9</ele></trkpt>
      <trkpt lat="46.16885" lon="4.123793"><ele>365.3</ele></trkpt>
      <trkpt lat="46.16887" lon="4.124017"><ele>365.6</ele></trkpt>
      <trkpt lat="46.16889" lon="4.12424"><ele>365.5</ele></trkpt>
      <trkpt lat="46.16895" lon="4.12454"><ele>365.9</ele></trkpt>
      <trkpt lat="46.16901" lon="4.12484"><ele>365.9</ele></trkpt>
      <trkpt lat="46.169083" lon="4.125113"><ele>366.6</ele></trkpt>
      <trkpt lat="46.169157" lon="4.125387"><ele>367.6</ele></trkpt>
      <trkpt lat="46.16923" lon="4.12566"><ele>368.2</ele></trkpt>
      <trkpt lat="46.16927" lon="4.125897"><ele>368.6</ele></trkpt>
      <trkpt lat="46.16931" lon="4.126133"><ele>369.2</ele></trkpt>
      <trkpt lat="46.16935" lon="4.12637"><ele>369.9</ele></trkpt>
      <trkpt lat="46.169375" lon="4.126685"><ele>370.4</ele></trkpt>
      <trkpt lat="46.1694" lon="4.127"><ele>371.4</ele></trkpt>
      <trkpt lat="46.169425" lon="4.127185"><ele>372.0</ele></trkpt>
      <trkpt lat="46.16945" lon="4.12737"><ele>372.4</ele></trkpt>
      <trkpt lat="46.1694" lon="4.12754"><ele>372.3</ele></trkpt>
      <trkpt lat="46.169227" lon="4.127443"><ele>371.4</ele></trkpt>
      <trkpt lat="46.169053" lon="4.127347"><ele>370.7</ele></trkpt>
      <trkpt lat="46.16888" lon="4.12725"><ele>369.8</ele></trkpt>
      <trkpt lat="46.16873" lon="4.12715"><ele>368.8</ele></trkpt>
      <trkpt lat="46.16871" lon="4.12729"><ele>368.7</ele></trkpt>
      <trkpt lat="46.16877" lon="4.12755"><ele>369.7</ele></trkpt>
      <trkpt lat="46.16879" lon="4.127725"><ele>370.6</ele></trkpt>
      <trkpt lat="46.16881" lon="4.1279"><ele>371.4</ele></trkpt>
      <trkpt lat="46.16877" lon="4.12818"><ele>371.9</ele></trkpt>
      <trkpt lat="46.168594" lon="4.128114"><ele>371.8</ele></trkpt>
      <trkpt lat="46.168418" lon="4.128048"><ele>371.8</ele></trkpt>
      <trkpt lat="46.168242" lon="4.127982"><ele>372.0</ele></trkpt>
      <trkpt lat="46.168066" lon="4.127916"><ele>372.5</ele></trkpt>
      <trkpt lat="46.16789" lon="4.12785"><ele>372.5</ele></trkpt>
      <trkpt lat="46.16774" lon="4.127847"><ele>372.6</ele></trkpt>
      <trkpt lat="46.16759" lon="4.127843"><ele>372.8</ele></trkpt>
      <trkpt lat="46.16744" lon="4.12784"><ele>372.8</ele></trkpt>
      <trkpt lat="46.16739" lon="4.12786"><ele>372.9</ele></trkpt>
      <trkpt lat="46.167235" lon="4.127975"><ele>373.3</ele></trkpt>
      <trkpt lat="46.16708" lon="4.12809"><ele>373.7</ele></trkpt>
      <trkpt lat="46.16697" lon="4.12814"><ele>374.0</ele></trkpt>
      <trkpt lat="46.16677" lon="4.12814"><ele>374.1</ele></trkpt>
      <trkpt lat="46.166546" lon="4.128116"><ele>374.1</ele></trkpt>
      <trkpt lat="46.166322" lon="4.128092"><ele>374.3</ele></trkpt>
      <trkpt lat="46.166098" lon="4.128068"><ele>374.2</ele></trkpt>
      <trkpt lat="46.165874" lon="4.128044"><ele>374.4</ele></trkpt>
      <trkpt lat="46.16565" lon="4.12802"><ele>374.9</ele></trkpt>
      <trkpt lat="46.1656" lon="4.128"><ele>375.0</ele></trkpt>
      <trkpt lat="46.16552" lon="4.12792"><ele>375.3</ele></trkpt>
      <trkpt lat="46.16545" lon="4.12776"><ele>375.6</ele></trkpt>
      <trkpt lat="46.16539" lon="4.1277"><ele>375.5</ele></trkpt>
      <trkpt lat="46.1652" lon="4.12758"><ele>375.1</ele></trkpt>
      <trkpt lat="46.165065" lon="4.127535"><ele>374.4</ele></trkpt>
      <trkpt lat="46.16493" lon="4.12749"><ele>373.8</ele></trkpt>
      <trkpt lat="46.164727" lon="4.12738"><ele>373.2</ele></trkpt>
      <trkpt lat="46.164523" lon="4.12727"><ele>372.3</ele></trkpt>
      <trkpt lat="46.16432" lon="4.12716"><ele>371.4</ele></trkpt>
      <trkpt lat="46.164163" lon="4.127127"><ele>370.6</ele></trkpt>
      <trkpt lat="46.164007" lon="4.127093"><ele>370.0</ele></trkpt>
      <trkpt lat="46.16385" lon="4.12706"><ele>369.4</ele></trkpt>
      <trkpt lat="46.16381" lon="4.12691"><ele>370.3</ele></trkpt>
      <trkpt lat="46.163615" lon="4.12692"><ele>369.2</ele></trkpt>
      <trkpt lat="46.16342" lon="4.12693"><ele>368.1</ele></trkpt>
      <trkpt lat="46.16325" lon="4.126955"><ele>367.0</ele></trkpt>
      <trkpt lat="46.16308" lon="4.12698"><ele>366.7</ele></trkpt>
      <trkpt lat="46.162897" lon="4.126997"><ele>365.7</ele></trkpt>
      <trkpt lat="46.162713" lon="4.127013"><ele>364.6</ele></trkpt>
      <trkpt lat="46.16253" lon="4.12703"><ele>363.8</ele></trkpt>
      <trkpt lat="46.16233" lon="4.12704"><ele>362.2</ele></trkpt>
      <trkpt lat="46.162165" lon="4.127025"><ele>361.7</ele></trkpt>
      <trkpt lat="46.162" lon="4.12701"><ele>361.0</ele></trkpt>
      <trkpt lat="46.16181" lon="4.12694"><ele>360.4</ele></trkpt>
      <trkpt lat="46.16167" lon="4.12686"><ele>359.7</ele></trkpt>
      <trkpt lat="46.16156" lon="4.12686"><ele>359.5</ele></trkpt>
      <trkpt lat="46.16143" lon="4.12683"><ele>358.5</ele></trkpt>
      <trkpt lat="46.161254" lon="4.12675"><ele>357.8</ele></trkpt>
      <trkpt lat="46.161078" lon="4.12667"><ele>356.4</ele></trkpt>
      <trkpt lat="46.160902" lon="4.12659"><ele>354.7</ele></trkpt>
      <trkpt lat="46.160726" lon="4.12651"><ele>353.4</ele></trkpt>
      <trkpt lat="46.16055" lon="4.12643"><ele>351.3</ele></trkpt>
      <trkpt lat="46.160333" lon="4.126343"><ele>349.3</ele></trkpt>
      <trkpt lat="46.160117" lon="4.126257"><ele>346.5</ele></trkpt>
      <trkpt lat="46.1599" lon="4.12617"><ele>343.8</ele></trkpt>
      <trkpt lat="46.159785" lon="4.12611"><ele>342.4</ele></trkpt>
      <trkpt lat="46.15967" lon="4.12605"><ele>341.7</ele></trkpt>
      <trkpt lat="46.159535" lon="4.12595"><ele>340.3</ele></trkpt>
      <trkpt lat="46.1594" lon="4.12585"><ele>338.1</ele></trkpt>
      <trkpt lat="46.159245" lon="4.1257"><ele>336.3</ele></trkpt>
      <trkpt lat="46.15909" lon="4.12555"><ele>333.9</ele></trkpt>
      <trkpt lat="46.158927" lon="4.125345"><ele>331.4</ele></trkpt>
      <trkpt lat="46.158765" lon="4.125139"><ele>329.7</ele></trkpt>
      <trkpt lat="46.158602" lon="4.124934"><ele>327.7</ele></trkpt>
      <trkpt lat="46.158439" lon="4.124728"><ele>325.1</ele></trkpt>
      <trkpt lat="46.158276" lon="4.124523"><ele>323.0</ele></trkpt>
      <trkpt lat="46.158114" lon="4.124317"><ele>321.0</ele></trkpt>
      <trkpt lat="46.157951" lon="4.124112"><ele>319.1</ele></trkpt>
      <trkpt lat="46.157788" lon="4.123906"><ele>317.4</ele></trkpt>
      <trkpt lat="46.157625" lon="4.123701"><ele>315.8</ele></trkpt>
      <trkpt lat="46.157463" lon="4.123495"><ele>314.8</ele></trkpt>
      <trkpt lat="46.1573" lon="4.12329"><ele>314.1</ele></trkpt>
      <trkpt lat="46.15712" lon="4.12315"><ele>312.6</ele></trkpt>
      <trkpt lat="46.15706" lon="4.12324"><ele>311.6</ele></trkpt>
      <trkpt lat="46.156855" lon="4.12333"><ele>308.7</ele></trkpt>
      <trkpt lat="46.15665" lon="4.12342"><ele>305.2</ele></trkpt>
      <trkpt lat="46.15656" lon="4.12343"><ele>303.7</ele></trkpt>
      <trkpt lat="46.156348" lon="4.123388"><ele>300.1</ele></trkpt>
      <trkpt lat="46.156137" lon="4.123347"><ele>296.3</ele></trkpt>
      <trkpt lat="46.155925" lon="4.123305"><ele>293.6</ele></trkpt>
      <trkpt lat="46.155713" lon="4.123263"><ele>289.9</ele></trkpt>
      <trkpt lat="46.155502" lon="4.123222"><ele>286.2</ele></trkpt>
      <trkpt lat="46.15529" lon="4.12318"><ele>283.4</ele></trkpt>
      <trkpt lat="46.15508" lon="4.12313"><ele>281.4</ele></trkpt>
      <trkpt lat="46.15487" lon="4.12308"><ele>279.9</ele></trkpt>
      <trkpt lat="46.154675" lon="4.12305"><ele>278.1</ele></trkpt>
      <trkpt lat="46.15448" lon="4.12302"><ele>277.2</ele></trkpt>
      <trkpt lat="46.15432" lon="4.12301"><ele>276.1</ele></trkpt>
      <trkpt lat="46.15423" lon="4.12302"><ele>275.6</ele></trkpt>
      <trkpt lat="46.15407" lon="4.1231"><ele>274.5</ele></trkpt>
      <trkpt lat="46.15391" lon="4.12318"><ele>273.6</ele></trkpt>
      <trkpt lat="46.15375" lon="4.12326"><ele>272.3</ele></trkpt>
      <trkpt lat="46.15369" lon="4.12303"><ele>270.9</ele></trkpt>
      <trkpt lat="46.15363" lon="4.1228"><ele>269.8</ele></trkpt>
      <trkpt lat="46.15362" lon="4.122635"><ele>269.3</ele></trkpt>
      <trkpt lat="46.15361" lon="4.12247"><ele>268.9</ele></trkpt>
      <trkpt lat="46.15358" lon="4.12233"><ele>268.5</ele></trkpt>
      <trkpt lat="46.15363" lon="4.12209"><ele>268.2</ele></trkpt>
      <trkpt lat="46.153643" lon="4.121867"><ele>268.0</ele></trkpt>
      <trkpt lat="46.153657" lon="4.121643"><ele>267.7</ele></trkpt>
      <trkpt lat="46.15367" lon="4.12142"><ele>267.6</ele></trkpt>
    </trkseg>
  </trk>
</gpx>
