<?xml version="1.0" encoding="UTF-8"?>
<gpx version="1.1" creator="Marche APEL Saint-Nizier-sous-Charlieu" xmlns="http://www.topografix.com/GPX/1/1" xmlns:xsi="http://www.w3.org/2001/XMLSchema-instance" xsi:schemaLocation="http://www.topografix.com/GPX/1/1 http://www.topografix.com/GPX/1/1/gpx.xsd">
  <metadata><name>Marche APEL 10 km</name></metadata>
  <trk>
    <name>Marche APEL 10 km</name>
    <type>hiking</type>
    <trkseg>
      <trkpt lat="46.15363" lon="4.12055"><ele>266.8</ele></trkpt>
      <trkpt lat="46.153643" lon="4.120807"><ele>267.1</ele></trkpt>
      <trkpt lat="46.153657" lon="4.121063"><ele>267.3</ele></trkpt>
      <trkpt lat="46.15367" lon="4.12132"><ele>267.5</ele></trkpt>
      <trkpt lat="46.15366" lon="4.12159"><ele>267.7</ele></trkpt>
      <trkpt lat="46.15365" lon="4.12186"><ele>268.0</ele></trkpt>
      <trkpt lat="46.15363" lon="4.12209"><ele>268.2</ele></trkpt>
      <trkpt lat="46.15358" lon="4.12233"><ele>268.5</ele></trkpt>
      <trkpt lat="46.15349" lon="4.12251"><ele>268.6</ele></trkpt>
      <trkpt lat="46.15339" lon="4.12269"><ele>268.6</ele></trkpt>
      <trkpt lat="46.153235" lon="4.122885"><ele>268.8</ele></trkpt>
      <trkpt lat="46.15308" lon="4.12308"><ele>268.9</ele></trkpt>
      <trkpt lat="46.15298" lon="4.12318"><ele>269.1</ele></trkpt>
      <trkpt lat="46.152845" lon="4.12326"><ele>268.9</ele></trkpt>
      <trkpt lat="46.15271" lon="4.12334"><ele>268.6</ele></trkpt>
      <trkpt lat="46.15263" lon="4.12342"><ele>268.4</ele></trkpt>
      <trkpt lat="46.1525" lon="4.12356"><ele>268.1</ele></trkpt>
      <trkpt lat="46.152358" lon="4.123738"><ele>267.6</ele></trkpt>
      <trkpt lat="46.152215" lon="4.123915"><ele>267.2</ele></trkpt>
      <trkpt lat="46.152073" lon="4.124092"><ele>266.9</ele></trkpt>
      <trkpt lat="46.15193" lon="4.12427"><ele>266.4</ele></trkpt>
      <trkpt lat="46.15176" lon="4.12446"><ele>265.9</ele></trkpt>
      <trkpt lat="46.151575" lon="4.12464"><ele>265.4</ele></trkpt>
      <trkpt lat="46.15139" lon="4.12482"><ele>265.0</ele></trkpt>
      <trkpt lat="46.15144" lon="4.12498"><ele>265.1</ele></trkpt>
      <trkpt lat="46.15133" lon="4.1252"><ele>264.8</ele></trkpt>
      <trkpt lat="46.15129" lon="4.12532"><ele>264.7</ele></trkpt>
      <trkpt lat="46.151247" lon="4.125622"><ele>264.7</ele></trkpt>
      <trkpt lat="46.151203" lon="4.125923"><ele>264.7</ele></trkpt>
      <trkpt lat="46.15116" lon="4.126225"><ele>264.8</ele></trkpt>
      <trkpt lat="46.151117" lon="4.126527"><ele>264.9</ele></trkpt>
      <trkpt lat="46.151073" lon="4.126828"><ele>265.0</ele></trkpt>
      <trkpt lat="46.15103" lon="4.12713"><ele>265.1</ele></trkpt>
      <trkpt lat="46.150989" lon="4.127431"><ele>265.0</ele></trkpt>
      <trkpt lat="46.150949" lon="4.127731"><ele>265.3</ele></trkpt>
      <trkpt lat="46.150908" lon="4.128032"><ele>265.4</ele></trkpt>
      <trkpt lat="46.150867" lon="4.128333"><ele>265.4</ele></trkpt>
      <trkpt lat="46.150826" lon="4.128634"><ele>265.6</ele></trkpt>
      <trkpt lat="46.150786" lon="4.128934"><ele>265.7</ele></trkpt>
      <trkpt lat="46.150745" lon="4.129235"><ele>265.8</ele></trkpt>
      <trkpt lat="46.150704" lon="4.129536"><ele>266.0</ele></trkpt>
      <trkpt lat="46.150664" lon="4.129836"><ele>266.1</ele></trkpt>
      <trkpt lat="46.150623" lon="4.130137"><ele>266.2</ele></trkpt>
      <trkpt lat="46.150582" lon="4.130438"><ele>266.3</ele></trkpt>
      <trkpt lat="46.150541" lon="4.130739"><ele>266.6</ele></trkpt>
      <trkpt lat="46.150501" lon="4.131039"><ele>266.8</ele></trkpt>
      <trkpt lat="46.15046" lon="4.13134"><ele>267.1</ele></trkpt>
      <trkpt lat="46.15044" lon="4.13159"><ele>267.3</ele></trkpt>
      <trkpt lat="46.15042" lon="4.13184"><ele>267.5</ele></trkpt>
      <trkpt lat="46.150415" lon="4.13215"><ele>267.9</ele></trkpt>
      <trkpt lat="46.15041" lon="4.13246"><ele>268.0</ele></trkpt>
      <trkpt lat="46.15042" lon="4.13269"><ele>268.2</ele></trkpt>
      <trkpt lat="46.15043" lon="4.13292"><ele>268.4</ele></trkpt>
      <trkpt lat="46.150457" lon="4.13319"><ele>268.5</ele></trkpt>
      <trkpt lat="46.150483" lon="4.13346"><ele>268.7</ele></trkpt>
      <trkpt lat="46.15051" lon="4.13373"><ele>268.7</ele></trkpt>
      <trkpt lat="46.15057" lon="4.134031"><ele>269.3</ele></trkpt>
      <trkpt lat="46.150631" lon="4.134333"><ele>269.2</ele></trkpt>
      <trkpt lat="46.150691" lon="4.134634"><ele>269.7</ele></trkpt>
      <trkpt lat="46.150752" lon="4.134935"><ele>269.8</ele></trkpt>
      <trkpt lat="46.150812" lon="4.135236"><ele>269.8</ele></trkpt>
      <trkpt lat="46.150873" lon="4.135538"><ele>270.1</ele></trkpt>
      <trkpt lat="46.150933" lon="4.135839"><ele>270.1</ele></trkpt>
      <trkpt lat="46.150993" lon="4.13614"><ele>270.7</ele></trkpt>
      <trkpt lat="46.151054" lon="4.136441"><ele>270.7</ele></trkpt>
      <trkpt lat="46.151114" lon="4.136742"><ele>270.6</ele></trkpt>
      <trkpt lat="46.151175" lon="4.137044"><ele>271.3</ele></trkpt>
      <trkpt lat="46.151235" lon="4.137345"><ele>271.3</ele></trkpt>
      <trkpt lat="46.151295" lon="4.137646"><ele>272.3</ele></trkpt>
      <trkpt lat="46.151356" lon="4.137948"><ele>272.0</ele></trkpt>
      <trkpt lat="46.151416" lon="4.138249"><ele>271.8</ele></trkpt>
      <trkpt lat="46.151477" lon="4.13855"><ele>272.4</ele></trkpt>
      <trkpt lat="46.151537" lon="4.138851"><ele>272.6</ele></trkpt>
      <trkpt lat="46.151598" lon="4.139153"><ele>273.2</ele></trkpt>
      <trkpt lat="46.151658" lon="4.139454"><ele>273.4</ele></trkpt>
      <trkpt lat="46.151718" lon="4.139755"><ele>273.3</ele></trkpt>
      <trkpt lat="46.151779" lon="4.140056"><ele>274.1</ele></trkpt>
      <trkpt lat="46.151839" lon="4.140357"><ele>274.0</ele></trkpt>
      <trkpt lat="46.1519" lon="4.140659"><ele>272.0</ele></trkpt>
      <trkpt lat="46.15196" lon="4.14096"><ele>274.5</ele></trkpt>
      <trkpt lat="46.152025" lon="4.14122"><ele>274.8</ele></trkpt>
      <trkpt lat="46.15209" lon="4.14148"><ele>274.8</ele></trkpt>
      <trkpt lat="46.152173" lon="4.141767"><ele>274.8</ele></trkpt>
      <trkpt lat="46.152257" lon="4.142053"><ele>274.8</ele></trkpt>
      <trkpt lat="46.15234" lon="4.14234"><ele>274.8</ele></trkpt>
      <trkpt lat="46.152428" lon="4.142613"><ele>274.7</ele></trkpt>
      <trkpt lat="46.152515" lon="4.142885"><ele>274.7</ele></trkpt>
      <trkpt lat="46.152603" lon="4.143158"><ele>274.5</ele></trkpt>
      <trkpt lat="46.15269" lon="4.14343"><ele>274.4</ele></trkpt>
      <trkpt lat="46.152778" lon="4.143703"><ele>274.3</ele></trkpt>
      <trkpt lat="46.152865" lon="4.143975"><ele>274.3</ele></trkpt>
      <trkpt lat="46.152953" lon="4.144247"><ele>274.3</ele></trkpt>
      <trkpt lat="46.15304" lon="4.14452"><ele>274.2</ele></trkpt>
      <trkpt lat="46.153108" lon="4.14475"><ele>274.4</ele></trkpt>
      <trkpt lat="46.153175" lon="4.14498"><ele>273.7</ele></trkpt>
      <trkpt lat="46.153243" lon="4.14521"><ele>274.2</ele></trkpt>
      <trkpt lat="46.15331" lon="4.14544"><ele>274.5</ele></trkpt>
      <trkpt lat="46.153408" lon="4.145718"><ele>274.5</ele></trkpt>
      <trkpt lat="46.153505" lon="4.145995"><ele>274.3</ele></trkpt>
      <trkpt lat="46.153603" lon="4.146273"><ele>274.2</ele></trkpt>
      <trkpt lat="46.1537" lon="4.14655"><ele>274.6</ele></trkpt>
      <trkpt lat="46.153783" lon="4.146808"><ele>274.5</ele></trkpt>
      <trkpt lat="46.153865" lon="4.147065"><ele>274.5</ele></trkpt>
      <trkpt lat="46.153948" lon="4.147322"><ele>274.5</ele></trkpt>
      <trkpt lat="46.15403" lon="4.14758"><ele>274.5</ele></trkpt>
      <trkpt lat="46.154087" lon="4.147783"><ele>274.6</ele></trkpt>
      <trkpt lat="46.154143" lon="4.147987"><ele>274.4</ele></trkpt>
      <trkpt lat="46.1542" lon="4.14819"><ele>274.4</ele></trkpt>
      <trkpt lat="46.154255" lon="4.148425"><ele>274.6</ele></trkpt>
      <trkpt lat="46.15431" lon="4.14866"><ele>274.5</ele></trkpt>
      <trkpt lat="46.154366" lon="4.148941"><ele>274.4</ele></trkpt>
      <trkpt lat="46.154422" lon="4.149222"><ele>274.6</ele></trkpt>
      <trkpt lat="46.154478" lon="4.149503"><ele>274.3</ele></trkpt>
      <trkpt lat="46.154534" lon="4.149784"><ele>274.4</ele></trkpt>
      <trkpt lat="46.15459" lon="4.150065"><ele>274.4</ele></trkpt>
      <trkpt lat="46.154646" lon="4.150346"><ele>274.2</ele></trkpt>
      <trkpt lat="46.154702" lon="4.150627"><ele>274.2</ele></trkpt>
      <trkpt lat="46.154758" lon="4.150908"><ele>274.1</ele></trkpt>
      <trkpt lat="46.154814" lon="4.151189"><ele>274.0</ele></trkpt>
      <trkpt lat="46.15487" lon="4.15147"><ele>273.8</ele></trkpt>
      <trkpt lat="46.15481" lon="4.15159"><ele>273.9</ele></trkpt>
      <trkpt lat="46.15492" lon="4.15167"><ele>273.7</ele></trkpt>
      <trkpt lat="46.15503" lon="4.15179"><ele>274.2</ele></trkpt>
      <trkpt lat="46.15513" lon="4.15195"><ele>274.1</ele></trkpt>
      <trkpt lat="46.1552" lon="4.15209"><ele>274.1</ele></trkpt>
      <trkpt lat="46.15522" lon="4.15225"><ele>274.0</ele></trkpt>
      <trkpt lat="46.15536" lon="4.15223"><ele>276.4</ele></trkpt>
      <trkpt lat="46.1555" lon="4.15221"><ele>279.2</ele></trkpt>
      <trkpt lat="46.15569" lon="4.152145"><ele>283.1</ele></trkpt>
      <trkpt lat="46.15588" lon="4.15208"><ele>286.8</ele></trkpt>
      <trkpt lat="46.156077" lon="4.151953"><ele>292.4</ele></trkpt>
      <trkpt lat="46.156273" lon="4.151827"><ele>297.5</ele></trkpt>
      <trkpt lat="46.15647" lon="4.1517"><ele>301.2</ele></trkpt>
      <trkpt lat="46.15648" lon="4.15164"><ele>301.7</ele></trkpt>
      <trkpt lat="46.15644" lon="4.15149"><ele>304.0</ele></trkpt>
      <trkpt lat="46.15642" lon="4.15125"><ele>306.0</ele></trkpt>
      <trkpt lat="46.15644" lon="4.15096"><ele>309.8</ele></trkpt>
      <trkpt lat="46.15651" lon="4.15077"><ele>310.9</ele></trkpt>
      <trkpt lat="46.15668" lon="4.15057"><ele>314.2</ele></trkpt>
      <trkpt lat="46.15684" lon="4.15045"><ele>318.0</ele></trkpt>
      <trkpt lat="46.15704" lon="4.15038"><ele>321.6</ele></trkpt>
      <trkpt lat="46.15724" lon="4.15031"><ele>326.0</ele></trkpt>
      <trkpt lat="46.15744" lon="4.15024"><ele>328.9</ele></trkpt>
      <trkpt lat="46.157625" lon="4.150193"><ele>330.9</ele></trkpt>
      <trkpt lat="46.15781" lon="4.150145"><ele>332.7</ele></trkpt>
      <trkpt lat="46.157995" lon="4.150098"><ele>335.4</ele></trkpt>
      <trkpt lat="46.15818" lon="4.15005"><ele>337.4</ele></trkpt>
      <trkpt lat="46.158335" lon="4.149985"><ele>339.1</ele></trkpt>
      <trkpt lat="46.15849" lon="4.14992"><ele>340.5</ele></trkpt>
      <trkpt lat="46.158615" lon="4.149845"><ele>342.0</ele></trkpt>
      <trkpt lat="46.15874" lon="4.14977"><ele>342.9</ele></trkpt>
      <trkpt lat="46.158887" lon="4.149657"><ele>344.1</ele></trkpt>
      <trkpt lat="46.159033" lon="4.149543"><ele>344.8</ele></trkpt>
      <trkpt lat="46.15918" lon="4.14943"><ele>345.1</ele></trkpt>
      <trkpt lat="46.159315" lon="4.149355"><ele>345.3</ele></trkpt>
      <trkpt lat="46.15945" lon="4.14928"><ele>345.8</ele></trkpt>
      <trkpt lat="46.15963" lon="4.14926"><ele>346.3</ele></trkpt>
      <trkpt lat="46.15966" lon="4.14927"><ele>346.4</ele></trkpt>
      <trkpt lat="46.15969" lon="4.14931"><ele>346.4</ele></trkpt>
      <trkpt lat="46.15987" lon="4.14914"><ele>346.6</ele></trkpt>
      <trkpt lat="46.159993" lon="4.149003"><ele>346.6</ele></trkpt>
      <trkpt lat="46.160117" lon="4.148867"><ele>346.4</ele></trkpt>
      <trkpt lat="46.16024" lon="4.14873"><ele>346.2</ele></trkpt>
      <trkpt lat="46.160345" lon="4.14857"><ele>346.0</ele></trkpt>
      <trkpt lat="46.16045" lon="4.14841"><ele>345.9</ele></trkpt>
      <trkpt lat="46.16055" lon="4.14823"><ele>345.3</ele></trkpt>
      <trkpt lat="46.16065" lon="4.14805"><ele>345.3</ele></trkpt>
      <trkpt lat="46.160763" lon="4.14782"><ele>344.6</ele></trkpt>
      <trkpt lat="46.160877" lon="4.14759"><ele>345.2</ele></trkpt>
      <trkpt lat="46.16099" lon="4.14736"><ele>346.3</ele></trkpt>
      <trkpt lat="46.161103" lon="4.147153"><ele>347.2</ele></trkpt>
      <trkpt lat="46.161215" lon="4.146945"><ele>348.2</ele></trkpt>
      <trkpt lat="46.161328" lon="4.146738"><ele>348.9</ele></trkpt>
      <trkpt lat="46.16144" lon="4.14653"><ele>349.5</ele></trkpt>
      <trkpt lat="46.161545" lon="4.14641"><ele>349.9</ele></trkpt>
      <trkpt lat="46.16165" lon="4.14629"><ele>350.5</ele></trkpt>
      <trkpt lat="46.161753" lon="4.146463"><ele>351.5</ele></trkpt>
      <trkpt lat="46.161857" lon="4.146637"><ele>352.3</ele></trkpt>
      <trkpt lat="46.16196" lon="4.14681"><ele>352.8</ele></trkpt>
      <trkpt lat="46.16204" lon="4.14662"><ele>352.9</ele></trkpt>
      <trkpt lat="46.162167" lon="4.14637"><ele>353.3</ele></trkpt>
      <trkpt lat="46.162293" lon="4.14612"><ele>353.6</ele></trkpt>
      <trkpt lat="46.16242" lon="4.14587"><ele>353.8</ele></trkpt>
      <trkpt lat="46.16256" lon="4.145647"><ele>354.2</ele></trkpt>
      <trkpt lat="46.1627" lon="4.145423"><ele>354.7</ele></trkpt>
      <trkpt lat="46.16284" lon="4.1452"><ele>355.1</ele></trkpt>
      <trkpt lat="46.16295" lon="4.14496"><ele>354.4</ele></trkpt>
      <trkpt lat="46.16306" lon="4.14472"><ele>353.3</ele></trkpt>
      <trkpt lat="46.16317" lon="4.14448"><ele>351.8</ele></trkpt>
      <trkpt lat="46.16329" lon="4.144267"><ele>349.7</ele></trkpt>
      <trkpt lat="46.16341" lon="4.144053"><ele>347.7</ele></trkpt>
      <trkpt lat="46.16353" lon="4.14384"><ele>346.5</ele></trkpt>
      <trkpt lat="46.16361" lon="4.14363"><ele>345.5</ele></trkpt>
      <trkpt lat="46.16367" lon="4.143357"><ele>344.0</ele></trkpt>
      <trkpt lat="46.16373" lon="4.143083"><ele>342.3</ele></trkpt>
      <trkpt lat="46.16379" lon="4.14281"><ele>341.5</ele></trkpt>
      <trkpt lat="46.163815" lon="4.142575"><ele>338.5</ele></trkpt>
      <trkpt lat="46.16384" lon="4.14234"><ele>336.7</ele></trkpt>
      <trkpt lat="46.16391" lon="4.1421"><ele>334.7</ele></trkpt>
      <trkpt lat="46.16401" lon="4.14183"><ele>332.8</ele></trkpt>
      <trkpt lat="46.16411" lon="4.14156"><ele>330.7</ele></trkpt>
      <trkpt lat="46.16412" lon="4.14135"><ele>328.3</ele></trkpt>
      <trkpt lat="46.16413" lon="4.14107"><ele>325.4</ele></trkpt>
      <trkpt lat="46.164105" lon="4.140905"><ele>323.3</ele></trkpt>
      <trkpt lat="46.16408" lon="4.14074"><ele>321.5</ele></trkpt>
      <trkpt lat="46.16402" lon="4.140525"><ele>318.8</ele></trkpt>
      <trkpt lat="46.16396" lon="4.14031"><ele>316.5</ele></trkpt>
      <trkpt lat="46.16388" lon="4.14015"><ele>315.6</ele></trkpt>
      <trkpt lat="46.163795" lon="4.14003"><ele>315.3</ele></trkpt>
      <trkpt lat="46.16371" lon="4.13991"><ele>315.7</ele></trkpt>
      <trkpt lat="46.16364" lon="4.13966"><ele>318.3</ele></trkpt>
      <trkpt lat="46.16366" lon="4.139397"><ele>321.3</ele></trkpt>
      <trkpt lat="46.16368" lon="4.139133"><ele>324.4</ele></trkpt>
      <trkpt lat="46.1637" lon="4.13887"><ele>326.6</ele></trkpt>
      <trkpt lat="46.163725" lon="4.138695"><ele>328.4</ele></trkpt>
      <trkpt lat="46.16375" lon="4.13852"><ele>329.6</ele></trkpt>
      <trkpt lat="46.16382" lon="4.1383"><ele>331.6</ele></trkpt>
      <trkpt lat="46.16392" lon="4.138045"><ele>333.8</ele></trkpt>
      <trkpt lat="46.16402" lon="4.13779"><ele>336.6</ele></trkpt>
      <trkpt lat="46.1641" lon="4.137525"><ele>339.3</ele></trkpt>
      <trkpt lat="46.16418" lon="4.13726"><ele>341.5</ele></trkpt>
      <trkpt lat="46.164277" lon="4.136977"><ele>344.4</ele></trkpt>
      <trkpt lat="46.164373" lon="4.136693"><ele>347.3</ele></trkpt>
      <trkpt lat="46.16447" lon="4.13641"><ele>349.1</ele></trkpt>
      <trkpt lat="46.1645" lon="4.13618"><ele>351.2</ele></trkpt>
      <trkpt lat="46.16449" lon="4.13589"><ele>352.5</ele></trkpt>
      <trkpt lat="46.16455" lon="4.13577"><ele>353.2</ele></trkpt>
      <trkpt lat="46.164643" lon="4.135533"><ele>354.5</ele></trkpt>
      <trkpt lat="46.164737" lon="4.135297"><ele>355.7</ele></trkpt>
      <trkpt lat="46.16483" lon="4.13506"><ele>357.1</ele></trkpt>
      <trkpt lat="46.164915" lon="4.134815"><ele>358.1</ele></trkpt>
      <trkpt lat="46.165" lon="4.13457"><ele>359.2</ele></trkpt>
      <trkpt lat="46.16499" lon="4.13443"><ele>359.7</ele></trkpt>
      <trkpt lat="46.165005" lon="4.134195"><ele>360.8</ele></trkpt>
      <trkpt lat="46.16502" lon="4.13396"><ele>361.3</ele></trkpt>
      <trkpt lat="46.16501" lon="4.13377"><ele>361.6</ele></trkpt>
      <trkpt lat="46.16498" lon="4.13353"><ele>362.0</ele></trkpt>
      <trkpt lat="46.16495" lon="4.13329"><ele>362.5</ele></trkpt>
      <trkpt lat="46.16492" lon="4.13305"><ele>362.6</ele></trkpt>
      <trkpt lat="46.16489" lon="4.13281"><ele>362.4</ele></trkpt>
      <trkpt lat="46.16489" lon="4.13263"><ele>362.1</ele></trkpt>
      <trkpt lat="46.164913" lon="4.132373"><ele>361.9</ele></trkpt>
      <trkpt lat="46.164937" lon="4.132117"><ele>361.4</ele></trkpt>
      <trkpt lat="46.16496" lon="4.13186"><ele>360.3</ele></trkpt>
      <trkpt lat="46.16494" lon="4.1317"><ele>360.1</ele></trkpt>
      <trkpt lat="46.16486" lon="4.13167"><ele>359.7</ele></trkpt>
      <trkpt lat="46.164775" lon="4.131545"><ele>360.0</ele></trkpt>
      <trkpt lat="46.16469" lon="4.13142"><ele>360.1</ele></trkpt>
      <trkpt lat="46.16458" lon="4.131205"><ele>361.0</ele></trkpt>
      <trkpt lat="46.16447" lon="4.13099"><ele>362.5</ele></trkpt>
      <trkpt lat="46.164413" lon="4.130783"><ele>363.8</ele></trkpt>
      <trkpt lat="46.164357" lon="4.130577"><ele>364.8</ele></trkpt>
      <trkpt lat="46.1643" lon="4.13037"><ele>365.7</ele></trkpt>
      <trkpt lat="46.164268" lon="4.130082"><ele>367.2</ele></trkpt>
      <trkpt lat="46.164237" lon="4.129793"><ele>367.4</ele></trkpt>
      <trkpt lat="46.164205" lon="4.129505"><ele>367.4</ele></trkpt>
      <trkpt lat="46.164173" lon="4.129217"><ele>367.7</ele></trkpt>
      <trkpt lat="46.164142" lon="4.128928"><ele>367.8</ele></trkpt>
      <trkpt lat="46.16411" lon="4.12864"><ele>367.0</ele></trkpt>
      <trkpt lat="46.164073" lon="4.12837"><ele>366.9</ele></trkpt>
      <trkpt lat="46.164037" lon="4.1281"><ele>367.4</ele></trkpt>
      <trkpt lat="46.164" lon="4.12783"><ele>367.5</ele></trkpt>
      <trkpt lat="46.16395" lon="4.127573"><ele>368.2</ele></trkpt>
      <trkpt lat="46.1639" lon="4.127317"><ele>368.2</ele></trkpt>
      <trkpt lat="46.16385" lon="4.12706"><ele>369.4</ele></trkpt>
      <trkpt lat="46.16381" lon="4.12691"><ele>370.3</ele></trkpt>
      <trkpt lat="46.16375" lon="4.12677"><ele>371.1</ele></trkpt>
      <trkpt lat="46.16369" lon="4.12663"><ele>371.8</ele></trkpt>
      <trkpt lat="46.16375" lon="4.12636"><ele>374.3</ele></trkpt>
      <trkpt lat="46.163813" lon="4.126163"><ele>376.3</ele></trkpt>
      <trkpt lat="46.163877" lon="4.125967"><ele>378.3</ele></trkpt>
      <trkpt lat="46.16394" lon="4.12577"><ele>379.5</ele></trkpt>
      <trkpt lat="46.16401" lon="4.12561"><ele>380.3</ele></trkpt>
      <trkpt lat="46.16408" lon="4.12545"><ele>381.0</ele></trkpt>
      <trkpt lat="46.16418" lon="4.12517"><ele>382.1</ele></trkpt>
      <trkpt lat="46.16423" lon="4.12499"><ele>382.7</ele></trkpt>
      <trkpt lat="46.16427" lon="4.12475"><ele>383.5</ele></trkpt>
      <trkpt lat="46.16428" lon="4.12457"><ele>383.7</ele></trkpt>
      <trkpt lat="46.164253" lon="4.1243"><ele>383.8</ele></trkpt>
      <trkpt lat="46.164227" lon="4.12403"><ele>384.1</ele></trkpt>
      <trkpt lat="46.1642" lon="4.12376"><ele>384.7</ele></trkpt>
      <trkpt lat="46.164195" lon="4.123513"><ele>384.7</ele></trkpt>
      <trkpt lat="46.16419" lon="4.123265"><ele>384.6</ele></trkpt>
      <trkpt lat="46.164185" lon="4.123017"><ele>384.6</ele></trkpt>
      <trkpt lat="46.16418" lon="4.12277"><ele>384.5</ele></trkpt>
      <trkpt lat="46.1642" lon="4.12252"><ele>384.4</ele></trkpt>
      <trkpt lat="46.164233" lon="4.1223"><ele>383.8</ele></trkpt>
      <trkpt lat="46.164267" lon="4.12208"><ele>382.7</ele></trkpt>
      <trkpt lat="46.1643" lon="4.12186"><ele>382.1</ele></trkpt>
      <trkpt lat="46.164305" lon="4.121625"><ele>381.0</ele></trkpt>
      <trkpt lat="46.16431" lon="4.12139"><ele>380.0</ele></trkpt>
      <trkpt lat="46.16434" lon="4.12125"><ele>379.0</ele></trkpt>
      <trkpt lat="46.16443" lon="4.12109"><ele>377.9</ele></trkpt>
      <trkpt lat="46.16455" lon="4.12127"><ele>378.1</ele></trkpt>
      <trkpt lat="46.16467" lon="4.12145"><ele>378.1</ele></trkpt>
      <trkpt lat="46.16479" lon="4.12163"><ele>377.9</ele></trkpt>
      <trkpt lat="46.16492" lon="4.121797"><ele>377.9</ele></trkpt>
      <trkpt lat="46.16505" lon="4.121963"><ele>377.8</ele></trkpt>
      <trkpt lat="46.16518" lon="4.12213"><ele>377.7</ele></trkpt>
      <trkpt lat="46.16531" lon="4.122323"><ele>378.0</ele></trkpt>
      <trkpt lat="46.16544" lon="4.122517"><ele>377.9</ele></trkpt>
      <trkpt lat="46.16557" lon="4.12271"><ele>378.1</ele></trkpt>
      <trkpt lat="46.16568" lon="4.1229"><ele>377.5</ele></trkpt>
      <trkpt lat="46.165755" lon="4.123105"><ele>377.3</ele></trkpt>
      <trkpt lat="46.16583" lon="4.12331"><ele>377.2</ele></trkpt>
      <trkpt lat="46.16588" lon="4.123505"><ele>376.9</ele></trkpt>
      <trkpt lat="46.16593" lon="4.1237"><ele>377.0</ele></trkpt>
      <trkpt lat="46.16591" lon="4.12362"><ele>376.8</ele></trkpt>
      <trkpt lat="46.16598" lon="4.12357"><ele>376.3</ele></trkpt>
      <trkpt lat="46.16604" lon="4.1235"><ele>375.9</ele></trkpt>
      <trkpt lat="46.16618" lon="4.12328"><ele>374.3</ele></trkpt>
      <trkpt lat="46.16632" lon="4.12306"><ele>372.4</ele></trkpt>
      <trkpt lat="46.16646" lon="4.12284"><ele>370.9</ele></trkpt>
      <trkpt lat="46.166605" lon="4.12263"><ele>369.7</ele></trkpt>
      <trkpt lat="46.16675" lon="4.12242"><ele>367.4</ele></trkpt>
      <trkpt lat="46.16686" lon="4.12223"><ele>365.6</ele></trkpt>
      <trkpt lat="46.16693" lon="4.121985"><ele>363.3</ele></trkpt>
      <trkpt lat="46.167" lon="4.12174"><ele>359.5</ele></trkpt>
      <trkpt lat="46.16688" lon="4.12164"><ele>361.1</ele></trkpt>
      <trkpt lat="46.16676" lon="4.12154"><ele>362.1</ele></trkpt>
      <trkpt lat="46.16667" lon="4.12145"><ele>362.5</ele></trkpt>
      <trkpt lat="46.1666" lon="4.12134"><ele>362.6</ele></trkpt>
      <trkpt lat="46.166483" lon="4.121112"><ele>362.0</ele></trkpt>
      <trkpt lat="46.166365" lon="4.120885"><ele>361.5</ele></trkpt>
      <trkpt lat="46.166248" lon="4.120658"><ele>361.2</ele></trkpt>
      <trkpt lat="46.16613" lon="4.12043"><ele>361.2</ele></trkpt>
      <trkpt lat="46.166065" lon="4.12029"><ele>360.7</ele></trkpt>
      <trkpt lat="46.166" lon="4.12015"><ele>360.2</ele></trkpt>
      <trkpt lat="46.16592" lon="4.11993"><ele>359.0</ele></trkpt>
      <trkpt lat="46.165815" lon="4.11973"><ele>358.3</ele></trkpt>
      <trkpt lat="46.16571" lon="4.11953"><ele>357.8</ele></trkpt>
      <trkpt lat="46.16558" lon="4.11936"><ele>357.5</ele></trkpt>
      <trkpt lat="46.16542" lon="4.119235"><ele>357.6</ele></trkpt>
      <trkpt lat="46.16526" lon="4.11911"><ele>357.5</ele></trkpt>
      <trkpt lat="46.16511" lon="4.11894"><ele>356.9</ele></trkpt>
      <trkpt lat="46.16497" lon="4.11873"><ele>356.1</ele></trkpt>
      <trkpt lat="46.164885" lon="4.11858"><ele>355.6</ele></trkpt>
      <trkpt lat="46.1648" lon="4.11843"><ele>355.3</ele></trkpt>
      <trkpt lat="46.16469" lon="4.11819"><ele>353.5</ele></trkpt>
      <trkpt lat="46.16458" lon="4.11802"><ele>353.5</ele></trkpt>
      <trkpt lat="46.16443" lon="4.11784"><ele>353.3</ele></trkpt>
      <trkpt lat="46.16433" lon="4.117765"><ele>353.3</ele></trkpt>
      <trkpt lat="46.16423" lon="4.11769"><ele>353.5</ele></trkpt>
      <trkpt lat="46.164125" lon="4.11763"><ele>353.5</ele></trkpt>
      <trkpt lat="46.16402" lon="4.11757"><ele>354.3</ele></trkpt>
      <trkpt lat="46.16381" lon="4.11752"><ele>355.3</ele></trkpt>
      <trkpt lat="46.163635" lon="4.117495"><ele>355.8</ele></trkpt>
      <trkpt lat="46.16346" lon="4.11747"><ele>356.8</ele></trkpt>
      <trkpt lat="46.16326" lon="4.11749"><ele>358.8</ele></trkpt>
      <trkpt lat="46.16315" lon="4.11754"><ele>359.7</ele></trkpt>
      <trkpt lat="46.16322" lon="4.11773"><ele>361.6</ele></trkpt>
      <trkpt lat="46.16327" lon="4.11794"><ele>362.7</ele></trkpt>
      <trkpt lat="46.16329" lon="4.11815"><ele>365.1</ele></trkpt>
      <trkpt lat="46.16315" lon="4.11827"><ele>366.5</ele></trkpt>
      <trkpt lat="46.16302" lon="4.11841"><ele>367.7</ele></trkpt>
      <trkpt lat="46.16289" lon="4.1186"><ele>369.4</ele></trkpt>
      <trkpt lat="46.162757" lon="4.11886"><ele>370.6</ele></trkpt>
      <trkpt lat="46.162623" lon="4.11912"><ele>371.1</ele></trkpt>
      <trkpt lat="46.16249" lon="4.11938"><ele>370.8</ele></trkpt>
      <trkpt lat="46.16228" lon="4.11933"><ele>369.6</ele></trkpt>
      <trkpt lat="46.16207" lon="4.1193"><ele>368.1</ele></trkpt>
      <trkpt lat="46.16186" lon="4.11927"><ele>366.3</ele></trkpt>
      <trkpt lat="46.161672" lon="4.119252"><ele>364.0</ele></trkpt>
      <trkpt lat="46.161484" lon="4.119234"><ele>361.9</ele></trkpt>
      <trkpt lat="46.161296" lon="4.119216"><ele>359.8</ele></trkpt>
      <trkpt lat="46.161108" lon="4.119198"><ele>357.6</ele></trkpt>
      <trkpt lat="46.16092" lon="4.11918"><ele>356.0</ele></trkpt>
      <trkpt lat="46.16085" lon="4.11916"><ele>355.2</ele></trkpt>
      <trkpt lat="46.16065" lon="4.11903"><ele>353.2</ele></trkpt>
      <trkpt lat="46.16049" lon="4.11887"><ele>351.0</ele></trkpt>
      <trkpt lat="46.16033" lon="4.11871"><ele>349.1</ele></trkpt>
      <trkpt lat="46.16017" lon="4.11855"><ele>346.9</ele></trkpt>
      <trkpt lat="46.160037" lon="4.11837"><ele>345.0</ele></trkpt>
      <trkpt lat="46.159903" lon="4.11819"><ele>343.0</ele></trkpt>
      <trkpt lat="46.15977" lon="4.11801"><ele>341.0</ele></trkpt>
      <trkpt lat="46.15974" lon="4.11793"><ele>340.4</ele></trkpt>
      <trkpt lat="46.15972" lon="4.11775"><ele>340.0</ele></trkpt>
      <trkpt lat="46.15979" lon="4.11754"><ele>340.6</ele></trkpt>
      <trkpt lat="46.15986" lon="4.11733"><ele>340.2</ele></trkpt>
      <trkpt lat="46.159943" lon="4.11712"><ele>340.0</ele></trkpt>
      <trkpt lat="46.160027" lon="4.11691"><ele>339.6</ele></trkpt>
      <trkpt lat="46.16011" lon="4.1167"><ele>339.6</ele></trkpt>
      <trkpt lat="46.16018" lon="4.11645"><ele>339.0</ele></trkpt>
      <trkpt lat="46.160277" lon="4.116193"><ele>338.7</ele></trkpt>
      <trkpt lat="46.160374" lon="4.115936"><ele>338.3</ele></trkpt>
      <trkpt lat="46.160471" lon="4.115679"><ele>338.2</ele></trkpt>
      <trkpt lat="46.160569" lon="4.115421"><ele>338.5</ele></trkpt>
      <trkpt lat="46.160666" lon="4.115164"><ele>338.0</ele></trkpt>
      <trkpt lat="46.160763" lon="4.114907"><ele>337.3</ele></trkpt>
      <trkpt lat="46.16086" lon="4.11465"><ele>336.2</ele></trkpt>
      <trkpt lat="46.16071" lon="4.11461"><ele>334.2</ele></trkpt>
      <trkpt lat="46.16059" lon="4.114615"><ele>332.6</ele></trkpt>
      <trkpt lat="46.16047" lon="4.11462"><ele>330.9</ele></trkpt>
      <trkpt lat="46.16028" lon="4.11458"><ele>328.5</ele></trkpt>
      <trkpt lat="46.160097" lon="4.11445"><ele>325.6</ele></trkpt>
      <trkpt lat="46.159913" lon="4.11432"><ele>321.8</ele></trkpt>
      <trkpt lat="46.15973" lon="4.11419"><ele>318.3</ele></trkpt>
      <trkpt lat="46.15956" lon="4.11412"><ele>315.2</ele></trkpt>
      <trkpt lat="46.15945" lon="4.11411"><ele>313.9</ele></trkpt>
      <trkpt lat="46.15932" lon="4.11412"><ele>311.8</ele></trkpt>
      <trkpt lat="46.15916" lon="4.114173"><ele>309.5</ele></trkpt>
      <trkpt lat="46.159" lon="4.114227"><ele>306.9</ele></trkpt>
      <trkpt lat="46.15884" lon="4.11428"><ele>303.8</ele></trkpt>
      <trkpt lat="46.15865" lon="4.114285"><ele>301.5</ele></trkpt>
      <trkpt lat="46.15846" lon="4.11429"><ele>299.4</ele></trkpt>
      <trkpt lat="46.15849" lon="4.11444"><ele>300.4</ele></trkpt>
      <trkpt lat="46.15849" lon="4.11452"><ele>300.8</ele></trkpt>
      <trkpt lat="46.15845" lon="4.11475"><ele>301.6</ele></trkpt>
      <trkpt lat="46.158367" lon="4.114983"><ele>302.1</ele></trkpt>
      <trkpt lat="46.158283" lon="4.115217"><ele>302.3</ele></trkpt>
      <trkpt lat="46.1582" lon="4.11545"><ele>302.7</ele></trkpt>
      <trkpt lat="46.158125" lon="4.115755"><ele>303.0</ele></trkpt>
      <trkpt lat="46.15805" lon="4.11606"><ele>303.7</ele></trkpt>
      <trkpt lat="46.15802" lon="4.11633"><ele>304.1</ele></trkpt>
      <trkpt lat="46.15803" lon="4.11661"><ele>305.3</ele></trkpt>
      <trkpt lat="46.15806" lon="4.11679"><ele>306.0</ele></trkpt>
      <trkpt lat="46.15809" lon="4.11697"><ele>307.1</ele></trkpt>
      <trkpt lat="46.158117" lon="4.11721"><ele>308.4</ele></trkpt>
      <trkpt lat="46.158143" lon="4.11745"><ele>309.5</ele></trkpt>
      <trkpt lat="46.15817" lon="4.11769"><ele>311.1</ele></trkpt>
      <trkpt lat="46.158165" lon="4.117905"><ele>311.8</ele></trkpt>
      <trkpt lat="46.15816" lon="4.11812"><ele>312.0</ele></trkpt>
      <trkpt lat="46.158128" lon="4.11836"><ele>311.6</ele></trkpt>
      <trkpt lat="46.158095" lon="4.1186"><ele>311.4</ele></trkpt>
      <trkpt lat="46.158063" lon="4.11884"><ele>311.2</ele></trkpt>
      <trkpt lat="46.15803" lon="4.11908"><ele>311.4</ele></trkpt>
      <trkpt lat="46.158153" lon="4.119243"><ele>312.6</ele></trkpt>
      <trkpt lat="46.158277" lon="4.119407"><ele>314.2</ele></trkpt>
      <trkpt lat="46.1584" lon="4.11957"><ele>315.4</ele></trkpt>
      <trkpt lat="46.15858" lon="4.11972"><ele>317.1</ele></trkpt>
      <trkpt lat="46.15872" lon="4.11977"><ele>319.4</ele></trkpt>
      <trkpt lat="46.158883" lon="4.119773"><ele>321.3</ele></trkpt>
      <trkpt lat="46.159047" lon="4.119777"><ele>323.6</ele></trkpt>
      <trkpt lat="46.15921" lon="4.11978"><ele>326.2</ele></trkpt>
      <trkpt lat="46.15927" lon="4.11979"><ele>326.4</ele></trkpt>
      <trkpt lat="46.15937" lon="4.11985"><ele>327.7</ele></trkpt>
      <trkpt lat="46.15946" lon="4.12006"><ele>328.0</ele></trkpt>
      <trkpt lat="46.159525" lon="4.120275"><ele>328.2</ele></trkpt>
      <trkpt lat="46.15959" lon="4.12049"><ele>328.5</ele></trkpt>
      <trkpt lat="46.15971" lon="4.1207"><ele>329.5</ele></trkpt>
      <trkpt lat="46.15987" lon="4.12092"><ele>331.1</ele></trkpt>
      <trkpt lat="46.15997" lon="4.1211"><ele>333.0</ele></trkpt>
      <trkpt lat="46.16002" lon="4.12122"><ele>333.9</ele></trkpt>
      <trkpt lat="46.160055" lon="4.121455"><ele>334.8</ele></trkpt>
      <trkpt lat="46.16009" lon="4.12169"><ele>335.5</ele></trkpt>
      <trkpt lat="46.16009" lon="4.121855"><ele>336.2</ele></trkpt>
      <trkpt lat="46.16009" lon="4.12202"><ele>336.7</ele></trkpt>
      <trkpt lat="46.160053" lon="4.122263"><ele>337.1</ele></trkpt>
      <trkpt lat="46.160017" lon="4.122507"><ele>337.6</ele></trkpt>
      <trkpt lat="46.15998" lon="4.12275"><ele>338.3</ele></trkpt>
      <trkpt lat="46.15999" lon="4.12301"><ele>339.0</ele></trkpt>
      <trkpt lat="46.16" lon="4.12327"><ele>340.0</ele></trkpt>
      <trkpt lat="46.16003" lon="4.12346"><ele>340.8</ele></trkpt>
      <trkpt lat="46.16006" lon="4.12365"><ele>341.8</ele></trkpt>
      <trkpt lat="46.16015" lon="4.12384"><ele>342.7</ele></trkpt>
      <trkpt lat="46.1603" lon="4.12406"><ele>344.4</ele></trkpt>
      <trkpt lat="46.1604" lon="4.12423"><ele>345.9</ele></trkpt>
      <trkpt lat="46.1605" lon="4.1244"><ele>347.3</ele></trkpt>
      <trkpt lat="46.160625" lon="4.124632"><ele>349.6</ele></trkpt>
      <trkpt lat="46.16075" lon="4.124865"><ele>352.0</ele></trkpt>
      <trkpt lat="46.160875" lon="4.125098"><ele>354.4</ele></trkpt>
      <trkpt lat="46.161" lon="4.12533"><ele>356.6</ele></trkpt>
      <trkpt lat="46.161077" lon="4.125567"><ele>357.8</ele></trkpt>
      <trkpt lat="46.161153" lon="4.125803"><ele>358.7</ele></trkpt>
      <trkpt lat="46.16123" lon="4.12604"><ele>359.6</ele></trkpt>
      <trkpt lat="46.16133" lon="4.126285"><ele>360.1</ele></trkpt>
      <trkpt lat="46.16143" lon="4.12653"><ele>360.3</ele></trkpt>
      <trkpt lat="46.16153" lon="4.12672"><ele>359.8</ele></trkpt>
      <trkpt lat="46.16167" lon="4.12686"><ele>359.7</ele></trkpt>
      <trkpt lat="46.16156" lon="4.12686"><ele>359.5</ele></trkpt>
      <trkpt lat="46.16143" lon="4.12683"><ele>358.5</ele></trkpt>
      <trkpt lat="46.161254" lon="4.12675"><ele>357.8</ele></trkpt>
      <trkpt lat="46.161078" lon="4.12667"><ele>356.4</ele></trkpt>
      <trkpt lat="46.160902" lon="4.12659"><ele>354.7</ele></trkpt>
      <trkpt lat="46.160726" lon="4.12651"><ele>353.4</ele></trkpt>
      <trkpt lat="46.16055" lon="4.12643"><ele>351.3</ele></trkpt>
      <trkpt lat="46.160333" lon="4.126343"><ele>349.3</ele></trkpt>
      <trkpt lat="46.160117" lon="4.126257"><ele>346.5</ele></trkpt>
      <trkpt lat="46.1599" lon="4.12617"><ele>343.8</ele></trkpt>
      <trkpt lat="46.159785" lon="4.12611"><ele>342.4</ele></trkpt>
      <trkpt lat="46.15967" lon="4.12605"><ele>341.7</ele></trkpt>
      <trkpt lat="46.159535" lon="4.12595"><ele>340.3</ele></trkpt>
      <trkpt lat="46.1594" lon="4.12585"><ele>338.1</ele></trkpt>
      <trkpt lat="46.159245" lon="4.1257"><ele>336.3</ele></trkpt>
      <trkpt lat="46.15909" lon="4.12555"><ele>333.9</ele></trkpt>
      <trkpt lat="46.158927" lon="4.125345"><ele>331.4</ele></trkpt>
      <trkpt lat="46.158765" lon="4.125139"><ele>329.7</ele></trkpt>
      <trkpt lat="46.158602" lon="4.124934"><ele>327.7</ele></trkpt>
      <trkpt lat="46.158439" lon="4.124728"><ele>325.1</ele></trkpt>
      <trkpt lat="46.158276" lon="4.124523"><ele>323.0</ele></trkpt>
      <trkpt lat="46.158114" lon="4.124317"><ele>321.0</ele></trkpt>
      <trkpt lat="46.157951" lon="4.124112"><ele>319.1</ele></trkpt>
      <trkpt lat="46.157788" lon="4.123906"><ele>317.4</ele></trkpt>
      <trkpt lat="46.157625" lon="4.123701"><ele>315.8</ele></trkpt>
      <trkpt lat="46.157463" lon="4.123495"><ele>314.8</ele></trkpt>
      <trkpt lat="46.1573" lon="4.12329"><ele>314.1</ele></trkpt>
      <trkpt lat="46.15712" lon="4.12315"><ele>312.6</ele></trkpt>
      <trkpt lat="46.15706" lon="4.12324"><ele>311.6</ele></trkpt>
      <trkpt lat="46.156855" lon="4.12333"><ele>308.7</ele></trkpt>
      <trkpt lat="46.15665" lon="4.12342"><ele>305.2</ele></trkpt>
      <trkpt lat="46.15656" lon="4.12343"><ele>303.7</ele></trkpt>
      <trkpt lat="46.156348" lon="4.123388"><ele>300.1</ele></trkpt>
      <trkpt lat="46.156137" lon="4.123347"><ele>296.3</ele></trkpt>
      <trkpt lat="46.155925" lon="4.123305"><ele>293.6</ele></trkpt>
      <trkpt lat="46.155713" lon="4.123263"><ele>289.9</ele></trkpt>
      <trkpt lat="46.155502" lon="4.123222"><ele>286.2</ele></trkpt>
      <trkpt lat="46.15529" lon="4.12318"><ele>283.4</ele></trkpt>
      <trkpt lat="46.15508" lon="4.12313"><ele>281.4</ele></trkpt>
      <trkpt lat="46.15487" lon="4.12308"><ele>279.9</ele></trkpt>
      <trkpt lat="46.154675" lon="4.12305"><ele>278.1</ele></trkpt>
      <trkpt lat="46.15448" lon="4.12302"><ele>277.2</ele></trkpt>
      <trkpt lat="46.15432" lon="4.12301"><ele>276.1</ele></trkpt>
      <trkpt lat="46.15423" lon="4.12302"><ele>275.6</ele></trkpt>
      <trkpt lat="46.15407" lon="4.1231"><ele>274.5</ele></trkpt>
      <trkpt lat="46.15391" lon="4.12318"><ele>273.6</ele></trkpt>
      <trkpt lat="46.15375" lon="4.12326"><ele>272.3</ele></trkpt>
      <trkpt lat="46.15369" lon="4.12303"><ele>270.9</ele></trkpt>
      <trkpt lat="46.15363" lon="4.1228"><ele>269.8</ele></trkpt>
      <trkpt lat="46.15362" lon="4.122635"><ele>269.3</ele></trkpt>
      <trkpt lat="46.15361" lon="4.12247"><ele>268.9</ele></trkpt>
      <trkpt lat="46.15358" lon="4.12233"><ele>268.5</ele></trkpt>
      <trkpt lat="46.15363" lon="4.12209"><ele>268.2</ele></trkpt>
      <trkpt lat="46.15363" lon="4.12203"><ele>268.2</ele></trkpt>
      <trkpt lat="46.15365" lon="4.12186"><ele>268.0</ele></trkpt>
      <trkpt lat="46.15367" lon="4.12158"><ele>267.7</ele></trkpt>
      <trkpt lat="46.15367" lon="4.1215"><ele>267.6</ele></trkpt>
    </trkseg>
  </trk>
</gpx>
