<?xml version="1.0" encoding="UTF-8"?>
<gpx version="1.1" creator="Marche APEL Saint-Nizier-sous-Charlieu" xmlns="http://www.topografix.com/GPX/1/1" xmlns:xsi="http://www.w3.org/2001/XMLSchema-instance" xsi:schemaLocation="http://www.topografix.com/GPX/1/1 http://www.topografix.com/GPX/1/1/gpx.xsd">
  <metadata><name>Marche APEL VTT 22 km</name></metadata>
  <trk>
    <name>Marche APEL VTT 22 km</name>
    <type>mountain_biking</type>
    <trkseg>
      <trkpt lat="46.153641" lon="4.120595"><ele>266.9</ele></trkpt>
      <trkpt lat="46.153655" lon="4.120918"><ele>267.3</ele></trkpt>
      <trkpt lat="46.15367" lon="4.12124"><ele>267.4</ele></trkpt>
      <trkpt lat="46.153665" lon="4.1215"><ele>267.6</ele></trkpt>
      <trkpt lat="46.15366" lon="4.12176"><ele>267.9</ele></trkpt>
      <trkpt lat="46.15364" lon="4.121955"><ele>268.1</ele></trkpt>
      <trkpt lat="46.15362" lon="4.12215"><ele>268.3</ele></trkpt>
      <trkpt lat="46.15356" lon="4.12238"><ele>268.5</ele></trkpt>
      <trkpt lat="46.15359" lon="4.12241"><ele>268.7</ele></trkpt>
      <trkpt lat="46.15362" lon="4.1225"><ele>269.0</ele></trkpt>
      <trkpt lat="46.153635" lon="4.12272"><ele>269.5</ele></trkpt>
      <trkpt lat="46.15365" lon="4.12294"><ele>270.2</ele></trkpt>
      <trkpt lat="46.1537" lon="4.123095"><ele>271.6</ele></trkpt>
      <trkpt lat="46.15375" lon="4.12325"><ele>272.3</ele></trkpt>
      <trkpt lat="46.15391" lon="4.123177"><ele>273.7</ele></trkpt>
      <trkpt lat="46.15407" lon="4.123103"><ele>274.5</ele></trkpt>
      <trkpt lat="46.15423" lon="4.12303"><ele>275.6</ele></trkpt>
      <trkpt lat="46.15436" lon="4.123"><ele>276.7</ele></trkpt>
      <trkpt lat="46.15456" lon="4.123033"><ele>277.8</ele></trkpt>
      <trkpt lat="46.15476" lon="4.123067"><ele>278.7</ele></trkpt>
      <trkpt lat="46.15496" lon="4.1231"><ele>280.1</ele></trkpt>
      <trkpt lat="46.155163" lon="4.123147"><ele>281.9</ele></trkpt>
      <trkpt lat="46.155366" lon="4.123194"><ele>283.9</ele></trkpt>
      <trkpt lat="46.155569" lon="4.123241"><ele>286.9</ele></trkpt>
      <trkpt lat="46.155771" lon="4.123289"><ele>290.3</ele></trkpt>
      <trkpt lat="46.155974" lon="4.123336"><ele>293.7</ele></trkpt>
      <trkpt lat="46.156177" lon="4.123383"><ele>296.5</ele></trkpt>
      <trkpt lat="46.15638" lon="4.12343"><ele>300.1</ele></trkpt>
      <trkpt lat="46.156505" lon="4.12344"><ele>302.3</ele></trkpt>
      <trkpt lat="46.15663" lon="4.12345"><ele>304.9</ele></trkpt>
      <trkpt lat="46.156835" lon="4.123355"><ele>308.7</ele></trkpt>
      <trkpt lat="46.15704" lon="4.12326"><ele>311.2</ele></trkpt>
      <trkpt lat="46.15709" lon="4.12322"><ele>312.3</ele></trkpt>
      <trkpt lat="46.15712" lon="4.12316"><ele>312.6</ele></trkpt>
      <trkpt lat="46.15727" lon="4.12328"><ele>313.6</ele></trkpt>
      <trkpt lat="46.157415" lon="4.123445"><ele>314.5</ele></trkpt>
      <trkpt lat="46.15756" lon="4.12361"><ele>315.5</ele></trkpt>
      <trkpt lat="46.15772" lon="4.123818"><ele>316.5</ele></trkpt>
      <trkpt lat="46.15788" lon="4.124027"><ele>317.9</ele></trkpt>
      <trkpt lat="46.15804" lon="4.124235"><ele>319.8</ele></trkpt>
      <trkpt lat="46.1582" lon="4.124443"><ele>322.3</ele></trkpt>
      <trkpt lat="46.15836" lon="4.124652"><ele>324.2</ele></trkpt>
      <trkpt lat="46.15852" lon="4.12486"><ele>326.3</ele></trkpt>
      <trkpt lat="46.158653" lon="4.125023"><ele>328.0</ele></trkpt>
      <trkpt lat="46.158785" lon="4.125185"><ele>329.6</ele></trkpt>
      <trkpt lat="46.158918" lon="4.125348"><ele>331.4</ele></trkpt>
      <trkpt lat="46.15905" lon="4.12551"><ele>333.4</ele></trkpt>
      <trkpt lat="46.159197" lon="4.12565"><ele>335.7</ele></trkpt>
      <trkpt lat="46.159343" lon="4.12579"><ele>337.5</ele></trkpt>
      <trkpt lat="46.15949" lon="4.12593"><ele>339.7</ele></trkpt>
      <trkpt lat="46.159615" lon="4.126015"><ele>340.8</ele></trkpt>
      <trkpt lat="46.15974" lon="4.1261"><ele>342.0</ele></trkpt>
      <trkpt lat="46.159883" lon="4.126167"><ele>343.8</ele></trkpt>
      <trkpt lat="46.160027" lon="4.126233"><ele>345.1</ele></trkpt>
      <trkpt lat="46.16017" lon="4.1263"><ele>346.8</ele></trkpt>
      <trkpt lat="46.160363" lon="4.126367"><ele>349.4</ele></trkpt>
      <trkpt lat="46.160557" lon="4.126433"><ele>351.3</ele></trkpt>
      <trkpt lat="46.16075" lon="4.1265"><ele>353.8</ele></trkpt>
      <trkpt lat="46.160935" lon="4.126588"><ele>355.1</ele></trkpt>
      <trkpt lat="46.16112" lon="4.126675"><ele>356.9</ele></trkpt>
      <trkpt lat="46.161305" lon="4.126763"><ele>358.1</ele></trkpt>
      <trkpt lat="46.16149" lon="4.12685"><ele>358.9</ele></trkpt>
      <trkpt lat="46.16158" lon="4.12682"><ele>359.5</ele></trkpt>
      <trkpt lat="46.16164" lon="4.12688"><ele>359.7</ele></trkpt>
      <trkpt lat="46.161755" lon="4.12693"><ele>360.0</ele></trkpt>
      <trkpt lat="46.16187" lon="4.12698"><ele>360.5</ele></trkpt>
      <trkpt lat="46.16203" lon="4.127015"><ele>361.2</ele></trkpt>
      <trkpt lat="46.16219" lon="4.12705"><ele>361.4</ele></trkpt>
      <trkpt lat="46.16241" lon="4.127045"><ele>362.8</ele></trkpt>
      <trkpt lat="46.16263" lon="4.12704"><ele>364.1</ele></trkpt>
      <trkpt lat="46.162832" lon="4.127016"><ele>364.8</ele></trkpt>
      <trkpt lat="46.163034" lon="4.126992"><ele>366.5</ele></trkpt>
      <trkpt lat="46.163236" lon="4.126968"><ele>367.0</ele></trkpt>
      <trkpt lat="46.163438" lon="4.126944"><ele>368.2</ele></trkpt>
      <trkpt lat="46.16364" lon="4.12692"><ele>369.2</ele></trkpt>
      <trkpt lat="46.16381" lon="4.12692"><ele>370.0</ele></trkpt>
      <trkpt lat="46.163745" lon="4.12677"><ele>371.1</ele></trkpt>
      <trkpt lat="46.16368" lon="4.12662"><ele>371.8</ele></trkpt>
      <trkpt lat="46.163567" lon="4.12645"><ele>372.6</ele></trkpt>
      <trkpt lat="46.163453" lon="4.12628"><ele>373.9</ele></trkpt>
      <trkpt lat="46.16334" lon="4.12611"><ele>375.2</ele></trkpt>
      <trkpt lat="46.16324" lon="4.125915"><ele>376.8</ele></trkpt>
      <trkpt lat="46.16314" lon="4.12572"><ele>377.5</ele></trkpt>
      <trkpt lat="46.16308" lon="4.12553"><ele>377.9</ele></trkpt>
      <trkpt lat="46.16308" lon="4.12531"><ele>378.8</ele></trkpt>
      <trkpt lat="46.163065" lon="4.125135"><ele>379.5</ele></trkpt>
      <trkpt lat="46.16305" lon="4.12496"><ele>380.0</ele></trkpt>
      <trkpt lat="46.16296" lon="4.12478"><ele>379.8</ele></trkpt>
      <trkpt lat="46.16281" lon="4.12458"><ele>379.4</ele></trkpt>
      <trkpt lat="46.16266" lon="4.12438"><ele>378.6</ele></trkpt>
      <trkpt lat="46.162585" lon="4.12418"><ele>378.5</ele></trkpt>
      <trkpt lat="46.16251" lon="4.12398"><ele>377.9</ele></trkpt>
      <trkpt lat="46.16242" lon="4.123807"><ele>377.0</ele></trkpt>
      <trkpt lat="46.16233" lon="4.123633"><ele>376.0</ele></trkpt>
      <trkpt lat="46.16224" lon="4.12346"><ele>374.9</ele></trkpt>
      <trkpt lat="46.16216" lon="4.12319"><ele>373.7</ele></trkpt>
      <trkpt lat="46.16214" lon="4.12307"><ele>373.1</ele></trkpt>
      <trkpt lat="46.16213" lon="4.122833"><ele>372.7</ele></trkpt>
      <trkpt lat="46.16212" lon="4.122597"><ele>372.1</ele></trkpt>
      <trkpt lat="46.16211" lon="4.12236"><ele>371.5</ele></trkpt>
      <trkpt lat="46.162075" lon="4.1221"><ele>370.3</ele></trkpt>
      <trkpt lat="46.16204" lon="4.12184"><ele>369.6</ele></trkpt>
      <trkpt lat="46.16203" lon="4.12164"><ele>369.7</ele></trkpt>
      <trkpt lat="46.16204" lon="4.121395"><ele>369.3</ele></trkpt>
      <trkpt lat="46.16205" lon="4.12115"><ele>369.1</ele></trkpt>
      <trkpt lat="46.16204" lon="4.120865"><ele>368.9</ele></trkpt>
      <trkpt lat="46.16203" lon="4.12058"><ele>368.9</ele></trkpt>
      <trkpt lat="46.16209" lon="4.12032"><ele>369.2</ele></trkpt>
      <trkpt lat="46.16215" lon="4.12015"><ele>369.7</ele></trkpt>
      <trkpt lat="46.16226" lon="4.11991"><ele>370.1</ele></trkpt>
      <trkpt lat="46.16237" lon="4.11967"><ele>370.8</ele></trkpt>
      <trkpt lat="46.16248" lon="4.11943"><ele>370.9</ele></trkpt>
      <trkpt lat="46.16235" lon="4.11936"><ele>369.9</ele></trkpt>
      <trkpt lat="46.16224" lon="4.11933"><ele>369.3</ele></trkpt>
      <trkpt lat="46.162023" lon="4.119297"><ele>367.8</ele></trkpt>
      <trkpt lat="46.161807" lon="4.119263"><ele>366.0</ele></trkpt>
      <trkpt lat="46.16159" lon="4.11923"><ele>363.5</ele></trkpt>
      <trkpt lat="46.161375" lon="4.119225"><ele>360.4</ele></trkpt>
      <trkpt lat="46.16116" lon="4.11922"><ele>358.1</ele></trkpt>
      <trkpt lat="46.16105" lon="4.1192"><ele>357.1</ele></trkpt>
      <trkpt lat="46.16092" lon="4.11916"><ele>356.0</ele></trkpt>
      <trkpt lat="46.16075" lon="4.11908"><ele>354.4</ele></trkpt>
      <trkpt lat="46.16061" lon="4.11899"><ele>352.5</ele></trkpt>
      <trkpt lat="46.16049" lon="4.11889"><ele>351.0</ele></trkpt>
      <trkpt lat="46.1604" lon="4.11879"><ele>350.1</ele></trkpt>
      <trkpt lat="46.160265" lon="4.118618"><ele>348.6</ele></trkpt>
      <trkpt lat="46.16013" lon="4.118445"><ele>346.3</ele></trkpt>
      <trkpt lat="46.159995" lon="4.118273"><ele>344.4</ele></trkpt>
      <trkpt lat="46.15986" lon="4.1181"><ele>342.2</ele></trkpt>
      <trkpt lat="46.1598" lon="4.118"><ele>341.5</ele></trkpt>
      <trkpt lat="46.15976" lon="4.11788"><ele>340.7</ele></trkpt>
      <trkpt lat="46.15975" lon="4.11765"><ele>340.3</ele></trkpt>
      <trkpt lat="46.15978" lon="4.11751"><ele>339.9</ele></trkpt>
      <trkpt lat="46.15986" lon="4.11732"><ele>340.2</ele></trkpt>
      <trkpt lat="46.15994" lon="4.11713"><ele>340.2</ele></trkpt>
      <trkpt lat="46.16002" lon="4.11694"><ele>339.9</ele></trkpt>
      <trkpt lat="46.160103" lon="4.1167"><ele>339.6</ele></trkpt>
      <trkpt lat="46.160187" lon="4.11646"><ele>339.0</ele></trkpt>
      <trkpt lat="46.16027" lon="4.11622"><ele>338.7</ele></trkpt>
      <trkpt lat="46.16037" lon="4.11596"><ele>338.3</ele></trkpt>
      <trkpt lat="46.16047" lon="4.1157"><ele>338.2</ele></trkpt>
      <trkpt lat="46.16057" lon="4.11544"><ele>338.5</ele></trkpt>
      <trkpt lat="46.16067" lon="4.11518"><ele>338.0</ele></trkpt>
      <trkpt lat="46.16077" lon="4.11492"><ele>337.3</ele></trkpt>
      <trkpt lat="46.16087" lon="4.11466"><ele>336.6</ele></trkpt>
      <trkpt lat="46.16069" lon="4.1146"><ele>334.2</ele></trkpt>
      <trkpt lat="46.16057" lon="4.11461"><ele>332.6</ele></trkpt>
      <trkpt lat="46.16045" lon="4.11462"><ele>330.9</ele></trkpt>
      <trkpt lat="46.16027" lon="4.11457"><ele>328.5</ele></trkpt>
      <trkpt lat="46.16013" lon="4.114467"><ele>325.9</ele></trkpt>
      <trkpt lat="46.15999" lon="4.114363"><ele>323.2</ele></trkpt>
      <trkpt lat="46.15985" lon="4.11426"><ele>320.9</ele></trkpt>
      <trkpt lat="46.15973" lon="4.114195"><ele>318.3</ele></trkpt>
      <trkpt lat="46.15961" lon="4.11413"><ele>316.1</ele></trkpt>
      <trkpt lat="46.159495" lon="4.114125"><ele>314.9</ele></trkpt>
      <trkpt lat="46.15938" lon="4.11412"><ele>312.5</ele></trkpt>
      <trkpt lat="46.159217" lon="4.11417"><ele>310.3</ele></trkpt>
      <trkpt lat="46.159053" lon="4.11422"><ele>307.6</ele></trkpt>
      <trkpt lat="46.15889" lon="4.11427"><ele>305.5</ele></trkpt>
      <trkpt lat="46.15869" lon="4.114285"><ele>302.1</ele></trkpt>
      <trkpt lat="46.15849" lon="4.1143"><ele>299.6</ele></trkpt>
      <trkpt lat="46.15842" lon="4.11423"><ele>298.7</ele></trkpt>
      <trkpt lat="46.1584" lon="4.11409"><ele>298.0</ele></trkpt>
      <trkpt lat="46.1584" lon="4.11393"><ele>297.3</ele></trkpt>
      <trkpt lat="46.15846" lon="4.11378"><ele>297.7</ele></trkpt>
      <trkpt lat="46.158545" lon="4.11364"><ele>297.6</ele></trkpt>
      <trkpt lat="46.15863" lon="4.1135"><ele>297.5</ele></trkpt>
      <trkpt lat="46.158767" lon="4.113327"><ele>297.6</ele></trkpt>
      <trkpt lat="46.158903" lon="4.113153"><ele>298.0</ele></trkpt>
      <trkpt lat="46.15904" lon="4.11298"><ele>298.5</ele></trkpt>
      <trkpt lat="46.159145" lon="4.11282"><ele>298.7</ele></trkpt>
      <trkpt lat="46.15925" lon="4.11266"><ele>298.0</ele></trkpt>
      <trkpt lat="46.15933" lon="4.11249"><ele>297.6</ele></trkpt>
      <trkpt lat="46.15942" lon="4.112253"><ele>297.0</ele></trkpt>
      <trkpt lat="46.15951" lon="4.112017"><ele>295.7</ele></trkpt>
      <trkpt lat="46.1596" lon="4.11178"><ele>294.9</ele></trkpt>
      <trkpt lat="46.159705" lon="4.11161"><ele>295.0</ele></trkpt>
      <trkpt lat="46.15981" lon="4.11144"><ele>294.8</ele></trkpt>
      <trkpt lat="46.15993" lon="4.11129"><ele>295.0</ele></trkpt>
      <trkpt lat="46.16011" lon="4.11113"><ele>295.1</ele></trkpt>
      <trkpt lat="46.160255" lon="4.111085"><ele>295.2</ele></trkpt>
      <trkpt lat="46.1604" lon="4.11104"><ele>295.1</ele></trkpt>
      <trkpt lat="46.1605" lon="4.11098"><ele>294.8</ele></trkpt>
      <trkpt lat="46.16051" lon="4.11095"><ele>294.8</ele></trkpt>
      <trkpt lat="46.16058" lon="4.11103"><ele>295.2</ele></trkpt>
      <trkpt lat="46.160702" lon="4.110786"><ele>293.3</ele></trkpt>
      <trkpt lat="46.160824" lon="4.110542"><ele>292.4</ele></trkpt>
      <trkpt lat="46.160946" lon="4.110298"><ele>292.7</ele></trkpt>
      <trkpt lat="46.161068" lon="4.110054"><ele>293.7</ele></trkpt>
      <trkpt lat="46.16119" lon="4.10981"><ele>295.3</ele></trkpt>
      <trkpt lat="46.16106" lon="4.10971"><ele>293.9</ele></trkpt>
      <trkpt lat="46.16093" lon="4.10961"><ele>292.5</ele></trkpt>
      <trkpt lat="46.16079" lon="4.10953"><ele>291.3</ele></trkpt>
      <trkpt lat="46.16062" lon="4.10944"><ele>290.0</ele></trkpt>
      <trkpt lat="46.16045" lon="4.10941"><ele>288.7</ele></trkpt>
      <trkpt lat="46.16037" lon="4.1092"><ele>287.9</ele></trkpt>
      <trkpt lat="46.16043" lon="4.108973"><ele>287.5</ele></trkpt>
      <trkpt lat="46.16049" lon="4.108747"><ele>287.6</ele></trkpt>
      <trkpt lat="46.16055" lon="4.10852"><ele>287.3</ele></trkpt>
      <trkpt lat="46.160633" lon="4.108337"><ele>287.4</ele></trkpt>
      <trkpt lat="46.160717" lon="4.108153"><ele>287.4</ele></trkpt>
      <trkpt lat="46.1608" lon="4.10797"><ele>287.7</ele></trkpt>
      <trkpt lat="46.160923" lon="4.107743"><ele>287.7</ele></trkpt>
      <trkpt lat="46.161047" lon="4.107517"><ele>287.5</ele></trkpt>
      <trkpt lat="46.16117" lon="4.10729"><ele>287.2</ele></trkpt>
      <trkpt lat="46.16124" lon="4.1072"><ele>287.1</ele></trkpt>
      <trkpt lat="46.16132" lon="4.10713"><ele>287.4</ele></trkpt>
      <trkpt lat="46.161455" lon="4.10704"><ele>287.6</ele></trkpt>
      <trkpt lat="46.16159" lon="4.10695"><ele>288.3</ele></trkpt>
      <trkpt lat="46.16169" lon="4.10685"><ele>288.6</ele></trkpt>
      <trkpt lat="46.1618" lon="4.1067"><ele>288.5</ele></trkpt>
      <trkpt lat="46.16193" lon="4.10649"><ele>288.1</ele></trkpt>
      <trkpt lat="46.16206" lon="4.10628"><ele>287.9</ele></trkpt>
      <trkpt lat="46.16219" lon="4.10607"><ele>287.5</ele></trkpt>
      <trkpt lat="46.16226" lon="4.105925"><ele>287.2</ele></trkpt>
      <trkpt lat="46.16233" lon="4.10578"><ele>287.2</ele></trkpt>
      <trkpt lat="46.16241" lon="4.10564"><ele>287.0</ele></trkpt>
      <trkpt lat="46.16249" lon="4.1055"><ele>286.6</ele></trkpt>
      <trkpt lat="46.162605" lon="4.10533"><ele>286.9</ele></trkpt>
      <trkpt lat="46.16272" lon="4.10516"><ele>287.4</ele></trkpt>
      <trkpt lat="46.16288" lon="4.10496"><ele>287.8</ele></trkpt>
      <trkpt lat="46.16303" lon="4.104825"><ele>288.1</ele></trkpt>
      <trkpt lat="46.16318" lon="4.10469"><ele>288.6</ele></trkpt>
      <trkpt lat="46.16333" lon="4.104555"><ele>289.0</ele></trkpt>
      <trkpt lat="46.16348" lon="4.10442"><ele>289.6</ele></trkpt>
      <trkpt lat="46.163645" lon="4.104295"><ele>289.8</ele></trkpt>
      <trkpt lat="46.16381" lon="4.10417"><ele>290.5</ele></trkpt>
      <trkpt lat="46.16397" lon="4.10411"><ele>291.1</ele></trkpt>
      <trkpt lat="46.16419" lon="4.1041"><ele>291.9</ele></trkpt>
      <trkpt lat="46.164403" lon="4.104147"><ele>292.4</ele></trkpt>
      <trkpt lat="46.164617" lon="4.104193"><ele>293.1</ele></trkpt>
      <trkpt lat="46.16483" lon="4.10424"><ele>293.9</ele></trkpt>
      <trkpt lat="46.16483" lon="4.10417"><ele>293.7</ele></trkpt>
      <trkpt lat="46.164777" lon="4.10395"><ele>292.0</ele></trkpt>
      <trkpt lat="46.164723" lon="4.10373"><ele>291.5</ele></trkpt>
      <trkpt lat="46.16467" lon="4.10351"><ele>289.9</ele></trkpt>
      <trkpt lat="46.16463" lon="4.10327"><ele>288.8</ele></trkpt>
      <trkpt lat="46.16459" lon="4.10303"><ele>287.5</ele></trkpt>
      <trkpt lat="46.164595" lon="4.10278"><ele>286.1</ele></trkpt>
      <trkpt lat="46.1646" lon="4.10253"><ele>284.6</ele></trkpt>
      <trkpt lat="46.16459" lon="4.10238"><ele>283.6</ele></trkpt>
      <trkpt lat="46.16457" lon="4.10234"><ele>283.3</ele></trkpt>
      <trkpt lat="46.164605" lon="4.102175"><ele>283.1</ele></trkpt>
      <trkpt lat="46.16464" lon="4.10201"><ele>282.4</ele></trkpt>
      <trkpt lat="46.164705" lon="4.101865"><ele>282.2</ele></trkpt>
      <trkpt lat="46.16477" lon="4.10172"><ele>282.3</ele></trkpt>
      <trkpt lat="46.164919" lon="4.101504"><ele>281.6</ele></trkpt>
      <trkpt lat="46.165067" lon="4.101289"><ele>281.5</ele></trkpt>
      <trkpt lat="46.165216" lon="4.101073"><ele>281.1</ele></trkpt>
      <trkpt lat="46.165364" lon="4.100857"><ele>280.7</ele></trkpt>
      <trkpt lat="46.165513" lon="4.100641"><ele>281.2</ele></trkpt>
      <trkpt lat="46.165661" lon="4.100426"><ele>280.6</ele></trkpt>
      <trkpt lat="46.16581" lon="4.10021"><ele>280.3</ele></trkpt>
      <trkpt lat="46.16593" lon="4.10007"><ele>279.9</ele></trkpt>
      <trkpt lat="46.166103" lon="4.099917"><ele>279.4</ele></trkpt>
      <trkpt lat="46.166277" lon="4.099763"><ele>279.6</ele></trkpt>
      <trkpt lat="46.16645" lon="4.09961"><ele>279.2</ele></trkpt>
      <trkpt lat="46.16658" lon="4.099487"><ele>279.0</ele></trkpt>
      <trkpt lat="46.16671" lon="4.099363"><ele>278.9</ele></trkpt>
      <trkpt lat="46.16684" lon="4.09924"><ele>278.0</ele></trkpt>
      <trkpt lat="46.167003" lon="4.099105"><ele>277.8</ele></trkpt>
      <trkpt lat="46.167165" lon="4.09897"><ele>276.7</ele></trkpt>
      <trkpt lat="46.167328" lon="4.098835"><ele>277.0</ele></trkpt>
      <trkpt lat="46.16749" lon="4.0987"><ele>277.1</ele></trkpt>
      <trkpt lat="46.167617" lon="4.09858"><ele>276.6</ele></trkpt>
      <trkpt lat="46.167743" lon="4.09846"><ele>277.2</ele></trkpt>
      <trkpt lat="46.16787" lon="4.09834"><ele>277.2</ele></trkpt>
      <trkpt lat="46.16803" lon="4.09816"><ele>276.7</ele></trkpt>
      <trkpt lat="46.168175" lon="4.09805"><ele>275.4</ele></trkpt>
      <trkpt lat="46.16832" lon="4.09794"><ele>274.1</ele></trkpt>
      <trkpt lat="46.168445" lon="4.09782"><ele>273.4</ele></trkpt>
      <trkpt lat="46.16857" lon="4.0977"><ele>273.0</ele></trkpt>
      <trkpt lat="46.168697" lon="4.097477"><ele>270.3</ele></trkpt>
      <trkpt lat="46.168823" lon="4.097253"><ele>268.8</ele></trkpt>
      <trkpt lat="46.16895" lon="4.09703"><ele>268.8</ele></trkpt>
      <trkpt lat="46.169055" lon="4.096905"><ele>269.4</ele></trkpt>
      <trkpt lat="46.16916" lon="4.09678"><ele>271.0</ele></trkpt>
      <trkpt lat="46.16936" lon="4.096898"><ele>273.4</ele></trkpt>
      <trkpt lat="46.16956" lon="4.097015"><ele>275.6</ele></trkpt>
      <trkpt lat="46.16976" lon="4.097133"><ele>278.3</ele></trkpt>
      <trkpt lat="46.16996" lon="4.09725"><ele>280.8</ele></trkpt>
      <trkpt lat="46.170125" lon="4.0973"><ele>282.3</ele></trkpt>
      <trkpt lat="46.17029" lon="4.09735"><ele>284.4</ele></trkpt>
      <trkpt lat="46.170483" lon="4.09733"><ele>286.8</ele></trkpt>
      <trkpt lat="46.170677" lon="4.09731"><ele>288.4</ele></trkpt>
      <trkpt lat="46.17087" lon="4.09729"><ele>290.2</ele></trkpt>
      <trkpt lat="46.171053" lon="4.097305"><ele>292.1</ele></trkpt>
      <trkpt lat="46.171235" lon="4.09732"><ele>294.1</ele></trkpt>
      <trkpt lat="46.171418" lon="4.097335"><ele>296.7</ele></trkpt>
      <trkpt lat="46.1716" lon="4.09735"><ele>299.0</ele></trkpt>
      <trkpt lat="46.1718" lon="4.097345"><ele>301.1</ele></trkpt>
      <trkpt lat="46.172" lon="4.09734"><ele>303.0</ele></trkpt>
      <trkpt lat="46.17209" lon="4.09736"><ele>303.8</ele></trkpt>
      <trkpt lat="46.17214" lon="4.09739"><ele>304.2</ele></trkpt>
      <trkpt lat="46.1722" lon="4.09745"><ele>304.9</ele></trkpt>
      <trkpt lat="46.17229" lon="4.09763"><ele>306.4</ele></trkpt>
      <trkpt lat="46.172368" lon="4.09788"><ele>308.4</ele></trkpt>
      <trkpt lat="46.172447" lon="4.09813"><ele>310.2</ele></trkpt>
      <trkpt lat="46.172525" lon="4.09838"><ele>312.3</ele></trkpt>
      <trkpt lat="46.172603" lon="4.09863"><ele>314.1</ele></trkpt>
      <trkpt lat="46.172682" lon="4.09888"><ele>315.3</ele></trkpt>
      <trkpt lat="46.17276" lon="4.09913"><ele>316.8</ele></trkpt>
      <trkpt lat="46.17284" lon="4.09928"><ele>317.9</ele></trkpt>
      <trkpt lat="46.17297" lon="4.099488"><ele>319.4</ele></trkpt>
      <trkpt lat="46.1731" lon="4.099695"><ele>321.0</ele></trkpt>
      <trkpt lat="46.17323" lon="4.099903"><ele>322.6</ele></trkpt>
      <trkpt lat="46.17336" lon="4.10011"><ele>324.0</ele></trkpt>
      <trkpt lat="46.17349" lon="4.100335"><ele>325.0</ele></trkpt>
      <trkpt lat="46.17362" lon="4.10056"><ele>326.1</ele></trkpt>
      <trkpt lat="46.17375" lon="4.100785"><ele>326.8</ele></trkpt>
      <trkpt lat="46.17388" lon="4.10101"><ele>327.8</ele></trkpt>
      <trkpt lat="46.17402" lon="4.10121"><ele>328.7</ele></trkpt>
      <trkpt lat="46.174193" lon="4.101042"><ele>329.3</ele></trkpt>
      <trkpt lat="46.174366" lon="4.100874"><ele>329.4</ele></trkpt>
      <trkpt lat="46.174539" lon="4.100706"><ele>329.1</ele></trkpt>
      <trkpt lat="46.174712" lon="4.100538"><ele>328.6</ele></trkpt>
      <trkpt lat="46.174885" lon="4.10037"><ele>328.1</ele></trkpt>
      <trkpt lat="46.175058" lon="4.100202"><ele>327.5</ele></trkpt>
      <trkpt lat="46.175231" lon="4.100034"><ele>327.1</ele></trkpt>
      <trkpt lat="46.175404" lon="4.099866"><ele>326.6</ele></trkpt>
      <trkpt lat="46.175577" lon="4.099698"><ele>325.8</ele></trkpt>
      <trkpt lat="46.17575" lon="4.09953"><ele>324.9</ele></trkpt>
      <trkpt lat="46.17592" lon="4.09939"><ele>324.1</ele></trkpt>
      <trkpt lat="46.17607" lon="4.09963"><ele>324.2</ele></trkpt>
      <trkpt lat="46.17616" lon="4.09971"><ele>324.1</ele></trkpt>
      <trkpt lat="46.176303" lon="4.099797"><ele>323.2</ele></trkpt>
      <trkpt lat="46.176447" lon="4.099883"><ele>322.1</ele></trkpt>
      <trkpt lat="46.17659" lon="4.09997"><ele>321.2</ele></trkpt>
      <trkpt lat="46.17665" lon="4.09999"><ele>321.0</ele></trkpt>
      <trkpt lat="46.17671" lon="4.09998"><ele>320.3</ele></trkpt>
      <trkpt lat="46.17678" lon="4.09996"><ele>320.2</ele></trkpt>
      <trkpt lat="46.17693" lon="4.09984"><ele>318.9</ele></trkpt>
      <trkpt lat="46.1771" lon="4.099694"><ele>317.1</ele></trkpt>
      <trkpt lat="46.17727" lon="4.099548"><ele>314.6</ele></trkpt>
      <trkpt lat="46.17744" lon="4.099402"><ele>312.4</ele></trkpt>
      <trkpt lat="46.17761" lon="4.099256"><ele>309.5</ele></trkpt>
      <trkpt lat="46.17778" lon="4.09911"><ele>307.0</ele></trkpt>
      <trkpt lat="46.17782" lon="4.09906"><ele>306.3</ele></trkpt>
      <trkpt lat="46.17784" lon="4.099"><ele>306.3</ele></trkpt>
      <trkpt lat="46.17785" lon="4.09875"><ele>306.3</ele></trkpt>
      <trkpt lat="46.17788" lon="4.09868"><ele>305.3</ele></trkpt>
      <trkpt lat="46.17801" lon="4.09868"><ele>303.1</ele></trkpt>
      <trkpt lat="46.178165" lon="4.0988"><ele>300.1</ele></trkpt>
      <trkpt lat="46.17832" lon="4.09892"><ele>297.3</ele></trkpt>
      <trkpt lat="46.17836" lon="4.09893"><ele>296.5</ele></trkpt>
      <trkpt lat="46.17855" lon="4.09886"><ele>293.3</ele></trkpt>
      <trkpt lat="46.17875" lon="4.09888"><ele>291.9</ele></trkpt>
      <trkpt lat="46.178895" lon="4.098865"><ele>291.1</ele></trkpt>
      <trkpt lat="46.17904" lon="4.09885"><ele>290.8</ele></trkpt>
      <trkpt lat="46.17907" lon="4.09866"><ele>290.1</ele></trkpt>
      <trkpt lat="46.1791" lon="4.09847"><ele>289.5</ele></trkpt>
      <trkpt lat="46.17916" lon="4.09831"><ele>289.3</ele></trkpt>
      <trkpt lat="46.179265" lon="4.098115"><ele>288.9</ele></trkpt>
      <trkpt lat="46.17937" lon="4.09792"><ele>288.9</ele></trkpt>
      <trkpt lat="46.179397" lon="4.097693"><ele>288.7</ele></trkpt>
      <trkpt lat="46.179423" lon="4.097467"><ele>288.6</ele></trkpt>
      <trkpt lat="46.17945" lon="4.09724"><ele>288.5</ele></trkpt>
      <trkpt lat="46.17945" lon="4.0971"><ele>288.3</ele></trkpt>
      <trkpt lat="46.17949" lon="4.0971"><ele>288.3</ele></trkpt>
      <trkpt lat="46.1796" lon="4.097"><ele>288.1</ele></trkpt>
      <trkpt lat="46.17964" lon="4.09693"><ele>288.0</ele></trkpt>
      <trkpt lat="46.17968" lon="4.09679"><ele>287.8</ele></trkpt>
      <trkpt lat="46.1797" lon="4.09664"><ele>287.1</ele></trkpt>
      <trkpt lat="46.17975" lon="4.09651"><ele>286.5</ele></trkpt>
      <trkpt lat="46.17987" lon="4.09637"><ele>285.7</ele></trkpt>
      <trkpt lat="46.17991" lon="4.09635"><ele>285.5</ele></trkpt>
      <trkpt lat="46.18005" lon="4.09633"><ele>285.0</ele></trkpt>
      <trkpt lat="46.18025" lon="4.09635"><ele>284.6</ele></trkpt>
      <trkpt lat="46.18044" lon="4.09634"><ele>283.8</ele></trkpt>
      <trkpt lat="46.18063" lon="4.09633"><ele>283.0</ele></trkpt>
      <trkpt lat="46.18078" lon="4.096295"><ele>282.5</ele></trkpt>
      <trkpt lat="46.18093" lon="4.09626"><ele>282.4</ele></trkpt>
      <trkpt lat="46.18104" lon="4.09622"><ele>282.1</ele></trkpt>
      <trkpt lat="46.18121" lon="4.0961"><ele>281.8</ele></trkpt>
      <trkpt lat="46.18138" lon="4.095925"><ele>281.9</ele></trkpt>
      <trkpt lat="46.18155" lon="4.09575"><ele>282.0</ele></trkpt>
      <trkpt lat="46.18169" lon="4.09565"><ele>282.0</ele></trkpt>
      <trkpt lat="46.18184" lon="4.09558"><ele>282.0</ele></trkpt>
      <trkpt lat="46.18199" lon="4.09551"><ele>282.0</ele></trkpt>
      <trkpt lat="46.18214" lon="4.09544"><ele>281.3</ele></trkpt>
      <trkpt lat="46.182333" lon="4.095383"><ele>280.3</ele></trkpt>
      <trkpt lat="46.182527" lon="4.095327"><ele>278.9</ele></trkpt>
      <trkpt lat="46.18272" lon="4.09527"><ele>277.6</ele></trkpt>
      <trkpt lat="46.18286" lon="4.095195"><ele>277.2</ele></trkpt>
      <trkpt lat="46.183" lon="4.09512"><ele>277.3</ele></trkpt>
      <trkpt lat="46.18313" lon="4.0951"><ele>277.6</ele></trkpt>
      <trkpt lat="46.18334" lon="4.095117"><ele>279.1</ele></trkpt>
      <trkpt lat="46.18355" lon="4.095133"><ele>281.9</ele></trkpt>
      <trkpt lat="46.18376" lon="4.09515"><ele>284.8</ele></trkpt>
      <trkpt lat="46.18378" lon="4.095433"><ele>286.4</ele></trkpt>
      <trkpt lat="46.1838" lon="4.095717"><ele>286.2</ele></trkpt>
      <trkpt lat="46.18382" lon="4.096"><ele>285.5</ele></trkpt>
      <trkpt lat="46.18388" lon="4.09621"><ele>285.1</ele></trkpt>
      <trkpt lat="46.183995" lon="4.096428"><ele>284.9</ele></trkpt>
      <trkpt lat="46.18411" lon="4.096647"><ele>285.0</ele></trkpt>
      <trkpt lat="46.184225" lon="4.096865"><ele>285.4</ele></trkpt>
      <trkpt lat="46.18434" lon="4.097083"><ele>286.2</ele></trkpt>
      <trkpt lat="46.184455" lon="4.097302"><ele>286.0</ele></trkpt>
      <trkpt lat="46.18457" lon="4.09752"><ele>286.9</ele></trkpt>
      <trkpt lat="46.18461" lon="4.09736"><ele>287.9</ele></trkpt>
      <trkpt lat="46.18465" lon="4.0972"><ele>288.9</ele></trkpt>
      <trkpt lat="46.18478" lon="4.09696"><ele>290.1</ele></trkpt>
      <trkpt lat="46.184925" lon="4.096805"><ele>290.7</ele></trkpt>
      <trkpt lat="46.18507" lon="4.09665"><ele>291.2</ele></trkpt>
      <trkpt lat="46.18519" lon="4.09656"><ele>291.3</ele></trkpt>
      <trkpt lat="46.18531" lon="4.0965"><ele>291.7</ele></trkpt>
      <trkpt lat="46.18533" lon="4.09663"><ele>292.8</ele></trkpt>
      <trkpt lat="46.18545" lon="4.096817"><ele>295.0</ele></trkpt>
      <trkpt lat="46.18557" lon="4.097003"><ele>299.4</ele></trkpt>
      <trkpt lat="46.18569" lon="4.09719"><ele>304.5</ele></trkpt>
      <trkpt lat="46.18578" lon="4.09736"><ele>308.4</ele></trkpt>
      <trkpt lat="46.185855" lon="4.09755"><ele>311.6</ele></trkpt>
      <trkpt lat="46.18593" lon="4.09774"><ele>315.1</ele></trkpt>
      <trkpt lat="46.185983" lon="4.097963"><ele>317.7</ele></trkpt>
      <trkpt lat="46.186037" lon="4.098187"><ele>320.2</ele></trkpt>
      <trkpt lat="46.18609" lon="4.09841"><ele>322.0</ele></trkpt>
      <trkpt lat="46.186215" lon="4.098645"><ele>324.8</ele></trkpt>
      <trkpt lat="46.18634" lon="4.09888"><ele>327.5</ele></trkpt>
      <trkpt lat="46.1864" lon="4.099117"><ele>329.4</ele></trkpt>
      <trkpt lat="46.18646" lon="4.099353"><ele>330.2</ele></trkpt>
      <trkpt lat="46.18652" lon="4.09959"><ele>330.2</ele></trkpt>
      <trkpt lat="46.186685" lon="4.099776"><ele>334.1</ele></trkpt>
      <trkpt lat="46.18685" lon="4.099961"><ele>337.3</ele></trkpt>
      <trkpt lat="46.187015" lon="4.100147"><ele>340.0</ele></trkpt>
      <trkpt lat="46.18718" lon="4.100333"><ele>342.0</ele></trkpt>
      <trkpt lat="46.187345" lon="4.100519"><ele>343.3</ele></trkpt>
      <trkpt lat="46.18751" lon="4.100704"><ele>343.9</ele></trkpt>
      <trkpt lat="46.187675" lon="4.10089"><ele>344.9</ele></trkpt>
      <trkpt lat="46.18784" lon="4.101076"><ele>345.6</ele></trkpt>
      <trkpt lat="46.188005" lon="4.101261"><ele>346.4</ele></trkpt>
      <trkpt lat="46.18817" lon="4.101447"><ele>347.2</ele></trkpt>
      <trkpt lat="46.188335" lon="4.101633"><ele>348.4</ele></trkpt>
      <trkpt lat="46.1885" lon="4.101819"><ele>349.4</ele></trkpt>
      <trkpt lat="46.188665" lon="4.102004"><ele>350.0</ele></trkpt>
      <trkpt lat="46.18883" lon="4.10219"><ele>350.7</ele></trkpt>
      <trkpt lat="46.188952" lon="4.102422"><ele>350.9</ele></trkpt>
      <trkpt lat="46.189074" lon="4.102654"><ele>351.5</ele></trkpt>
      <trkpt lat="46.189197" lon="4.102887"><ele>352.3</ele></trkpt>
      <trkpt lat="46.189319" lon="4.103119"><ele>353.8</ele></trkpt>
      <trkpt lat="46.189441" lon="4.103351"><ele>354.1</ele></trkpt>
      <trkpt lat="46.189563" lon="4.103583"><ele>356.0</ele></trkpt>
      <trkpt lat="46.189686" lon="4.103816"><ele>358.0</ele></trkpt>
      <trkpt lat="46.189808" lon="4.104048"><ele>359.3</ele></trkpt>
      <trkpt lat="46.18993" lon="4.10428"><ele>361.1</ele></trkpt>
      <trkpt lat="46.189917" lon="4.10397"><ele>361.6</ele></trkpt>
      <trkpt lat="46.189903" lon="4.10366"><ele>360.8</ele></trkpt>
      <trkpt lat="46.18989" lon="4.10335"><ele>359.8</ele></trkpt>
      <trkpt lat="46.189805" lon="4.103083"><ele>358.5</ele></trkpt>
      <trkpt lat="46.18972" lon="4.102815"><ele>357.3</ele></trkpt>
      <trkpt lat="46.189635" lon="4.102548"><ele>356.1</ele></trkpt>
      <trkpt lat="46.18955" lon="4.10228"><ele>355.0</ele></trkpt>
      <trkpt lat="46.189495" lon="4.10206"><ele>354.0</ele></trkpt>
      <trkpt lat="46.18944" lon="4.10184"><ele>353.0</ele></trkpt>
      <trkpt lat="46.1894" lon="4.10161"><ele>352.1</ele></trkpt>
      <trkpt lat="46.189383" lon="4.101327"><ele>350.7</ele></trkpt>
      <trkpt lat="46.189366" lon="4.101044"><ele>349.4</ele></trkpt>
      <trkpt lat="46.189349" lon="4.100761"><ele>347.7</ele></trkpt>
      <trkpt lat="46.189331" lon="4.100479"><ele>345.9</ele></trkpt>
      <trkpt lat="46.189314" lon="4.100196"><ele>343.9</ele></trkpt>
      <trkpt lat="46.189297" lon="4.099913"><ele>342.2</ele></trkpt>
      <trkpt lat="46.18928" lon="4.09963"><ele>340.1</ele></trkpt>
      <trkpt lat="46.18937" lon="4.09965"><ele>339.9</ele></trkpt>
      <trkpt lat="46.189535" lon="4.099865"><ele>340.6</ele></trkpt>
      <trkpt lat="46.1897" lon="4.10008"><ele>341.5</ele></trkpt>
      <trkpt lat="46.189824" lon="4.10028"><ele>343.0</ele></trkpt>
      <trkpt lat="46.189948" lon="4.10048"><ele>344.1</ele></trkpt>
      <trkpt lat="46.190072" lon="4.10068"><ele>344.8</ele></trkpt>
      <trkpt lat="46.190196" lon="4.10088"><ele>345.7</ele></trkpt>
      <trkpt lat="46.19032" lon="4.10108"><ele>346.5</ele></trkpt>
      <trkpt lat="46.190475" lon="4.101295"><ele>346.9</ele></trkpt>
      <trkpt lat="46.19063" lon="4.10151"><ele>347.4</ele></trkpt>
      <trkpt lat="46.1907" lon="4.10163"><ele>347.7</ele></trkpt>
      <trkpt lat="46.19078" lon="4.10181"><ele>348.8</ele></trkpt>
      <trkpt lat="46.19086" lon="4.10199"><ele>349.4</ele></trkpt>
      <trkpt lat="46.190998" lon="4.102202"><ele>350.4</ele></trkpt>
      <trkpt lat="46.191135" lon="4.102415"><ele>351.3</ele></trkpt>
      <trkpt lat="46.191273" lon="4.102627"><ele>351.9</ele></trkpt>
      <trkpt lat="46.19141" lon="4.10284"><ele>351.9</ele></trkpt>
      <trkpt lat="46.19152" lon="4.10305"><ele>351.3</ele></trkpt>
      <trkpt lat="46.19158" lon="4.10325"><ele>352.6</ele></trkpt>
      <trkpt lat="46.19162" lon="4.103463"><ele>354.3</ele></trkpt>
      <trkpt lat="46.19166" lon="4.103677"><ele>356.0</ele></trkpt>
      <trkpt lat="46.1917" lon="4.10389"><ele>357.6</ele></trkpt>
      <trkpt lat="46.19175" lon="4.10407"><ele>358.6</ele></trkpt>
      <trkpt lat="46.191836" lon="4.10433"><ele>359.7</ele></trkpt>
      <trkpt lat="46.191922" lon="4.10459"><ele>361.0</ele></trkpt>
      <trkpt lat="46.192008" lon="4.10485"><ele>362.5</ele></trkpt>
      <trkpt lat="46.192094" lon="4.10511"><ele>363.9</ele></trkpt>
      <trkpt lat="46.19218" lon="4.10537"><ele>365.8</ele></trkpt>
      <trkpt lat="46.192265" lon="4.105535"><ele>366.0</ele></trkpt>
      <trkpt lat="46.19235" lon="4.1057"><ele>366.4</ele></trkpt>
      <trkpt lat="46.19249" lon="4.105914"><ele>365.9</ele></trkpt>
      <trkpt lat="46.19263" lon="4.106128"><ele>366.0</ele></trkpt>
      <trkpt lat="46.19277" lon="4.106342"><ele>366.2</ele></trkpt>
      <trkpt lat="46.19291" lon="4.106556"><ele>366.4</ele></trkpt>
      <trkpt lat="46.19305" lon="4.10677"><ele>366.0</ele></trkpt>
      <trkpt lat="46.193187" lon="4.107007"><ele>366.6</ele></trkpt>
      <trkpt lat="46.193323" lon="4.107243"><ele>366.7</ele></trkpt>
      <trkpt lat="46.19346" lon="4.10748"><ele>366.4</ele></trkpt>
      <trkpt lat="46.19341" lon="4.10778"><ele>367.6</ele></trkpt>
      <trkpt lat="46.193393" lon="4.108062"><ele>367.8</ele></trkpt>
      <trkpt lat="46.193377" lon="4.108343"><ele>368.5</ele></trkpt>
      <trkpt lat="46.19336" lon="4.108625"><ele>368.8</ele></trkpt>
      <trkpt lat="46.193343" lon="4.108907"><ele>370.8</ele></trkpt>
      <trkpt lat="46.193327" lon="4.109188"><ele>372.8</ele></trkpt>
      <trkpt lat="46.19331" lon="4.10947"><ele>374.7</ele></trkpt>
      <trkpt lat="46.193277" lon="4.10974"><ele>376.9</ele></trkpt>
      <trkpt lat="46.193243" lon="4.11001"><ele>379.2</ele></trkpt>
      <trkpt lat="46.19321" lon="4.11028"><ele>381.1</ele></trkpt>
      <trkpt lat="46.19317" lon="4.11046"><ele>382.3</ele></trkpt>
      <trkpt lat="46.19313" lon="4.11064"><ele>383.3</ele></trkpt>
      <trkpt lat="46.19309" lon="4.11075"><ele>383.6</ele></trkpt>
      <trkpt lat="46.19299" lon="4.1109"><ele>384.9</ele></trkpt>
      <trkpt lat="46.192855" lon="4.11103"><ele>385.9</ele></trkpt>
      <trkpt lat="46.19272" lon="4.11116"><ele>386.7</ele></trkpt>
      <trkpt lat="46.19264" lon="4.11119"><ele>387.2</ele></trkpt>
      <trkpt lat="46.19257" lon="4.11118"><ele>387.5</ele></trkpt>
      <trkpt lat="46.19255" lon="4.11123"><ele>387.6</ele></trkpt>
      <trkpt lat="46.19251" lon="4.11127"><ele>387.8</ele></trkpt>
      <trkpt lat="46.19234" lon="4.11137"><ele>388.1</ele></trkpt>
      <trkpt lat="46.19217" lon="4.11147"><ele>388.1</ele></trkpt>
      <trkpt lat="46.19206" lon="4.11158"><ele>388.0</ele></trkpt>
      <trkpt lat="46.19203" lon="4.1117"><ele>387.9</ele></trkpt>
      <trkpt lat="46.19194" lon="4.11169"><ele>387.5</ele></trkpt>
      <trkpt lat="46.19188" lon="4.11171"><ele>387.0</ele></trkpt>
      <trkpt lat="46.19181" lon="4.11176"><ele>386.8</ele></trkpt>
      <trkpt lat="46.191705" lon="4.111885"><ele>386.0</ele></trkpt>
      <trkpt lat="46.1916" lon="4.11201"><ele>384.8</ele></trkpt>
      <trkpt lat="46.19157" lon="4.11211"><ele>384.0</ele></trkpt>
      <trkpt lat="46.19153" lon="4.11242"><ele>382.9</ele></trkpt>
      <trkpt lat="46.19151" lon="4.112668"><ele>382.8</ele></trkpt>
      <trkpt lat="46.19149" lon="4.112915"><ele>382.3</ele></trkpt>
      <trkpt lat="46.19147" lon="4.113162"><ele>381.6</ele></trkpt>
      <trkpt lat="46.19145" lon="4.11341"><ele>380.8</ele></trkpt>
      <trkpt lat="46.191377" lon="4.113677"><ele>380.8</ele></trkpt>
      <trkpt lat="46.191303" lon="4.113943"><ele>379.8</ele></trkpt>
      <trkpt lat="46.19123" lon="4.11421"><ele>378.5</ele></trkpt>
      <trkpt lat="46.191208" lon="4.114455"><ele>378.6</ele></trkpt>
      <trkpt lat="46.191185" lon="4.1147"><ele>378.2</ele></trkpt>
      <trkpt lat="46.191163" lon="4.114945"><ele>379.0</ele></trkpt>
      <trkpt lat="46.19114" lon="4.11519"><ele>379.5</ele></trkpt>
      <trkpt lat="46.19111" lon="4.11527"><ele>379.5</ele></trkpt>
      <trkpt lat="46.19107" lon="4.11534"><ele>379.7</ele></trkpt>
      <trkpt lat="46.19099" lon="4.11541"><ele>380.2</ele></trkpt>
      <trkpt lat="46.19085" lon="4.11546"><ele>380.0</ele></trkpt>
      <trkpt lat="46.19071" lon="4.11551"><ele>381.5</ele></trkpt>
      <trkpt lat="46.19057" lon="4.11559"><ele>383.9</ele></trkpt>
      <trkpt lat="46.190403" lon="4.115747"><ele>386.6</ele></trkpt>
      <trkpt lat="46.190237" lon="4.115903"><ele>388.8</ele></trkpt>
      <trkpt lat="46.19007" lon="4.11606"><ele>390.4</ele></trkpt>
      <trkpt lat="46.189945" lon="4.11628"><ele>392.4</ele></trkpt>
      <trkpt lat="46.18982" lon="4.1165"><ele>394.3</ele></trkpt>
      <trkpt lat="46.18972" lon="4.11672"><ele>396.0</ele></trkpt>
      <trkpt lat="46.189627" lon="4.116977"><ele>397.9</ele></trkpt>
      <trkpt lat="46.189533" lon="4.117233"><ele>399.1</ele></trkpt>
      <trkpt lat="46.18944" lon="4.11749"><ele>399.5</ele></trkpt>
      <trkpt lat="46.189328" lon="4.117256"><ele>398.5</ele></trkpt>
      <trkpt lat="46.189216" lon="4.117022"><ele>397.2</ele></trkpt>
      <trkpt lat="46.189104" lon="4.116788"><ele>396.0</ele></trkpt>
      <trkpt lat="46.188992" lon="4.116554"><ele>394.5</ele></trkpt>
      <trkpt lat="46.18888" lon="4.11632"><ele>393.5</ele></trkpt>
      <trkpt lat="46.18878" lon="4.11605"><ele>392.1</ele></trkpt>
      <trkpt lat="46.188739" lon="4.115766"><ele>390.4</ele></trkpt>
      <trkpt lat="46.188697" lon="4.115481"><ele>388.5</ele></trkpt>
      <trkpt lat="46.188656" lon="4.115197"><ele>387.0</ele></trkpt>
      <trkpt lat="46.188614" lon="4.114913"><ele>385.2</ele></trkpt>
      <trkpt lat="46.188573" lon="4.114629"><ele>383.6</ele></trkpt>
      <trkpt lat="46.188531" lon="4.114344"><ele>382.5</ele></trkpt>
      <trkpt lat="46.18849" lon="4.11406"><ele>381.6</ele></trkpt>
      <trkpt lat="46.188465" lon="4.11377"><ele>380.6</ele></trkpt>
      <trkpt lat="46.18844" lon="4.11348"><ele>379.7</ele></trkpt>
      <trkpt lat="46.18842" lon="4.11336"><ele>379.3</ele></trkpt>
      <trkpt lat="46.18837" lon="4.11326"><ele>379.2</ele></trkpt>
      <trkpt lat="46.188345" lon="4.113003"><ele>378.7</ele></trkpt>
      <trkpt lat="46.18832" lon="4.112745"><ele>378.0</ele></trkpt>
      <trkpt lat="46.188295" lon="4.112488"><ele>377.0</ele></trkpt>
      <trkpt lat="46.18827" lon="4.11223"><ele>376.2</ele></trkpt>
      <trkpt lat="46.188245" lon="4.11205"><ele>375.5</ele></trkpt>
      <trkpt lat="46.18822" lon="4.11187"><ele>375.3</ele></trkpt>
      <trkpt lat="46.18823" lon="4.111643"><ele>374.5</ele></trkpt>
      <trkpt lat="46.18824" lon="4.111417"><ele>373.2</ele></trkpt>
      <trkpt lat="46.18825" lon="4.11119"><ele>371.4</ele></trkpt>
      <trkpt lat="46.188305" lon="4.1109"><ele>368.8</ele></trkpt>
      <trkpt lat="46.18836" lon="4.11061"><ele>366.5</ele></trkpt>
      <trkpt lat="46.188423" lon="4.110373"><ele>364.1</ele></trkpt>
      <trkpt lat="46.188487" lon="4.110137"><ele>362.9</ele></trkpt>
      <trkpt lat="46.18855" lon="4.1099"><ele>360.8</ele></trkpt>
      <trkpt lat="46.18861" lon="4.109715"><ele>359.7</ele></trkpt>
      <trkpt lat="46.18867" lon="4.10953"><ele>357.7</ele></trkpt>
      <trkpt lat="46.188775" lon="4.109323"><ele>355.9</ele></trkpt>
      <trkpt lat="46.18888" lon="4.109115"><ele>353.9</ele></trkpt>
      <trkpt lat="46.188985" lon="4.108908"><ele>351.0</ele></trkpt>
      <trkpt lat="46.18909" lon="4.1087"><ele>348.5</ele></trkpt>
      <trkpt lat="46.18912" lon="4.10859"><ele>347.3</ele></trkpt>
      <trkpt lat="46.18911" lon="4.10832"><ele>345.4</ele></trkpt>
      <trkpt lat="46.189056" lon="4.108019"><ele>343.7</ele></trkpt>
      <trkpt lat="46.189001" lon="4.107718"><ele>342.1</ele></trkpt>
      <trkpt lat="46.188947" lon="4.107417"><ele>339.5</ele></trkpt>
      <trkpt lat="46.188892" lon="4.107116"><ele>336.8</ele></trkpt>
      <trkpt lat="46.188838" lon="4.106814"><ele>334.9</ele></trkpt>
      <trkpt lat="46.188783" lon="4.106513"><ele>332.8</ele></trkpt>
      <trkpt lat="46.188729" lon="4.106212"><ele>331.1</ele></trkpt>
      <trkpt lat="46.188674" lon="4.105911"><ele>328.7</ele></trkpt>
      <trkpt lat="46.18862" lon="4.10561"><ele>326.0</ele></trkpt>
      <trkpt lat="46.18855" lon="4.1054"><ele>324.3</ele></trkpt>
      <trkpt lat="46.18844" lon="4.10515"><ele>324.1</ele></trkpt>
      <trkpt lat="46.188307" lon="4.10489"><ele>323.9</ele></trkpt>
      <trkpt lat="46.188173" lon="4.10463"><ele>323.4</ele></trkpt>
      <trkpt lat="46.18804" lon="4.10437"><ele>321.7</ele></trkpt>
      <trkpt lat="46.187907" lon="4.10411"><ele>319.5</ele></trkpt>
      <trkpt lat="46.187773" lon="4.10385"><ele>317.0</ele></trkpt>
      <trkpt lat="46.18764" lon="4.10359"><ele>314.8</ele></trkpt>
      <trkpt lat="46.18764" lon="4.10365"><ele>315.4</ele></trkpt>
      <trkpt lat="46.18759" lon="4.10373"><ele>317.2</ele></trkpt>
      <trkpt lat="46.187445" lon="4.103805"><ele>319.2</ele></trkpt>
      <trkpt lat="46.1873" lon="4.10388"><ele>321.4</ele></trkpt>
      <trkpt lat="46.187125" lon="4.10395"><ele>323.5</ele></trkpt>
      <trkpt lat="46.18695" lon="4.10402"><ele>327.2</ele></trkpt>
      <trkpt lat="46.186775" lon="4.10409"><ele>329.7</ele></trkpt>
      <trkpt lat="46.1866" lon="4.10416"><ele>331.0</ele></trkpt>
      <trkpt lat="46.18655" lon="4.10422"><ele>332.3</ele></trkpt>
      <trkpt lat="46.18652" lon="4.10429"><ele>333.1</ele></trkpt>
      <trkpt lat="46.1865" lon="4.10443"><ele>335.6</ele></trkpt>
      <trkpt lat="46.186515" lon="4.104605"><ele>338.0</ele></trkpt>
      <trkpt lat="46.18653" lon="4.10478"><ele>340.4</ele></trkpt>
      <trkpt lat="46.186485" lon="4.105"><ele>342.7</ele></trkpt>
      <trkpt lat="46.18644" lon="4.10522"><ele>344.4</ele></trkpt>
      <trkpt lat="46.186425" lon="4.1055"><ele>345.9</ele></trkpt>
      <trkpt lat="46.18641" lon="4.10578"><ele>347.1</ele></trkpt>
      <trkpt lat="46.186378" lon="4.10605"><ele>348.5</ele></trkpt>
      <trkpt lat="46.186347" lon="4.10632"><ele>350.6</ele></trkpt>
      <trkpt lat="46.186315" lon="4.10659"><ele>352.7</ele></trkpt>
      <trkpt lat="46.186283" lon="4.10686"><ele>354.1</ele></trkpt>
      <trkpt lat="46.186252" lon="4.10713"><ele>355.4</ele></trkpt>
      <trkpt lat="46.18622" lon="4.1074"><ele>356.4</ele></trkpt>
      <trkpt lat="46.18617" lon="4.107645"><ele>357.5</ele></trkpt>
      <trkpt lat="46.18612" lon="4.10789"><ele>358.3</ele></trkpt>
      <trkpt lat="46.18605" lon="4.108153"><ele>358.5</ele></trkpt>
      <trkpt lat="46.18598" lon="4.108415"><ele>359.6</ele></trkpt>
      <trkpt lat="46.18591" lon="4.108677"><ele>359.8</ele></trkpt>
      <trkpt lat="46.18584" lon="4.10894"><ele>360.8</ele></trkpt>
      <trkpt lat="46.185783" lon="4.109208"><ele>360.9</ele></trkpt>
      <trkpt lat="46.185725" lon="4.109475"><ele>362.1</ele></trkpt>
      <trkpt lat="46.185667" lon="4.109742"><ele>363.3</ele></trkpt>
      <trkpt lat="46.18561" lon="4.11001"><ele>364.1</ele></trkpt>
      <trkpt lat="46.18559" lon="4.11018"><ele>365.4</ele></trkpt>
      <trkpt lat="46.185576" lon="4.11049"><ele>366.4</ele></trkpt>
      <trkpt lat="46.185562" lon="4.1108"><ele>367.8</ele></trkpt>
      <trkpt lat="46.185548" lon="4.11111"><ele>369.3</ele></trkpt>
      <trkpt lat="46.185534" lon="4.11142"><ele>370.5</ele></trkpt>
      <trkpt lat="46.18552" lon="4.11173"><ele>372.1</ele></trkpt>
      <trkpt lat="46.18556" lon="4.11201"><ele>374.0</ele></trkpt>
      <trkpt lat="46.1856" lon="4.11229"><ele>375.8</ele></trkpt>
      <trkpt lat="46.185675" lon="4.11259"><ele>377.4</ele></trkpt>
      <trkpt lat="46.18575" lon="4.11289"><ele>378.0</ele></trkpt>
      <trkpt lat="46.185838" lon="4.113168"><ele>378.8</ele></trkpt>
      <trkpt lat="46.185926" lon="4.113446"><ele>379.4</ele></trkpt>
      <trkpt lat="46.186014" lon="4.113724"><ele>380.2</ele></trkpt>
      <trkpt lat="46.186102" lon="4.114002"><ele>381.2</ele></trkpt>
      <trkpt lat="46.18619" lon="4.11428"><ele>382.2</ele></trkpt>
      <trkpt lat="46.18625" lon="4.11451"><ele>382.9</ele></trkpt>
      <trkpt lat="46.18631" lon="4.11474"><ele>384.0</ele></trkpt>
      <trkpt lat="46.18634" lon="4.11494"><ele>384.3</ele></trkpt>
      <trkpt lat="46.18634" lon="4.1152"><ele>384.8</ele></trkpt>
      <trkpt lat="46.186325" lon="4.115405"><ele>385.2</ele></trkpt>
      <trkpt lat="46.18631" lon="4.11561"><ele>385.8</ele></trkpt>
      <trkpt lat="46.186255" lon="4.11592"><ele>385.7</ele></trkpt>
      <trkpt lat="46.1862" lon="4.11623"><ele>385.9</ele></trkpt>
      <trkpt lat="46.1862" lon="4.11633"><ele>386.0</ele></trkpt>
      <trkpt lat="46.186255" lon="4.11657"><ele>386.9</ele></trkpt>
      <trkpt lat="46.18631" lon="4.11681"><ele>388.3</ele></trkpt>
      <trkpt lat="46.186385" lon="4.117025"><ele>389.1</ele></trkpt>
      <trkpt lat="46.18646" lon="4.11724"><ele>390.1</ele></trkpt>
      <trkpt lat="46.18657" lon="4.11748"><ele>391.3</ele></trkpt>
      <trkpt lat="46.18668" lon="4.11772"><ele>392.0</ele></trkpt>
      <trkpt lat="46.186735" lon="4.117905"><ele>392.2</ele></trkpt>
      <trkpt lat="46.18679" lon="4.11809"><ele>392.9</ele></trkpt>
      <trkpt lat="46.186855" lon="4.118265"><ele>393.4</ele></trkpt>
      <trkpt lat="46.18692" lon="4.11844"><ele>394.6</ele></trkpt>
      <trkpt lat="46.186995" lon="4.11859"><ele>395.4</ele></trkpt>
      <trkpt lat="46.18707" lon="4.11874"><ele>396.9</ele></trkpt>
      <trkpt lat="46.1872" lon="4.118907"><ele>398.9</ele></trkpt>
      <trkpt lat="46.18733" lon="4.119073"><ele>400.7</ele></trkpt>
      <trkpt lat="46.18746" lon="4.11924"><ele>402.2</ele></trkpt>
      <trkpt lat="46.18763" lon="4.11938"><ele>403.7</ele></trkpt>
      <trkpt lat="46.18777" lon="4.11953"><ele>405.3</ele></trkpt>
      <trkpt lat="46.18789" lon="4.11969"><ele>406.2</ele></trkpt>
      <trkpt lat="46.18793" lon="4.11978"><ele>406.6</ele></trkpt>
      <trkpt lat="46.18781" lon="4.11982"><ele>406.1</ele></trkpt>
      <trkpt lat="46.18769" lon="4.11989"><ele>406.0</ele></trkpt>
      <trkpt lat="46.18756" lon="4.119975"><ele>405.7</ele></trkpt>
      <trkpt lat="46.18743" lon="4.12006"><ele>405.3</ele></trkpt>
      <trkpt lat="46.18735" lon="4.12012"><ele>405.1</ele></trkpt>
      <trkpt lat="46.18733" lon="4.12016"><ele>404.9</ele></trkpt>
      <trkpt lat="46.18717" lon="4.12016"><ele>403.2</ele></trkpt>
      <trkpt lat="46.18703" lon="4.12018"><ele>401.2</ele></trkpt>
      <trkpt lat="46.18683" lon="4.12024"><ele>399.1</ele></trkpt>
      <trkpt lat="46.18664" lon="4.12032"><ele>396.4</ele></trkpt>
      <trkpt lat="46.186468" lon="4.120414"><ele>394.4</ele></trkpt>
      <trkpt lat="46.186296" lon="4.120508"><ele>392.5</ele></trkpt>
      <trkpt lat="46.186124" lon="4.120602"><ele>391.0</ele></trkpt>
      <trkpt lat="46.185952" lon="4.120696"><ele>390.4</ele></trkpt>
      <trkpt lat="46.18578" lon="4.12079"><ele>389.7</ele></trkpt>
      <trkpt lat="46.185575" lon="4.12084"><ele>388.7</ele></trkpt>
      <trkpt lat="46.18537" lon="4.12089"><ele>389.0</ele></trkpt>
      <trkpt lat="46.185205" lon="4.12087"><ele>389.2</ele></trkpt>
      <trkpt lat="46.18504" lon="4.12085"><ele>389.2</ele></trkpt>
      <trkpt lat="46.18486" lon="4.120807"><ele>389.2</ele></trkpt>
      <trkpt lat="46.18468" lon="4.120763"><ele>388.7</ele></trkpt>
      <trkpt lat="46.1845" lon="4.12072"><ele>388.3</ele></trkpt>
      <trkpt lat="46.1843" lon="4.12065"><ele>388.1</ele></trkpt>
      <trkpt lat="46.18413" lon="4.12062"><ele>387.5</ele></trkpt>
      <trkpt lat="46.18396" lon="4.12059"><ele>387.5</ele></trkpt>
      <trkpt lat="46.18392" lon="4.12057"><ele>387.7</ele></trkpt>
      <trkpt lat="46.18373" lon="4.12055"><ele>388.3</ele></trkpt>
      <trkpt lat="46.1836" lon="4.12056"><ele>388.9</ele></trkpt>
      <trkpt lat="46.18349" lon="4.12061"><ele>389.3</ele></trkpt>
      <trkpt lat="46.18342" lon="4.12068"><ele>389.9</ele></trkpt>
      <trkpt lat="46.183287" lon="4.120847"><ele>391.9</ele></trkpt>
      <trkpt lat="46.183153" lon="4.121013"><ele>393.8</ele></trkpt>
      <trkpt lat="46.18302" lon="4.12118"><ele>395.8</ele></trkpt>
      <trkpt lat="46.18292" lon="4.12137"><ele>397.2</ele></trkpt>
      <trkpt lat="46.182835" lon="4.1215"><ele>398.2</ele></trkpt>
      <trkpt lat="46.18275" lon="4.12163"><ele>399.1</ele></trkpt>
      <trkpt lat="46.182635" lon="4.12178"><ele>400.1</ele></trkpt>
      <trkpt lat="46.18252" lon="4.12193"><ele>400.7</ele></trkpt>
      <trkpt lat="46.18242" lon="4.12214"><ele>401.7</ele></trkpt>
      <trkpt lat="46.182425" lon="4.122315"><ele>402.8</ele></trkpt>
      <trkpt lat="46.18243" lon="4.12249"><ele>403.5</ele></trkpt>
      <trkpt lat="46.182405" lon="4.12269"><ele>404.4</ele></trkpt>
      <trkpt lat="46.18238" lon="4.12289"><ele>405.2</ele></trkpt>
      <trkpt lat="46.18233" lon="4.12306"><ele>406.0</ele></trkpt>
      <trkpt lat="46.18223" lon="4.12327"><ele>406.7</ele></trkpt>
      <trkpt lat="46.18234" lon="4.12335"><ele>407.3</ele></trkpt>
      <trkpt lat="46.18253" lon="4.12343"><ele>407.6</ele></trkpt>
      <trkpt lat="46.18267" lon="4.123455"><ele>407.8</ele></trkpt>
      <trkpt lat="46.18281" lon="4.12348"><ele>408.1</ele></trkpt>
      <trkpt lat="46.18293" lon="4.12355"><ele>408.5</ele></trkpt>
      <trkpt lat="46.18305" lon="4.12362"><ele>409.0</ele></trkpt>
      <trkpt lat="46.183203" lon="4.123753"><ele>409.7</ele></trkpt>
      <trkpt lat="46.183355" lon="4.123885"><ele>410.3</ele></trkpt>
      <trkpt lat="46.183508" lon="4.124018"><ele>410.9</ele></trkpt>
      <trkpt lat="46.18366" lon="4.12415"><ele>411.6</ele></trkpt>
      <trkpt lat="46.183795" lon="4.12429"><ele>412.5</ele></trkpt>
      <trkpt lat="46.18393" lon="4.12443"><ele>413.6</ele></trkpt>
      <trkpt lat="46.18408" lon="4.12466"><ele>415.0</ele></trkpt>
      <trkpt lat="46.183915" lon="4.12472"><ele>414.9</ele></trkpt>
      <trkpt lat="46.18375" lon="4.12478"><ele>415.1</ele></trkpt>
      <trkpt lat="46.18361" lon="4.12488"><ele>415.3</ele></trkpt>
      <trkpt lat="46.18347" lon="4.12498"><ele>415.7</ele></trkpt>
      <trkpt lat="46.18335" lon="4.12513"><ele>416.3</ele></trkpt>
      <trkpt lat="46.183285" lon="4.12528"><ele>416.8</ele></trkpt>
      <trkpt lat="46.18322" lon="4.12543"><ele>417.7</ele></trkpt>
      <trkpt lat="46.18314" lon="4.125565"><ele>418.3</ele></trkpt>
      <trkpt lat="46.18306" lon="4.1257"><ele>419.0</ele></trkpt>
      <trkpt lat="46.182987" lon="4.125945"><ele>420.4</ele></trkpt>
      <trkpt lat="46.182915" lon="4.12619"><ele>421.6</ele></trkpt>
      <trkpt lat="46.182843" lon="4.126435"><ele>422.5</ele></trkpt>
      <trkpt lat="46.18277" lon="4.12668"><ele>423.4</ele></trkpt>
      <trkpt lat="46.18267" lon="4.12692"><ele>424.3</ele></trkpt>
      <trkpt lat="46.18254" lon="4.12708"><ele>424.5</ele></trkpt>
      <trkpt lat="46.182473" lon="4.127373"><ele>425.2</ele></trkpt>
      <trkpt lat="46.182407" lon="4.127667"><ele>426.0</ele></trkpt>
      <trkpt lat="46.18234" lon="4.12796"><ele>426.4</ele></trkpt>
      <trkpt lat="46.182273" lon="4.128253"><ele>426.5</ele></trkpt>
      <trkpt lat="46.182207" lon="4.128547"><ele>426.6</ele></trkpt>
      <trkpt lat="46.18214" lon="4.12884"><ele>426.6</ele></trkpt>
      <trkpt lat="46.18215" lon="4.12892"><ele>426.8</ele></trkpt>
      <trkpt lat="46.18212" lon="4.12909"><ele>426.8</ele></trkpt>
      <trkpt lat="46.182033" lon="4.129377"><ele>426.8</ele></trkpt>
      <trkpt lat="46.181945" lon="4.129665"><ele>426.4</ele></trkpt>
      <trkpt lat="46.181858" lon="4.129953"><ele>425.8</ele></trkpt>
      <trkpt lat="46.18177" lon="4.13024"><ele>425.1</ele></trkpt>
      <trkpt lat="46.181705" lon="4.130395"><ele>424.1</ele></trkpt>
      <trkpt lat="46.18164" lon="4.13055"><ele>423.3</ele></trkpt>
      <trkpt lat="46.181575" lon="4.13078"><ele>421.1</ele></trkpt>
      <trkpt lat="46.18151" lon="4.13101"><ele>419.4</ele></trkpt>
      <trkpt lat="46.181387" lon="4.131257"><ele>417.7</ele></trkpt>
      <trkpt lat="46.181263" lon="4.131503"><ele>415.5</ele></trkpt>
      <trkpt lat="46.18114" lon="4.13175"><ele>414.0</ele></trkpt>
      <trkpt lat="46.18104" lon="4.13203"><ele>413.5</ele></trkpt>
      <trkpt lat="46.18094" lon="4.13231"><ele>413.0</ele></trkpt>
      <trkpt lat="46.180853" lon="4.132533"><ele>411.7</ele></trkpt>
      <trkpt lat="46.180765" lon="4.132755"><ele>410.6</ele></trkpt>
      <trkpt lat="46.180678" lon="4.132978"><ele>410.1</ele></trkpt>
      <trkpt lat="46.18059" lon="4.1332"><ele>409.9</ele></trkpt>
      <trkpt lat="46.18057" lon="4.13332"><ele>409.8</ele></trkpt>
      <trkpt lat="46.18045" lon="4.13356"><ele>409.4</ele></trkpt>
      <trkpt lat="46.18033" lon="4.1338"><ele>409.1</ele></trkpt>
      <trkpt lat="46.18021" lon="4.13404"><ele>408.7</ele></trkpt>
      <trkpt lat="46.18009" lon="4.13428"><ele>408.4</ele></trkpt>
      <trkpt lat="46.17999" lon="4.13444"><ele>408.1</ele></trkpt>
      <trkpt lat="46.179885" lon="4.134565"><ele>408.0</ele></trkpt>
      <trkpt lat="46.17978" lon="4.13469"><ele>407.6</ele></trkpt>
      <trkpt lat="46.17969" lon="4.13483"><ele>407.5</ele></trkpt>
      <trkpt lat="46.17956" lon="4.13507"><ele>407.4</ele></trkpt>
      <trkpt lat="46.179445" lon="4.135315"><ele>407.4</ele></trkpt>
      <trkpt lat="46.17933" lon="4.13556"><ele>407.0</ele></trkpt>
      <trkpt lat="46.17923" lon="4.135737"><ele>406.7</ele></trkpt>
      <trkpt lat="46.17913" lon="4.135913"><ele>405.7</ele></trkpt>
      <trkpt lat="46.17903" lon="4.13609"><ele>404.7</ele></trkpt>
      <trkpt lat="46.178945" lon="4.13621"><ele>403.7</ele></trkpt>
      <trkpt lat="46.17886" lon="4.13633"><ele>403.0</ele></trkpt>
      <trkpt lat="46.178675" lon="4.13648"><ele>402.0</ele></trkpt>
      <trkpt lat="46.17849" lon="4.13663"><ele>400.9</ele></trkpt>
      <trkpt lat="46.178305" lon="4.13678"><ele>399.9</ele></trkpt>
      <trkpt lat="46.17812" lon="4.13693"><ele>398.7</ele></trkpt>
      <trkpt lat="46.17799" lon="4.13709"><ele>398.2</ele></trkpt>
      <trkpt lat="46.17786" lon="4.13725"><ele>397.9</ele></trkpt>
      <trkpt lat="46.17768" lon="4.137325"><ele>397.3</ele></trkpt>
      <trkpt lat="46.1775" lon="4.1374"><ele>396.7</ele></trkpt>
      <trkpt lat="46.17745" lon="4.13759"><ele>396.3</ele></trkpt>
      <trkpt lat="46.177505" lon="4.137745"><ele>396.2</ele></trkpt>
      <trkpt lat="46.17756" lon="4.1379"><ele>395.8</ele></trkpt>
      <trkpt lat="46.177465" lon="4.138025"><ele>395.3</ele></trkpt>
      <trkpt lat="46.17737" lon="4.13815"><ele>394.8</ele></trkpt>
      <trkpt lat="46.17724" lon="4.13817"><ele>394.4</ele></trkpt>
      <trkpt lat="46.17716" lon="4.13794"><ele>394.6</ele></trkpt>
      <trkpt lat="46.177045" lon="4.137965"><ele>394.3</ele></trkpt>
      <trkpt lat="46.17693" lon="4.13799"><ele>393.9</ele></trkpt>
      <trkpt lat="46.17685" lon="4.1382"><ele>393.3</ele></trkpt>
      <trkpt lat="46.17672" lon="4.13817"><ele>393.1</ele></trkpt>
      <trkpt lat="46.17659" lon="4.13814"><ele>392.8</ele></trkpt>
      <trkpt lat="46.176425" lon="4.138135"><ele>391.9</ele></trkpt>
      <trkpt lat="46.17626" lon="4.13813"><ele>390.9</ele></trkpt>
      <trkpt lat="46.17611" lon="4.13815"><ele>390.5</ele></trkpt>
      <trkpt lat="46.17601" lon="4.1382"><ele>390.5</ele></trkpt>
      <trkpt lat="46.17592" lon="4.13828"><ele>390.7</ele></trkpt>
      <trkpt lat="46.175795" lon="4.13845"><ele>391.0</ele></trkpt>
      <trkpt lat="46.17567" lon="4.13862"><ele>390.7</ele></trkpt>
      <trkpt lat="46.17551" lon="4.13877"><ele>389.9</ele></trkpt>
      <trkpt lat="46.17542" lon="4.13884"><ele>389.0</ele></trkpt>
      <trkpt lat="46.17528" lon="4.13892"><ele>387.9</ele></trkpt>
      <trkpt lat="46.17514" lon="4.139"><ele>387.1</ele></trkpt>
      <trkpt lat="46.17507" lon="4.13898"><ele>387.0</ele></trkpt>
      <trkpt lat="46.17503" lon="4.13891"><ele>386.9</ele></trkpt>
      <trkpt lat="46.174947" lon="4.138687"><ele>386.4</ele></trkpt>
      <trkpt lat="46.174863" lon="4.138463"><ele>385.7</ele></trkpt>
      <trkpt lat="46.17478" lon="4.13824"><ele>384.4</ele></trkpt>
      <trkpt lat="46.17461" lon="4.138406"><ele>384.4</ele></trkpt>
      <trkpt lat="46.17444" lon="4.138572"><ele>384.3</ele></trkpt>
      <trkpt lat="46.17427" lon="4.138739"><ele>383.7</ele></trkpt>
      <trkpt lat="46.1741" lon="4.138905"><ele>383.5</ele></trkpt>
      <trkpt lat="46.17393" lon="4.139071"><ele>383.3</ele></trkpt>
      <trkpt lat="46.17376" lon="4.139238"><ele>383.1</ele></trkpt>
      <trkpt lat="46.17359" lon="4.139404"><ele>382.8</ele></trkpt>
      <trkpt lat="46.17342" lon="4.13957"><ele>382.8</ele></trkpt>
      <trkpt lat="46.173305" lon="4.139665"><ele>382.8</ele></trkpt>
      <trkpt lat="46.17319" lon="4.13976"><ele>382.6</ele></trkpt>
      <trkpt lat="46.17304" lon="4.13985"><ele>382.5</ele></trkpt>
      <trkpt lat="46.172845" lon="4.139943"><ele>382.1</ele></trkpt>
      <trkpt lat="46.17265" lon="4.140035"><ele>381.7</ele></trkpt>
      <trkpt lat="46.172455" lon="4.140128"><ele>381.7</ele></trkpt>
      <trkpt lat="46.17226" lon="4.14022"><ele>381.3</ele></trkpt>
      <trkpt lat="46.172056" lon="4.140292"><ele>381.2</ele></trkpt>
      <trkpt lat="46.171852" lon="4.140364"><ele>381.1</ele></trkpt>
      <trkpt lat="46.171648" lon="4.140436"><ele>380.6</ele></trkpt>
      <trkpt lat="46.171444" lon="4.140508"><ele>380.4</ele></trkpt>
      <trkpt lat="46.17124" lon="4.14058"><ele>380.2</ele></trkpt>
      <trkpt lat="46.171055" lon="4.14069"><ele>379.8</ele></trkpt>
      <trkpt lat="46.17087" lon="4.1408"><ele>379.2</ele></trkpt>
      <trkpt lat="46.170692" lon="4.140924"><ele>378.6</ele></trkpt>
      <trkpt lat="46.170514" lon="4.141048"><ele>377.8</ele></trkpt>
      <trkpt lat="46.170336" lon="4.141172"><ele>377.1</ele></trkpt>
      <trkpt lat="46.170158" lon="4.141296"><ele>376.3</ele></trkpt>
      <trkpt lat="46.16998" lon="4.14142"><ele>375.5</ele></trkpt>
      <trkpt lat="46.1698" lon="4.14135"><ele>374.2</ele></trkpt>
      <trkpt lat="46.169595" lon="4.14125"><ele>372.6</ele></trkpt>
      <trkpt lat="46.16939" lon="4.14115"><ele>370.3</ele></trkpt>
      <trkpt lat="46.16923" lon="4.141087"><ele>369.5</ele></trkpt>
      <trkpt lat="46.16907" lon="4.141023"><ele>368.4</ele></trkpt>
      <trkpt lat="46.16891" lon="4.14096"><ele>367.5</ele></trkpt>
      <trkpt lat="46.168764" lon="4.140802"><ele>365.9</ele></trkpt>
      <trkpt lat="46.168618" lon="4.140644"><ele>364.2</ele></trkpt>
      <trkpt lat="46.168472" lon="4.140486"><ele>362.7</ele></trkpt>
      <trkpt lat="46.168326" lon="4.140328"><ele>360.1</ele></trkpt>
      <trkpt lat="46.16818" lon="4.14017"><ele>358.2</ele></trkpt>
      <trkpt lat="46.16809" lon="4.14003"><ele>356.4</ele></trkpt>
      <trkpt lat="46.16799" lon="4.13984"><ele>354.2</ele></trkpt>
      <trkpt lat="46.16789" lon="4.13965"><ele>351.7</ele></trkpt>
      <trkpt lat="46.16779" lon="4.13946"><ele>349.3</ele></trkpt>
      <trkpt lat="46.167695" lon="4.139205"><ele>345.9</ele></trkpt>
      <trkpt lat="46.1676" lon="4.13895"><ele>342.6</ele></trkpt>
      <trkpt lat="46.167585" lon="4.138705"><ele>339.8</ele></trkpt>
      <trkpt lat="46.16757" lon="4.13846"><ele>338.0</ele></trkpt>
      <trkpt lat="46.1675" lon="4.1382"><ele>335.2</ele></trkpt>
      <trkpt lat="46.16743" lon="4.13794"><ele>332.4</ele></trkpt>
      <trkpt lat="46.167347" lon="4.13774"><ele>330.4</ele></trkpt>
      <trkpt lat="46.167263" lon="4.13754"><ele>328.2</ele></trkpt>
      <trkpt lat="46.16718" lon="4.13734"><ele>326.7</ele></trkpt>
      <trkpt lat="46.16705" lon="4.13716"><ele>326.1</ele></trkpt>
      <trkpt lat="46.16696" lon="4.13701"><ele>325.8</ele></trkpt>
      <trkpt lat="46.16694" lon="4.13695"><ele>325.8</ele></trkpt>
      <trkpt lat="46.16694" lon="4.13688"><ele>325.9</ele></trkpt>
      <trkpt lat="46.16702" lon="4.136685"><ele>326.7</ele></trkpt>
      <trkpt lat="46.1671" lon="4.13649"><ele>326.9</ele></trkpt>
      <trkpt lat="46.16714" lon="4.13629"><ele>327.6</ele></trkpt>
      <trkpt lat="46.16713" lon="4.13603"><ele>328.9</ele></trkpt>
      <trkpt lat="46.16707" lon="4.13586"><ele>330.9</ele></trkpt>
      <trkpt lat="46.166975" lon="4.135995"><ele>331.8</ele></trkpt>
      <trkpt lat="46.16688" lon="4.13613"><ele>332.4</ele></trkpt>
      <trkpt lat="46.16673" lon="4.13628"><ele>333.7</ele></trkpt>
      <trkpt lat="46.16653" lon="4.1364"><ele>333.7</ele></trkpt>
      <trkpt lat="46.166333" lon="4.136457"><ele>334.9</ele></trkpt>
      <trkpt lat="46.166137" lon="4.136513"><ele>336.4</ele></trkpt>
      <trkpt lat="46.16594" lon="4.13657"><ele>336.9</ele></trkpt>
      <trkpt lat="46.165757" lon="4.1366"><ele>339.2</ele></trkpt>
      <trkpt lat="46.165573" lon="4.13663"><ele>340.7</ele></trkpt>
      <trkpt lat="46.16539" lon="4.13666"><ele>341.8</ele></trkpt>
      <trkpt lat="46.165245" lon="4.136655"><ele>343.0</ele></trkpt>
      <trkpt lat="46.1651" lon="4.13665"><ele>344.5</ele></trkpt>
      <trkpt lat="46.16492" lon="4.13661"><ele>345.4</ele></trkpt>
      <trkpt lat="46.16478" lon="4.13652"><ele>346.7</ele></trkpt>
      <trkpt lat="46.164625" lon="4.136385"><ele>348.9</ele></trkpt>
      <trkpt lat="46.16447" lon="4.13625"><ele>350.6</ele></trkpt>
      <trkpt lat="46.164405" lon="4.13651"><ele>348.6</ele></trkpt>
      <trkpt lat="46.16434" lon="4.13677"><ele>346.4</ele></trkpt>
      <trkpt lat="46.16428" lon="4.136973"><ele>344.4</ele></trkpt>
      <trkpt lat="46.16422" lon="4.137177"><ele>342.1</ele></trkpt>
      <trkpt lat="46.16416" lon="4.13738"><ele>340.9</ele></trkpt>
      <trkpt lat="46.164065" lon="4.137645"><ele>337.9</ele></trkpt>
      <trkpt lat="46.16397" lon="4.13791"><ele>335.1</ele></trkpt>
      <trkpt lat="46.163875" lon="4.138175"><ele>332.7</ele></trkpt>
      <trkpt lat="46.16378" lon="4.13844"><ele>330.0</ele></trkpt>
      <trkpt lat="46.16374" lon="4.13864"><ele>328.2</ele></trkpt>
      <trkpt lat="46.1637" lon="4.13884"><ele>327.1</ele></trkpt>
      <trkpt lat="46.163655" lon="4.139135"><ele>324.4</ele></trkpt>
      <trkpt lat="46.16361" lon="4.13943"><ele>321.4</ele></trkpt>
      <trkpt lat="46.1636" lon="4.13967"><ele>318.9</ele></trkpt>
      <trkpt lat="46.16362" lon="4.13975"><ele>317.3</ele></trkpt>
      <trkpt lat="46.1637" lon="4.13992"><ele>315.5</ele></trkpt>
      <trkpt lat="46.16379" lon="4.140045"><ele>315.2</ele></trkpt>
      <trkpt lat="46.16388" lon="4.14017"><ele>315.6</ele></trkpt>
      <trkpt lat="46.16396" lon="4.14032"><ele>316.5</ele></trkpt>
      <trkpt lat="46.16402" lon="4.140535"><ele>318.8</ele></trkpt>
      <trkpt lat="46.16408" lon="4.14075"><ele>321.5</ele></trkpt>
      <trkpt lat="46.1641" lon="4.140925"><ele>323.3</ele></trkpt>
      <trkpt lat="46.16412" lon="4.1411"><ele>325.2</ele></trkpt>
      <trkpt lat="46.164115" lon="4.14131"><ele>327.7</ele></trkpt>
      <trkpt lat="46.16411" lon="4.14152"><ele>330.2</ele></trkpt>
      <trkpt lat="46.16403" lon="4.141757"><ele>331.7</ele></trkpt>
      <trkpt lat="46.16395" lon="4.141993"><ele>334.2</ele></trkpt>
      <trkpt lat="46.16387" lon="4.14223"><ele>335.8</ele></trkpt>
      <trkpt lat="46.163835" lon="4.142535"><ele>339.3</ele></trkpt>
      <trkpt lat="46.1638" lon="4.14284"><ele>342.0</ele></trkpt>
      <trkpt lat="46.163765" lon="4.142995"><ele>342.3</ele></trkpt>
      <trkpt lat="46.16373" lon="4.14315"><ele>342.9</ele></trkpt>
      <trkpt lat="46.163655" lon="4.14343"><ele>344.3</ele></trkpt>
      <trkpt lat="46.16358" lon="4.14371"><ele>345.8</ele></trkpt>
      <trkpt lat="46.16348" lon="4.14396"><ele>347.5</ele></trkpt>
      <trkpt lat="46.16338" lon="4.144123"><ele>348.5</ele></trkpt>
      <trkpt lat="46.16328" lon="4.144287"><ele>349.7</ele></trkpt>
      <trkpt lat="46.16318" lon="4.14445"><ele>351.5</ele></trkpt>
      <trkpt lat="46.163063" lon="4.144713"><ele>353.3</ele></trkpt>
      <trkpt lat="46.162947" lon="4.144977"><ele>354.4</ele></trkpt>
      <trkpt lat="46.16283" lon="4.14524"><ele>355.1</ele></trkpt>
      <trkpt lat="46.16269" lon="4.14545"><ele>354.7</ele></trkpt>
      <trkpt lat="46.16256" lon="4.14567"><ele>354.2</ele></trkpt>
      <trkpt lat="46.16243" lon="4.14589"><ele>353.9</ele></trkpt>
      <trkpt lat="46.1623" lon="4.14611"><ele>353.6</ele></trkpt>
      <trkpt lat="46.16223" lon="4.146245"><ele>353.3</ele></trkpt>
      <trkpt lat="46.16216" lon="4.14638"><ele>353.3</ele></trkpt>
      <trkpt lat="46.162065" lon="4.146605"><ele>353.0</ele></trkpt>
      <trkpt lat="46.16197" lon="4.14683"><ele>352.8</ele></trkpt>
      <trkpt lat="46.16187" lon="4.14666"><ele>352.3</ele></trkpt>
      <trkpt lat="46.16177" lon="4.14649"><ele>351.8</ele></trkpt>
      <trkpt lat="46.16167" lon="4.14632"><ele>350.5</ele></trkpt>
      <trkpt lat="46.161575" lon="4.146415"><ele>350.1</ele></trkpt>
      <trkpt lat="46.16148" lon="4.14651"><ele>349.7</ele></trkpt>
      <trkpt lat="46.1614" lon="4.14662"><ele>349.3</ele></trkpt>
      <trkpt lat="46.16128" lon="4.146832"><ele>348.5</ele></trkpt>
      <trkpt lat="46.16116" lon="4.147044"><ele>347.6</ele></trkpt>
      <trkpt lat="46.16104" lon="4.147256"><ele>346.7</ele></trkpt>
      <trkpt lat="46.16092" lon="4.147468"><ele>345.5</ele></trkpt>
      <trkpt lat="46.1608" lon="4.14768"><ele>344.3</ele></trkpt>
      <trkpt lat="46.16072" lon="4.14786"><ele>344.2</ele></trkpt>
      <trkpt lat="46.16064" lon="4.14804"><ele>344.6</ele></trkpt>
      <trkpt lat="46.16058" lon="4.14777"><ele>342.6</ele></trkpt>
      <trkpt lat="46.16052" lon="4.1475"><ele>340.6</ele></trkpt>
      <trkpt lat="46.16044" lon="4.14722"><ele>338.4</ele></trkpt>
      <trkpt lat="46.16036" lon="4.14694"><ele>336.2</ele></trkpt>
      <trkpt lat="46.160333" lon="4.1467"><ele>333.2</ele></trkpt>
      <trkpt lat="46.160307" lon="4.14646"><ele>329.6</ele></trkpt>
      <trkpt lat="46.16028" lon="4.14622"><ele>326.4</ele></trkpt>
      <trkpt lat="46.16024" lon="4.1462"><ele>325.6</ele></trkpt>
      <trkpt lat="46.16017" lon="4.14622"><ele>324.0</ele></trkpt>
      <trkpt lat="46.16012" lon="4.14625"><ele>323.0</ele></trkpt>
      <trkpt lat="46.16008" lon="4.14632"><ele>322.1</ele></trkpt>
      <trkpt lat="46.16002" lon="4.14637"><ele>321.1</ele></trkpt>
      <trkpt lat="46.15989" lon="4.14644"><ele>318.6</ele></trkpt>
      <trkpt lat="46.15967" lon="4.14647"><ele>314.9</ele></trkpt>
      <trkpt lat="46.15945" lon="4.1465"><ele>312.9</ele></trkpt>
      <trkpt lat="46.159295" lon="4.14657"><ele>312.5</ele></trkpt>
      <trkpt lat="46.15914" lon="4.14664"><ele>311.3</ele></trkpt>
      <trkpt lat="46.158985" lon="4.146755"><ele>311.6</ele></trkpt>
      <trkpt lat="46.15883" lon="4.14687"><ele>312.8</ele></trkpt>
      <trkpt lat="46.158675" lon="4.146985"><ele>312.6</ele></trkpt>
      <trkpt lat="46.15852" lon="4.1471"><ele>312.1</ele></trkpt>
      <trkpt lat="46.158385" lon="4.147275"><ele>312.0</ele></trkpt>
      <trkpt lat="46.15825" lon="4.14745"><ele>311.4</ele></trkpt>
      <trkpt lat="46.15818" lon="4.14756"><ele>310.3</ele></trkpt>
      <trkpt lat="46.158074" lon="4.14778"><ele>309.5</ele></trkpt>
      <trkpt lat="46.157968" lon="4.148"><ele>307.6</ele></trkpt>
      <trkpt lat="46.157862" lon="4.14822"><ele>308.0</ele></trkpt>
      <trkpt lat="46.157756" lon="4.14844"><ele>308.8</ele></trkpt>
      <trkpt lat="46.15765" lon="4.14866"><ele>308.5</ele></trkpt>
      <trkpt lat="46.157505" lon="4.148855"><ele>307.7</ele></trkpt>
      <trkpt lat="46.15736" lon="4.14905"><ele>308.1</ele></trkpt>
      <trkpt lat="46.15724" lon="4.149193"><ele>308.9</ele></trkpt>
      <trkpt lat="46.15712" lon="4.149337"><ele>309.2</ele></trkpt>
      <trkpt lat="46.157" lon="4.14948"><ele>309.7</ele></trkpt>
      <trkpt lat="46.156915" lon="4.14961"><ele>309.8</ele></trkpt>
      <trkpt lat="46.15683" lon="4.14974"><ele>309.4</ele></trkpt>
      <trkpt lat="46.156735" lon="4.149985"><ele>309.0</ele></trkpt>
      <trkpt lat="46.15664" lon="4.15023"><ele>309.4</ele></trkpt>
      <trkpt lat="46.156545" lon="4.150475"><ele>309.7</ele></trkpt>
      <trkpt lat="46.15645" lon="4.15072"><ele>309.9</ele></trkpt>
      <trkpt lat="46.15648" lon="4.15078"><ele>310.1</ele></trkpt>
      <trkpt lat="46.15642" lon="4.15089"><ele>309.2</ele></trkpt>
      <trkpt lat="46.1564" lon="4.15097"><ele>308.7</ele></trkpt>
      <trkpt lat="46.15639" lon="4.15109"><ele>307.1</ele></trkpt>
      <trkpt lat="46.15643" lon="4.15122"><ele>306.3</ele></trkpt>
      <trkpt lat="46.15642" lon="4.15128"><ele>306.0</ele></trkpt>
      <trkpt lat="46.15645" lon="4.151455"><ele>304.5</ele></trkpt>
      <trkpt lat="46.15648" lon="4.15163"><ele>302.4</ele></trkpt>
      <trkpt lat="46.15648" lon="4.15167"><ele>301.7</ele></trkpt>
      <trkpt lat="46.15645" lon="4.15173"><ele>300.7</ele></trkpt>
      <trkpt lat="46.156288" lon="4.151827"><ele>297.5</ele></trkpt>
      <trkpt lat="46.156125" lon="4.151925"><ele>293.9</ele></trkpt>
      <trkpt lat="46.155963" lon="4.152023"><ele>288.9</ele></trkpt>
      <trkpt lat="46.1558" lon="4.15212"><ele>285.6</ele></trkpt>
      <trkpt lat="46.155607" lon="4.152173"><ele>280.9</ele></trkpt>
      <trkpt lat="46.155413" lon="4.152227"><ele>277.4</ele></trkpt>
      <trkpt lat="46.15522" lon="4.15228"><ele>274.0</ele></trkpt>
      <trkpt lat="46.15517" lon="4.15207"><ele>274.0</ele></trkpt>
      <trkpt lat="46.15507" lon="4.15185"><ele>274.1</ele></trkpt>
      <trkpt lat="46.15498" lon="4.15173"><ele>274.0</ele></trkpt>
      <trkpt lat="46.15481" lon="4.15158"><ele>273.9</ele></trkpt>
      <trkpt lat="46.15486" lon="4.15149"><ele>273.8</ele></trkpt>
      <trkpt lat="46.15485" lon="4.15139"><ele>274.1</ele></trkpt>
      <trkpt lat="46.154792" lon="4.151102"><ele>274.0</ele></trkpt>
      <trkpt lat="46.154734" lon="4.150814"><ele>274.1</ele></trkpt>
      <trkpt lat="46.154676" lon="4.150526"><ele>274.2</ele></trkpt>
      <trkpt lat="46.154618" lon="4.150238"><ele>274.3</ele></trkpt>
      <trkpt lat="46.15456" lon="4.14995"><ele>274.6</ele></trkpt>
      <trkpt lat="46.15452" lon="4.14971"><ele>274.4</ele></trkpt>
      <trkpt lat="46.15448" lon="4.14947"><ele>274.4</ele></trkpt>
      <trkpt lat="46.154417" lon="4.149167"><ele>274.5</ele></trkpt>
      <trkpt lat="46.154353" lon="4.148863"><ele>274.5</ele></trkpt>
      <trkpt lat="46.15429" lon="4.14856"><ele>274.4</ele></trkpt>
      <trkpt lat="46.154233" lon="4.14833"><ele>274.4</ele></trkpt>
      <trkpt lat="46.154177" lon="4.1481"><ele>274.6</ele></trkpt>
      <trkpt lat="46.15412" lon="4.14787"><ele>274.4</ele></trkpt>
      <trkpt lat="46.15404" lon="4.1476"><ele>274.6</ele></trkpt>
      <trkpt lat="46.15396" lon="4.14733"><ele>274.6</ele></trkpt>
      <trkpt lat="46.153878" lon="4.147076"><ele>274.5</ele></trkpt>
      <trkpt lat="46.153796" lon="4.146822"><ele>274.5</ele></trkpt>
      <trkpt lat="46.153714" lon="4.146568"><ele>274.5</ele></trkpt>
      <trkpt lat="46.153632" lon="4.146314"><ele>274.4</ele></trkpt>
      <trkpt lat="46.15355" lon="4.14606"><ele>274.4</ele></trkpt>
      <trkpt lat="46.153495" lon="4.14591"><ele>274.4</ele></trkpt>
      <trkpt lat="46.15344" lon="4.14576"><ele>274.5</ele></trkpt>
      <trkpt lat="46.153356" lon="4.145492"><ele>274.8</ele></trkpt>
      <trkpt lat="46.153271" lon="4.145224"><ele>274.6</ele></trkpt>
      <trkpt lat="46.153187" lon="4.144957"><ele>274.5</ele></trkpt>
      <trkpt lat="46.153102" lon="4.144689"><ele>274.4</ele></trkpt>
      <trkpt lat="46.153018" lon="4.144421"><ele>274.3</ele></trkpt>
      <trkpt lat="46.152933" lon="4.144153"><ele>274.3</ele></trkpt>
      <trkpt lat="46.152849" lon="4.143886"><ele>274.4</ele></trkpt>
      <trkpt lat="46.152764" lon="4.143618"><ele>274.6</ele></trkpt>
      <trkpt lat="46.15268" lon="4.14335"><ele>274.5</ele></trkpt>
      <trkpt lat="46.1526" lon="4.143117"><ele>274.5</ele></trkpt>
      <trkpt lat="46.15252" lon="4.142883"><ele>274.7</ele></trkpt>
      <trkpt lat="46.15244" lon="4.14265"><ele>274.7</ele></trkpt>
      <trkpt lat="46.152364" lon="4.142396"><ele>275.2</ele></trkpt>
      <trkpt lat="46.152288" lon="4.142142"><ele>275.0</ele></trkpt>
      <trkpt lat="46.152212" lon="4.141888"><ele>274.9</ele></trkpt>
      <trkpt lat="46.152136" lon="4.141634"><ele>274.8</ele></trkpt>
      <trkpt lat="46.15206" lon="4.14138"><ele>274.6</ele></trkpt>
      <trkpt lat="46.152001" lon="4.141097"><ele>274.7</ele></trkpt>
      <trkpt lat="46.151942" lon="4.140813"><ele>274.3</ele></trkpt>
      <trkpt lat="46.151883" lon="4.14053"><ele>274.4</ele></trkpt>
      <trkpt lat="46.151824" lon="4.140247"><ele>274.3</ele></trkpt>
      <trkpt lat="46.151766" lon="4.139963"><ele>274.2</ele></trkpt>
      <trkpt lat="46.151707" lon="4.13968"><ele>273.6</ele></trkpt>
      <trkpt lat="46.151648" lon="4.139397"><ele>273.6</ele></trkpt>
      <trkpt lat="46.151589" lon="4.139113"><ele>272.5</ele></trkpt>
      <trkpt lat="46.15153" lon="4.13883"><ele>272.7</ele></trkpt>
      <trkpt lat="46.151485" lon="4.13857"><ele>272.4</ele></trkpt>
      <trkpt lat="46.15144" lon="4.13831"><ele>271.5</ele></trkpt>
      <trkpt lat="46.151379" lon="4.138011"><ele>272.1</ele></trkpt>
      <trkpt lat="46.151318" lon="4.137712"><ele>272.3</ele></trkpt>
      <trkpt lat="46.151256" lon="4.137414"><ele>271.9</ele></trkpt>
      <trkpt lat="46.151195" lon="4.137115"><ele>271.3</ele></trkpt>
      <trkpt lat="46.151134" lon="4.136816"><ele>271.1</ele></trkpt>
      <trkpt lat="46.151073" lon="4.136518"><ele>270.6</ele></trkpt>
      <trkpt lat="46.151011" lon="4.136219"><ele>270.7</ele></trkpt>
      <trkpt lat="46.15095" lon="4.13592"><ele>270.4</ele></trkpt>
      <trkpt lat="46.150895" lon="4.135637"><ele>269.9</ele></trkpt>
      <trkpt lat="46.15084" lon="4.135355"><ele>269.9</ele></trkpt>
      <trkpt lat="46.150785" lon="4.135072"><ele>269.9</ele></trkpt>
      <trkpt lat="46.15073" lon="4.13479"><ele>269.5</ele></trkpt>
      <trkpt lat="46.150675" lon="4.134508"><ele>269.4</ele></trkpt>
      <trkpt lat="46.15062" lon="4.134225"><ele>269.4</ele></trkpt>
      <trkpt lat="46.150565" lon="4.133943"><ele>269.4</ele></trkpt>
      <trkpt lat="46.15051" lon="4.13366"><ele>268.8</ele></trkpt>
      <trkpt lat="46.150485" lon="4.1335"><ele>268.8</ele></trkpt>
      <trkpt lat="46.15046" lon="4.13334"><ele>268.5</ele></trkpt>
      <trkpt lat="46.15044" lon="4.133047"><ele>268.5</ele></trkpt>
      <trkpt lat="46.15042" lon="4.132753"><ele>268.3</ele></trkpt>
      <trkpt lat="46.1504" lon="4.13246"><ele>268.0</ele></trkpt>
      <trkpt lat="46.15041" lon="4.13224"><ele>267.9</ele></trkpt>
      <trkpt lat="46.15042" lon="4.13202"><ele>267.7</ele></trkpt>
      <trkpt lat="46.15043" lon="4.1318"><ele>267.3</ele></trkpt>
      <trkpt lat="46.15045" lon="4.131563"><ele>267.2</ele></trkpt>
      <trkpt lat="46.15047" lon="4.131327"><ele>267.0</ele></trkpt>
      <trkpt lat="46.15049" lon="4.13109"><ele>266.9</ele></trkpt>
      <trkpt lat="46.150532" lon="4.130787"><ele>266.6</ele></trkpt>
      <trkpt lat="46.150574" lon="4.130485"><ele>266.4</ele></trkpt>
      <trkpt lat="46.150616" lon="4.130182"><ele>266.2</ele></trkpt>
      <trkpt lat="46.150658" lon="4.129879"><ele>266.1</ele></trkpt>
      <trkpt lat="46.150701" lon="4.129577"><ele>265.9</ele></trkpt>
      <trkpt lat="46.150743" lon="4.129274"><ele>265.8</ele></trkpt>
      <trkpt lat="46.150785" lon="4.128972"><ele>265.6</ele></trkpt>
      <trkpt lat="46.150827" lon="4.128669"><ele>265.6</ele></trkpt>
      <trkpt lat="46.150869" lon="4.128366"><ele>265.4</ele></trkpt>
      <trkpt lat="46.150911" lon="4.128064"><ele>265.4</ele></trkpt>
      <trkpt lat="46.150953" lon="4.127761"><ele>265.3</ele></trkpt>
      <trkpt lat="46.150995" lon="4.127458"><ele>265.2</ele></trkpt>
      <trkpt lat="46.151037" lon="4.127156"><ele>265.2</ele></trkpt>
      <trkpt lat="46.151079" lon="4.126853"><ele>265.2</ele></trkpt>
      <trkpt lat="46.151122" lon="4.126551"><ele>265.0</ele></trkpt>
      <trkpt lat="46.151164" lon="4.126248"><ele>264.9</ele></trkpt>
      <trkpt lat="46.151206" lon="4.125945"><ele>264.9</ele></trkpt>
      <trkpt lat="46.151248" lon="4.125643"><ele>264.8</ele></trkpt>
      <trkpt lat="46.15129" lon="4.12534"><ele>264.7</ele></trkpt>
      <trkpt lat="46.15133" lon="4.1252"><ele>264.8</ele></trkpt>
      <trkpt lat="46.15144" lon="4.125"><ele>265.1</ele></trkpt>
      <trkpt lat="46.15145" lon="4.12492"><ele>265.0</ele></trkpt>
      <trkpt lat="46.15138" lon="4.12477"><ele>265.0</ele></trkpt>
      <trkpt lat="46.15138" lon="4.12468"><ele>264.7</ele></trkpt>
      <trkpt lat="46.151421" lon="4.124386"><ele>264.4</ele></trkpt>
      <trkpt lat="46.151462" lon="4.124092"><ele>264.3</ele></trkpt>
      <trkpt lat="46.151502" lon="4.123798"><ele>264.2</ele></trkpt>
      <trkpt lat="46.151543" lon="4.123505"><ele>264.2</ele></trkpt>
      <trkpt lat="46.151584" lon="4.123211"><ele>264.2</ele></trkpt>
      <trkpt lat="46.151625" lon="4.122917"><ele>264.2</ele></trkpt>
      <trkpt lat="46.151665" lon="4.122623"><ele>264.2</ele></trkpt>
      <trkpt lat="46.151706" lon="4.122329"><ele>264.1</ele></trkpt>
      <trkpt lat="46.151747" lon="4.122035"><ele>264.1</ele></trkpt>
      <trkpt lat="46.151788" lon="4.121742"><ele>264.0</ele></trkpt>
      <trkpt lat="46.151828" lon="4.121448"><ele>263.9</ele></trkpt>
      <trkpt lat="46.151869" lon="4.121154"><ele>263.9</ele></trkpt>
      <trkpt lat="46.15191" lon="4.12086"><ele>263.8</ele></trkpt>
      <trkpt lat="46.151957" lon="4.12063"><ele>263.7</ele></trkpt>
      <trkpt lat="46.152003" lon="4.1204"><ele>263.6</ele></trkpt>
      <trkpt lat="46.15205" lon="4.12017"><ele>263.5</ele></trkpt>
      <trkpt lat="46.152113" lon="4.119897"><ele>263.3</ele></trkpt>
      <trkpt lat="46.152177" lon="4.119623"><ele>263.4</ele></trkpt>
      <trkpt lat="46.15224" lon="4.11935"><ele>263.3</ele></trkpt>
      <trkpt lat="46.15239" lon="4.119425"><ele>263.5</ele></trkpt>
      <trkpt lat="46.15254" lon="4.1195"><ele>263.8</ele></trkpt>
      <trkpt lat="46.15259" lon="4.11947"><ele>263.9</ele></trkpt>
      <trkpt lat="46.152757" lon="4.11954"><ele>263.8</ele></trkpt>
      <trkpt lat="46.152923" lon="4.11961"><ele>263.9</ele></trkpt>
      <trkpt lat="46.15309" lon="4.11968"><ele>264.1</ele></trkpt>
      <trkpt lat="46.15325" lon="4.11973"><ele>264.3</ele></trkpt>
      <trkpt lat="46.15336" lon="4.11978"><ele>264.6</ele></trkpt>
      <trkpt lat="46.15341" lon="4.11983"><ele>264.8</ele></trkpt>
      <trkpt lat="46.15344" lon="4.11992"><ele>264.9</ele></trkpt>
      <trkpt lat="46.15346" lon="4.120137"><ele>265.2</ele></trkpt>
      <trkpt lat="46.15348" lon="4.120353"><ele>265.8</ele></trkpt>
      <trkpt lat="46.1535" lon="4.12057"><ele>266.1</ele></trkpt>
      <trkpt lat="46.15352" lon="4.12059"><ele>266.1</ele></trkpt>
      <trkpt lat="46.15364" lon="4.12058"><ele>266.9</ele></trkpt>
      <trkpt lat="46.153641" lon="4.120595"><ele>266.9</ele></trkpt>
    </trkseg>
  </trk>
</gpx>
